Operacao;HotelId;Pais;Estado;Cidade;Hotel;Endereco;Bairro;Cep;Telefone;Email;Site;Latitude;Longitude;ISS;TaxaTur;TaxaSer;Cafe;Amenidades;Estrelas;Foto;Ativo;Status;geocode_end
;8B4122B1-72D4-4F5E-BCB9-350497E1B420;Brasil;Acre;Brasileia;Tropical Hotel;Avenida Doutor Manoel Marinho Monte, 1536;Ferreira Silva;;;;;-10.99865;-68.7519;;;;N;;0;;S;;Brasil,Acre,Brasileia,Tropical Hotel,Avenida Doutor Manoel Marinho Monte, 1536,Ferreira Silva,        
;1CF153E6-5DA3-4DCE-806E-574FAF140E44;Brasil;Acre;Brasileia;Pousada Aconchego Da Floresta;Avenida Doutor Manoel Marinho Monte, 401;Eldorado;;;;;-11.00637;-68.74574;;;;N;;0;;S;;Brasil,Acre,Brasileia,Pousada Aconchego Da Floresta,Avenida Doutor Manoel Marinho Monte, 401,Eldorado,        
;B991C8AB-EFA1-4FA0-AFAD-5AEB3FF2598E;Brasil;Acre;Brasileia;Hotel G&k;Rua Francisco de Assis, 103;Ferreira Silva;19936000;;;;-11.00104;-68.74704;;;;N;;0;;S;;Brasil,Acre,Brasileia,Hotel G&k,Rua Francisco de Assis, 103,Ferreira Silva,19936000
;48638296-3B3C-415D-9609-77A1251F4FDE;Brasil;Acre;Brasileia;Brasileia Palace Hotel;Rua Hilario Meireles, 180;Centro;;;ache@kontik.com.br;;-11.01675;-68.74912;;;;N;;0;;S;;Brasil,Acre,Brasileia,Brasileia Palace Hotel,Rua Hilario Meireles, 180,Centro,        
;9719D4D9-CA90-4C11-9979-130BA0FC6541;Brasil;Acre;Cruzeiro do Sul;Hotel Jurua;Ria Alfredo Teles, 532;Joao Alves;;;;;-7.63461;-72.67276;;;;N;;0;;S;;Brasil,Acre,Cruzeiro do Sul,Hotel Jurua,Ria Alfredo Teles, 532,Joao Alves,        
;41E86478-E286-4007-83B6-2061F2C700B2;Brasil;Acre;Cruzeiro do Sul;Plinio Hotel Acre;Rua Boulevard Thaumarturgo, 155 171;Centro;;;;;-7.63576;-72.66954;;;;N;;0;;S;;Brasil,Acre,Cruzeiro do Sul,Plinio Hotel Acre,Rua Boulevard Thaumarturgo, 155 171,Centro,        
;47D52E2B-E3C9-45B0-84AC-678D1303FC0F;Brasil;Acre;Cruzeiro do Sul;Hotel e Locadora Cruzeiro;Avenida Rodrigues Alves, 340;Centro;69980000;;;;-7.6337;-72.66655;;;;N;;0;;S;;Brasil,Acre,Cruzeiro do Sul,Hotel e Locadora Cruzeiro,Avenida Rodrigues Alves, 340,Centro,69980000
;70388AC3-4ADB-4ADB-B3E9-7C8996777675;Brasil;Acre;Cruzeiro do Sul;Hotel Sesc Cruzeiro Do Sul;Rodovia Ac 405, SN Km 06;Zona Rural;;;ache@kontik.com.br;;-7.62586;-72.68052;;;;N;;0;;S;;Brasil,Acre,Cruzeiro do Sul,Hotel Sesc Cruzeiro Do Sul,Rodovia Ac 405, SN Km 06,Zona Rural,        
;45F25080-4BAB-4269-BF5B-7F60057A4611;Brasil;Acre;Cruzeiro do Sul;Mandari Hotel Ltda;Av. Rodrigues Alves;Centro;69980000;;;;-7.63266;-72.66629;;;;N;;0;;S;;Brasil,Acre,Cruzeiro do Sul,Mandari Hotel Ltda,Av. Rodrigues Alves,Centro,69980000
;7554314D-648A-4D86-9CDB-A5EC7A32120B;Brasil;Acre;Cruzeiro do Sul;Samauma Hotel Cruzeiro do Sul;do Aeroporto Velho;Santa Terezinha;69980000;;;;-7.62356;-72.6887;;;;N;;0;;S;;Brasil,Acre,Cruzeiro do Sul,Samauma Hotel Cruzeiro do Sul,do Aeroporto Velho,Santa Terezinha,69980000
;31650E66-8F70-4F1D-BB63-C5C581EFE491;Brasil;Acre;Cruzeiro do Sul;Swamy Hotel;Rui Barbosa;Centro;69980000;;;;-7.6342;-72.66574;;;;N;;0;;S;;Brasil,Acre,Cruzeiro do Sul,Swamy Hotel,Rui Barbosa,Centro,69980000
;4F44AE31-EAC6-4B3A-B2C8-D095B53951F1;Brasil;Acre;Epitaciolandia;Pousada Laurian;Rodovia Br 317, Km 02, SN Cxpst 42;Aeroporto;;;;;-11.03861;-68.71987;;;;N;;0;;S;;Brasil,Acre,Epitaciolandia,Pousada Laurian,Rodovia Br 317, Km 02, SN Cxpst 42,Aeroporto,        
;B5F96AA9-D8B7-4637-B52C-E4AC8E99185B;Brasil;Acre;Epitaciolandia;Vale das Orquideas Hotel;Avenida Internacional, 249;Centro;;;;;-11.02531;-68.74841;;;;N;;0;;S;;Brasil,Acre,Epitaciolandia,Vale das Orquideas Hotel,Avenida Internacional, 249,Centro,        
;7E412A0D-3B46-4513-9799-1090460F634B;Brasil;Acre;Feijo;Hotel Acai;Avenida Marechal Deodoro, 1919;Eletroacre;;;;;-8.17361;-70.35927;;;;N;;0;;S;;Brasil,Acre,Feijo,Hotel Acai,Avenida Marechal Deodoro, 1919,Eletroacre,        
;D9D24428-0C66-451D-B2EF-67474CB9E6FC;Brasil;Acre;Jordao;Pousada Boa Vista;Ram Santa Julia, 00;Zona Rural;;;;;-10.00299;-67.83816;;;;N;;0;;S;;Brasil,Acre,Jordao,Pousada Boa Vista,Ram Santa Julia, 00,Zona Rural,        
;BCFA701E-3D88-4A98-A3DA-7D411F809B46;Brasil;Acre;Marechal Thaumaturgo;Hotel Pedroza;Avenida Beira Rio, 142 254;;;;;;-8.94055;-72.78355;;;;N;;0;;S;;Brasil,Acre,Marechal Thaumaturgo,Hotel Pedroza,Avenida Beira Rio, 142 254,,        
;05763442-A091-43D5-BBD8-6724D5D7A227;Brasil;Acre;Placido de Castro;Distribuidora Vale Do Abuna;Avenida Juvenal Antunes, 175;;;;;;-10.33545;-67.18653;;;;N;;0;;S;;Brasil,Acre,Placido de Castro,Distribuidora Vale Do Abuna,Avenida Juvenal Antunes, 175,,        
;841997A3-37CB-419C-94F1-D6187B56C48D;Brasil;Acre;Porto Walter;Vitoria Hotel II;Rua Armando Geraldo, 44;;;;;;-20.30917;-40.35074;;;;N;;0;;S;;Brasil,Acre,Porto Walter,Vitoria Hotel II,Rua Armando Geraldo, 44,,        
;C8EDDA55-8720-4D9D-A277-03B896CD11E9;Brasil;Acre;Rio Branco;Pinheiro Palace Hotel - Rio Branco;Rui Barbosa;Centro;69908680;;;;-9.973;-67.81147;;;;N;;0;;S;;Brasil,Acre,Rio Branco,Pinheiro Palace Hotel - Rio Branco,Rui Barbosa,Centro,69908680
;16DF4E02-8DEA-4DE4-81F4-13CE1A9B12A4;Brasil;Acre;Rio Branco;Hotel Triangulo-rio Branco;Floriano Peixoto;Centro;69908030;;;;-9.97471;-67.81183;;;;N;;0;;S;;Brasil,Acre,Rio Branco,Hotel Triangulo-rio Branco,Floriano Peixoto,Centro,69908030
;33BB5917-6A09-442C-8106-42A3745BBA93;Brasil;Acre;Rio Branco;Hotel Guapindaia;R Floriano Peixoto,;Centro;69908030;;;;-9.97586;-67.81108;;;;N;;0;;S;;Brasil,Acre,Rio Branco,Hotel Guapindaia,R Floriano Peixoto,,Centro,69908030
;F44D8A88-5F57-45AD-9836-48683A1C4762;Brasil;Acre;Rio Branco;Hotel Guapindaia Bosque;Rua Jose Galdino;Bosque;69900640;;;;-9.96149;-67.81313;;;;N;;0;;S;;Brasil,Acre,Rio Branco,Hotel Guapindaia Bosque,Rua Jose Galdino,Bosque,69900640
;5C2A52D9-C025-4D79-AC1E-611A985AD8B0;Brasil;Acre;Rio Branco;Villa Rio Branco Hotel Concept;Rua Cunha Matos, 393;Seis de Agosto;69905590;;;;-9.9816;-67.80967;;;;N;;0;;S;;Brasil,Acre,Rio Branco,Villa Rio Branco Hotel Concept,Rua Cunha Matos, 393,Seis de Agosto,69905590
;D34E601A-4859-4B1E-B696-66E14DA4A295;Brasil;Acre;Rio Branco;Nobile Suites Gran Lumni;Avenida Ceara, 2156;Bosque;69900379;;;;-9.97035;-67.81581;;;;N;;0;;S;;Brasil,Acre,Rio Branco,Nobile Suites Gran Lumni,Avenida Ceara, 2156,Bosque,69900379
;38D01064-B565-4D8F-A0CE-774B5D09563A;Brasil;Acre;Rio Branco;Hotel Diff;Rua Rio Grande Do Sul, 332;Dom Giocondo;69900324;;;;-9.97243;-67.81393;;;;N;;0;;S;;Brasil,Acre,Rio Branco,Hotel Diff,Rua Rio Grande Do Sul, 332,Dom Giocondo,69900324
;FA2227A7-2DFA-4813-ACC6-7C9362AECE13;Brasil;Acre;Rio Branco;Viver Residence Apart Hotel;Rua Educandos;Vila Ivonete;69914440;;;;-9.95376;-67.82611;;;;N;;0;;S;;Brasil,Acre,Rio Branco,Viver Residence Apart Hotel,Rua Educandos,Vila Ivonete,69914440
;E2CB4482-E5F2-4277-A511-8B930C4C6ABD;Brasil;Acre;Rio Branco;Amazonia Palace Hotel;Rua Isaura Parente;Bosque;69900490;;;;-9.96462;-67.81646;;;;N;;0;;S;;Brasil,Acre,Rio Branco,Amazonia Palace Hotel,Rua Isaura Parente,Bosque,69900490
;B0B6F7DB-1C0D-44A2-AA2F-94D1B861F2BF;Brasil;Acre;Rio Branco;Hotel Joao Paulo;Avenida Ceara;Centro;69908690;;;;-9.97044;-67.81521;;;;N;;0;;S;;Brasil,Acre,Rio Branco,Hotel Joao Paulo,Avenida Ceara,Centro,69908690
;652F1FEA-0765-49DE-92B0-970A40E1F708;Brasil;Acre;Rio Branco;Inacio Palace Hotel;Rua Rui Barbosa, N 450/469;Centro;69908680;;;;-9.973;-67.81147;;;;N;;0;;S;;Brasil,Acre,Rio Branco,Inacio Palace Hotel,Rua Rui Barbosa, N 450/469,Centro,69908680
;97C7CA89-1601-4DB6-B3B4-98D56151F783;Brasil;Acre;Rio Branco;Ibis Rio Branco;Estrada Dias Martins, 4600;Conjunto Tucuma;69919670;;;;-9.95936;-67.85714;;;;N;;0;;S;;Brasil,Acre,Rio Branco,Ibis Rio Branco,Estrada Dias Martins, 4600,Conjunto Tucuma,69919670
;3841A7B0-AE4B-4F27-952C-C604521A62FA;Brasil;Acre;Rio Branco;Hotel Maju;Nacoes Unidas, 302;Bosque;69909720;;;;-9.96405;-67.81081;;;;N;;0;;S;;Brasil,Acre,Rio Branco,Hotel Maju,Nacoes Unidas, 302,Bosque,69909720
;D0914527-AAB0-49B6-9BCD-C788BF2AEC87;Brasil;Acre;Rio Branco;Hotel Imperador Galvez;Rua Santa Ines, N401;Aviario;69907340;;;;-9.96414;-67.80163;;;;N;;0;;S;;Brasil,Acre,Rio Branco,Hotel Imperador Galvez,Rua Santa Ines, N401,Aviario,69907340
;B5E7D7BA-B6E0-461D-9C2D-D80A4326DAF6;Brasil;Acre;Rio Branco;Guapindaia Hotel Praca;Rui Barbosa,;Centro;69900120;;;;-9.97265;-67.81063;;;;N;;0;;S;;Brasil,Acre,Rio Branco,Guapindaia Hotel Praca,Rui Barbosa,,Centro,69900120
;C961EA6F-45B7-4ADD-9147-DFB12EFF9854;Brasil;Acre;Rio Branco;Hotel Jk;Rua Benjamim Constant, 1330;Centro;;;;;-9.97992;-67.88007;;;;N;;0;;S;;Brasil,Acre,Rio Branco,Hotel Jk,Rua Benjamim Constant, 1330,Centro,        
;72815254-33CE-4A04-9EAA-E8E854358F83;Brasil;Acre;Rio Branco;Terra Verde Hotel;Rua Marechal Teodoro N 221;Centro;69900210;;;;-9.97504;-67.80709;;;;N;;0;;S;;Brasil,Acre,Rio Branco,Terra Verde Hotel,Rua Marechal Teodoro N 221,Centro,69900210
;605FB6DB-59AB-4DCB-9CE9-83E0A314E51D;Brasil;Acre;Sena Madureira;Gregorio's Plaza Hotel;Rua Dom Julio Matiolli;Centro;69940000;;ache@kontik.com.br;;-9.06445;-68.65677;;;;N;;0;;S;;Brasil,Acre,Sena Madureira,Gregorio's Plaza Hotel,Rua Dom Julio Matiolli,Centro,69940000
;6E62CA41-AC99-446D-B11B-D7876C8F9B44;Brasil;Acre;Sena Madureira;Riosena Hotel;Rua Benjamin Constant, 61;Centro;;;;;-9.06594;-68.65471;;;;N;;0;;S;;Brasil,Acre,Sena Madureira,Riosena Hotel,Rua Benjamin Constant, 61,Centro,        
;97157A4F-E1BD-4475-B16E-653C54DF7AA8;Brasil;Acre;Tarauaca;Ouro Hotel;Rua Justiniano de Serpa;Centro;69970000;;;;-8.15964;-70.76408;;;;N;;0;;S;;Brasil,Acre,Tarauaca,Ouro Hotel,Rua Justiniano de Serpa,Centro,69970000
;3D439081-3DF9-416D-B106-9B74B978969F;Brasil;Acre;Tarauaca;Pro Link Hotel;Avenida Antonio Frota, 75;Centro;;;;;-8.1597;-70.76544;;;;N;;0;;S;;Brasil,Acre,Tarauaca,Pro Link Hotel,Avenida Antonio Frota, 75,Centro,        
;8575E7A1-D00B-4AEB-B08F-BF08F13A9E99;Brasil;Acre;Acrelandia;Hotel Acaua;Avenida Brasil, 46;Centro;;;;;-10.07265;-67.05306;;;;N;;0;;S;;Brasil,Acre,Acrelandia,Hotel Acaua,Avenida Brasil, 46,Centro,        
;04C566AB-FF99-42DD-A4E0-08DC25CEB154;Brasil;Alagoas;Arapiraca;Hotel Estilo;Rodovia Al-220 - Lado Par;Planalto;57308000;;;;-9.72788;-36.66806;;;;N;;0;;S;;Brasil,Alagoas,Arapiraca,Hotel Estilo,Rodovia Al-220 - Lado Par,Planalto,57308000
;8DCAFBEB-A42D-4308-8EBE-1BB71A1718B4;Brasil;Alagoas;Arapiraca;Recife Hotel;Largo Dom Fernando Gomes;Centro;57300290;;;;-9.75116;-36.66102;;;;N;;0;;S;;Brasil,Alagoas,Arapiraca,Recife Hotel,Largo Dom Fernando Gomes,Centro,57300290
;AF27F2FF-6A5C-45B4-B57B-26E10808E5D2;Brasil;Alagoas;Arapiraca;Hotel Sol Nascente - Arapiraca;Rodovia Al 220;Jardim Esperanca;57307610;;isabelasouza@kontik.com.br;;-9.72366;-36.6809;;;;N;;0;;S;;Brasil,Alagoas,Arapiraca,Hotel Sol Nascente - Arapiraca,Rodovia Al 220,Jardim Esperanca,57307610
;B280BF3A-6006-4277-9B67-53B6D8F38083;Brasil;Alagoas;Arapiraca;Hotel Insinuante;Rod. Al, 220, 1901  Km 04.;Santa Esmeralda;57308000;;;;-9.73563;-36.64868;;;;N;;0;;S;;Brasil,Alagoas,Arapiraca,Hotel Insinuante,Rod. Al, 220, 1901  Km 04.,Santa Esmeralda,57308000
;DE318E24-73DB-4BF9-AC5C-5CB39C46E300;Brasil;Alagoas;Arapiraca;Hotel Sol Nascente - Arapiraca;Rodovia Al-220 Km06;Jardim Esperanca;57307610;;;;-9.72366;-36.6809;;;;N;;0;;S;;Brasil,Alagoas,Arapiraca,Hotel Sol Nascente - Arapiraca,Rodovia Al-220 Km06,Jardim Esperanca,57307610
;6A68CB46-E2D9-4236-B3D0-65519DDED2C2;Brasil;Alagoas;Arapiraca;Hotel Pequeno Principe;Rua Professor Domingos Correia, 732;;;;;;-9.75571;-36.65829;;;;N;;0;;S;;Brasil,Alagoas,Arapiraca,Hotel Pequeno Principe,Rua Professor Domingos Correia, 732,,        
;C1377D54-518D-460E-BD82-67F7EB5DCFD0;Brasil;Alagoas;Arapiraca;Hotel Falcao;Praca Deputado Marques da Silva, 80;Centro;57300330;;;;-9.75463;-36.66473;;;;N;;0;;S;;Brasil,Alagoas,Arapiraca,Hotel Falcao,Praca Deputado Marques da Silva, 80,Centro,57300330
;B5FC5112-6555-4B68-8796-7E122943808B;Brasil;Alagoas;Arapiraca;Plaza Hotel-arapiraca;Rio Branco, N 171;Centro;57300190;;;;-9.75324;-36.66122;;;;N;;0;;S;;Brasil,Alagoas,Arapiraca,Plaza Hotel-arapiraca,Rio Branco, N 171,Centro,57300190
;BBCA7927-F942-47C6-BB0C-80D5CDDECC75;Brasil;Alagoas;Arapiraca;Confort Hotel Arapiraca;Rua Jose Fernandes Lopes, 175;Canafistula;;;;;-9.7593;-36.63752;;;;N;;0;;S;;Brasil,Alagoas,Arapiraca,Confort Hotel Arapiraca,Rua Jose Fernandes Lopes, 175,Canafistula,        
;904E4F26-BF35-44F7-9E4C-9D0798942747;Brasil;Alagoas;Arapiraca;Varanda Hotel;Marechal Deodoro;Brasilia;57313010;;;;-9.75819;-36.65135;;;;N;;0;;S;;Brasil,Alagoas,Arapiraca,Varanda Hotel,Marechal Deodoro,Brasilia,57313010
;1F1DFF10-800A-4399-AA81-9FB6285A978D;Brasil;Alagoas;Arapiraca;Hotel Senna;Rua Governador Silvestre Pericles;Brasilia;57313390;;;;-9.75768;-36.64661;;;;N;;0;;S;;Brasil,Alagoas,Arapiraca,Hotel Senna,Rua Governador Silvestre Pericles,Brasilia,57313390
;6FF2B051-D204-4047-B2FC-B07E20CEEFF3;Brasil;Alagoas;Arapiraca;Nacional Hotel;Rua 30 de Outubro, 211;Centro;57300440;;;;-9.74895;-36.66362;;;;N;;0;;S;;Brasil,Alagoas,Arapiraca,Nacional Hotel,Rua 30 de Outubro, 211,Centro,57300440
;E958BDD3-5F98-4DB4-A4D2-EBF04AD9E4ED;Brasil;Alagoas;Arapiraca;Ibis Arapiraca;Rua Expedicionario Brasileiro, 14;Centro;57300590;;anasilva@kontik.com.br;;-9.73304;-36.67668;;;;N;;0;;S;;Brasil,Alagoas,Arapiraca,Ibis Arapiraca,Rua Expedicionario Brasileiro, 14,Centro,57300590
;728DF64E-9C4F-4F9D-B7F6-F5F0327E9967;Brasil;Alagoas;Arapiraca;Hotel Sol Nascente(dezatualizado);Rodovia Al-220 - Lado Impar;Vila Esperanca;57307610;;;;-9.72366;-36.6809;;;;N;;0;;S;;Brasil,Alagoas,Arapiraca,Hotel Sol Nascente(dezatualizado),Rodovia Al-220 - Lado Impar,Vila Esperanca,57307610
;19AFF008-5C91-4BF3-88B3-E6C281DD9825;Brasil;Alagoas;Atalaia;Pousada Bom Sabor;Rodovia Br 316, SN 45 Km;Jose Paulino;;;;;-9.51958;-35.99866;;;;N;;0;;S;;Brasil,Alagoas,Atalaia,Pousada Bom Sabor,Rodovia Br 316, SN 45 Km,Jose Paulino,        
;836575C8-E66B-4F43-9015-4ADA04938592;Brasil;Alagoas;Barra de Sao Miguel;Viva Barra Hotel Pousada;Francisco Damaso Sampaio;Centro;57180000;;;;-9.82362;-35.87994;;;;N;;0;;S;;Brasil,Alagoas,Barra de Sao Miguel,Viva Barra Hotel Pousada,Francisco Damaso Sampaio,Centro,57180000
;16D8A004-08D6-4FE5-90BD-563E79957E70;Brasil;Alagoas;Barra de Sao Miguel;Pousada do Gunga;;Centro;;;;;-9.84549;-35.90536;;;;N;;0;;S;;Brasil,Alagoas,Barra de Sao Miguel,Pousada do Gunga,,Centro,        
;264F5E35-B590-4515-9E2E-564FCBF67B1F;Brasil;Alagoas;Barra de Sao Miguel;Grandville Hotel Pousada;Rua Jose Vieira De Andrade, 286;Centro;;;;;-9.84293;-35.89993;;;;N;;0;;S;;Brasil,Alagoas,Barra de Sao Miguel,Grandville Hotel Pousada,Rua Jose Vieira De Andrade, 286,Centro,        
;FB076A7F-6A24-4C75-81AA-63ECD16E5730;Brasil;Alagoas;Barra de Sao Miguel;Kenoa Beach Villas;Rua Escritor Jorge De Lima, 58;Barra Mar;57180000;;;;-9.81619;-35.87451;;;;N;;0;;S;;Brasil,Alagoas,Barra de Sao Miguel,Kenoa Beach Villas,Rua Escritor Jorge De Lima, 58,Barra Mar,57180000
;096EE523-85F0-4940-808D-BF55BC8D8AB5;Brasil;Alagoas;Barra de Sao Miguel;Hotel Rio Mar;Rua Escritor Felix Lima Junior, 35;;;;;;-9.83226;-35.88684;;;;N;;0;;S;;Brasil,Alagoas,Barra de Sao Miguel,Hotel Rio Mar,Rua Escritor Felix Lima Junior, 35,,        
;68556860-BE63-4DB3-BF00-CA18B4EE53B9;Brasil;Alagoas;Barra de Sao Miguel;Brisamar;Rua Margarida Oiticica Lima;Barra Mar;57180000;;;;-9.82464;-35.87999;;;;N;;0;;S;;Brasil,Alagoas,Barra de Sao Miguel,Brisamar,Rua Margarida Oiticica Lima,Barra Mar,57180000
;D4DE3A54-121E-4D80-A5CE-D9DED628761B;Brasil;Alagoas;Barra de Sao Miguel;Village Barra Hotel;Rua Senador Anon de Mello, N 65;Praia do Niquin;57180000;;;;-9.8372;-35.88825;;;;N;;0;;S;;Brasil,Alagoas,Barra de Sao Miguel,Village Barra Hotel,Rua Senador Anon de Mello, N 65,Praia do Niquin,57180000
;991A80DD-F9FE-4302-AE30-65DF3549CC97;Brasil;Alagoas;Coruripe;Pousada Coruripe;Rua Doutor Isaias Aranda, 683;Centro;;;;;-10.12827;-36.17709;;;;N;;0;;S;;Brasil,Alagoas,Coruripe,Pousada Coruripe,Rua Doutor Isaias Aranda, 683,Centro,        
;E2994749-5169-4093-B01B-930CA120DA47;Brasil;Alagoas;Coruripe;Pousada Paradise;Rua da Gloria;Barreiras;57230000;;;;-10.12521;-36.17919;;;;N;;0;;S;;Brasil,Alagoas,Coruripe,Pousada Paradise,Rua da Gloria,Barreiras,57230000
;ACF37D63-755F-4117-9E40-D504AFE2AC21;Brasil;Alagoas;Coruripe;Pousada Canto de Yemanja;Av. Eng Geraldo Magela de Carvalho Beltrao, 244;Barreiras;57230000;;;;-10.15971;-36.13574;;;;N;;0;;S;;Brasil,Alagoas,Coruripe,Pousada Canto de Yemanja,Av. Eng Geraldo Magela de Carvalho Beltrao, 244,Barreiras,57230000
;6F1A9094-6DA2-40FD-AE12-F9ABB02C484C;Brasil;Alagoas;Coruripe;Pousada Pontal Por do Sol;Rua Venezuela, 166;Pontal de Coruripe;;;;;-10.1228;-36.17762;;;;N;;0;;S;;Brasil,Alagoas,Coruripe,Pousada Pontal Por do Sol,Rua Venezuela, 166,Pontal de Coruripe,        
;54AFEF8B-0D67-4859-81C1-1F0C64381B32;Brasil;Alagoas;Delmiro Gouveia;Pousada Bezerra;Praca Vicente Menezes;Centro;57480000;;;;-9.38565;-37.99761;;;;N;;0;;S;;Brasil,Alagoas,Delmiro Gouveia,Pousada Bezerra,Praca Vicente Menezes,Centro,57480000
;8AE98429-10C7-445E-984E-20E11D00633E;Brasil;Alagoas;Delmiro Gouveia;Hotel Bristol Aline;Rodovia Al 145, SN Lote 10 ao 16;Cidade Universitaria;57480000;;;;-9.55326;-35.75359;;;;N;;0;;S;;Brasil,Alagoas,Delmiro Gouveia,Hotel Bristol Aline,Rodovia Al 145, SN Lote 10 ao 16,Cidade Universitaria,57480000
;687B3C0F-A67F-4BCF-8795-40A2E60924FD;Brasil;Alagoas;Delmiro Gouveia;Pousada Recanto da Mada;Rua Vicente de Menezes, 152;Centro;57480000;;;;-9.38628;-37.99698;;;;N;;0;;S;;Brasil,Alagoas,Delmiro Gouveia,Pousada Recanto da Mada,Rua Vicente de Menezes, 152,Centro,57480000
;DB697AAF-6248-4251-A650-654760EED438;Brasil;Alagoas;Delmiro Gouveia;Pousada da Pedra - Delmiro Gouveia;Rua Tavares Bastos;Centro;57480000;;;;-9.37491;-37.99667;;;;N;;0;;S;;Brasil,Alagoas,Delmiro Gouveia,Pousada da Pedra - Delmiro Gouveia,Rua Tavares Bastos,Centro,57480000
;2B906242-0513-480D-AF60-655FD580FADA;Brasil;Alagoas;Delmiro Gouveia;Hotel Nossa Senhora Do Rosario;Rua Floriano Peixoto, 445;Centro;;;;;-9.38016;-37.99714;;;;N;;0;;S;;Brasil,Alagoas,Delmiro Gouveia,Hotel Nossa Senhora Do Rosario,Rua Floriano Peixoto, 445,Centro,        
;DE8146DB-A38E-44C0-86D4-75AF2FA6DDC4;Brasil;Alagoas;Delmiro Gouveia;Aline Hotel;Rodovia Al 145;Centro;57480000;;;;-9.37429;-37.99575;;;;N;;0;;S;;Brasil,Alagoas,Delmiro Gouveia,Aline Hotel,Rodovia Al 145,Centro,57480000
;18FAEEB6-B7B1-4023-A7B6-85352642A0C6;Brasil;Alagoas;Delmiro Gouveia;Macambira Cefe Pousada;Rua Dr Ulisses Luna, 296;Chacaras Sao Vicente;;;;;-9.39549;-38.00283;;;;N;;0;;S;;Brasil,Alagoas,Delmiro Gouveia,Macambira Cefe Pousada,Rua Dr Ulisses Luna, 296,Chacaras Sao Vicente,        
;3B0CC5DE-9539-49C9-9F27-B646F7B34096;Brasil;Alagoas;Delmiro Gouveia;Hotel Executivo;Pc Manoel Monteiro, 81;Centro;;;;;-9.38275;-37.99836;;;;N;;0;;S;;Brasil,Alagoas,Delmiro Gouveia,Hotel Executivo,Pc Manoel Monteiro, 81,Centro,        
;8789A73C-B3A2-4FD0-B8F7-E2138D65ED81;Brasil;Alagoas;Junqueiro;Pousada E Restaurante Sao Miguel;Rua Mizia Bezerra De Farias, 28;;;;;;-9.9212;-36.47288;;;;N;;0;;S;;Brasil,Alagoas,Junqueiro,Pousada E Restaurante Sao Miguel,Rua Mizia Bezerra De Farias, 28,,        
;EBEF1D62-9A57-435C-A2A6-044E7E8126F8;Brasil;Alagoas;Maceio;Ipioca Beach Residence E Resort;Avenida Gunther Frans Oliveira, SN;Ipioca;;;;;-9.52448;-35.5984;;;;N;;0;;S;;Brasil,Alagoas,Maceio,Ipioca Beach Residence E Resort,Avenida Gunther Frans Oliveira, SN,Ipioca,        
;A01344A1-2BFF-4380-A6DC-0753E207EF4B;Brasil;Alagoas;Maceio;Ritz Lagoa da Anta;Avenida Brigadeiro Eduardo Gomes,;Cruz das Almas;57038230;;;;-9.63248;-35.69686;;;;N;;0;;S;;Brasil,Alagoas,Maceio,Ritz Lagoa da Anta,Avenida Brigadeiro Eduardo Gomes,,Cruz das Almas,57038230
;199E98C1-CF78-4D47-83D8-080BEEF6E386;Brasil;Alagoas;Maceio;Salinas do Maragogi Resort;Rodovia A1-101, Km 124;Maragogi;57955000;;;;-9.01238;-35.2254;;;;N;;0;;S;;Brasil,Alagoas,Maceio,Salinas do Maragogi Resort,Rodovia A1-101, Km 124,Maragogi,57955000
;251D3536-54DA-4F15-AC95-0B36BCB1A7D1;Brasil;Alagoas;Maceio;Tropico Praia Hotel;Rua Jose Freire Moura, N 271;Ponta Verde;57035110;;;;-9.66072;-35.70452;;;;N;;0;;S;;Brasil,Alagoas,Maceio,Tropico Praia Hotel,Rua Jose Freire Moura, N 271,Ponta Verde,57035110
;342621A8-E966-4FB9-BD36-0B62CB43610E;Brasil;Alagoas;Maceio;Holiday Inn Express Maceio - Ponta Verde;Rua Gaspar Ferrari;Ponta Verde;57035100;;RODRIGOBERTON@KONTIK.COM.BR;;-9.66161;-35.70583;;;;N;;0;;S;;Brasil,Alagoas,Maceio,Holiday Inn Express Maceio - Ponta Verde,Rua Gaspar Ferrari,Ponta Verde,57035100
;5CBCA04D-02B4-4EEC-9803-1091750DD538;Brasil;Alagoas;Maceio;Hotel Brisa Tower;Av. Alvaro Otacilio;Jatiuca;57035972;;;;-9.64841;-35.70048;;;;N;;0;;S;;Brasil,Alagoas,Maceio,Hotel Brisa Tower,Av. Alvaro Otacilio,Jatiuca,57035972
;28096CF0-9783-4E1D-8C43-109A6229B50C;Brasil;Alagoas;Maceio;Solara Praia Hotel;Av. Dr. Antonio Gouveia;Jatiuca;57036540;;;;-9.67232;-35.71663;;;;N;;0;;S;;Brasil,Alagoas,Maceio,Solara Praia Hotel,Av. Dr. Antonio Gouveia,Jatiuca,57036540
;3FD35AD9-D933-41D9-B3D3-113A6EFD2290;Brasil;Alagoas;Maceio;Pousada Lagoas;Joao Davino, 246;Centro;57037000;;;;-9.64286;-35.70797;;;;N;;0;;S;;Brasil,Alagoas,Maceio,Pousada Lagoas,Joao Davino, 246,Centro,57037000
;7E6D891B-1233-4410-822A-16C9E384FEA8;Brasil;Alagoas;Maceio;Mercure Maceio Pajucara;Av Dr Antonio Gouveia,;Pajucara;57030170;;janainarodrigues@kontik.com.br;;-9.66844;-35.7142;;;;N;;0;;S;;Brasil,Alagoas,Maceio,Mercure Maceio Pajucara,Av Dr Antonio Gouveia,,Pajucara,57030170
;FDE7E057-3D26-4624-A020-1753C2064EA9;Brasil;Alagoas;Maceio;Pousada Ecomaceio;Avenida Desembargador Valente De Lima, 204;Mangabeiras;;;;;-9.64318;-35.71043;;;;N;;0;;S;;Brasil,Alagoas,Maceio,Pousada Ecomaceio,Avenida Desembargador Valente De Lima, 204,Mangabeiras,        
;C2B5E170-2954-4423-9DC5-1B64CC39F7B2;Brasil;Alagoas;Maceio;Hotel Verde Mar;Av.dr.antonio Gouveia, N 01;Pajucara;57036540;;isabelasouza@kontik.com.br;;-9.66511;-35.71001;;;;N;;0;;S;;Brasil,Alagoas,Maceio,Hotel Verde Mar,Av.dr.antonio Gouveia, N 01,Pajucara,57036540
;C9534B3D-4476-44C4-B2D6-2354CB64E681;Brasil;Alagoas;Maceio;Pajucara Praia Hotel;Avenida  Antonio Gouveia;Pajucara;57030170;;;;-9.67165;-35.7163;;;;N;;0;;S;;Brasil,Alagoas,Maceio,Pajucara Praia Hotel,Avenida  Antonio Gouveia,Pajucara,57030170
;EC424A62-D354-47BE-96B5-24D587540BDA;Brasil;Alagoas;Maceio;Pousada do Sol;Rua do Sol, 484;Ponta Verde;57035330;;;;-9.65998;-35.70622;;;;N;;0;;S;;Brasil,Alagoas,Maceio,Pousada do Sol,Rua do Sol, 484,Ponta Verde,57035330
;B1BEBF9D-6B68-4196-857F-2BE7337F6C82;Brasil;Alagoas;Maceio;Pousada Capital das Aguas;Rua Ferroviario Manoel Goncalves Filhos;Jatiuca;57037040;;;;-9.64362;-35.70147;;;;N;;0;;S;;Brasil,Alagoas,Maceio,Pousada Capital das Aguas,Rua Ferroviario Manoel Goncalves Filhos,Jatiuca,57037040
;A3968C13-D30D-4D89-A327-2EA42CEC497C;Brasil;Alagoas;Maceio;Ibis Budget Maceio Pajucara;Rua Epaminondas Gracindo, 210;Pajucara;;;;;-9.67215;-35.71784;;;;N;;0;;S;;Brasil,Alagoas,Maceio,Ibis Budget Maceio Pajucara,Rua Epaminondas Gracindo, 210,Pajucara,        
;DA7A5918-2478-4DC9-8CBA-2F2CAE21357C;Brasil;Alagoas;Maceio;Praia Hotel Enseada;Av. Antonio Gouveia, 171;Pajucara;57030170;;;;-9.67184;-35.71633;;;;N;;0;;S;;Brasil,Alagoas,Maceio,Praia Hotel Enseada,Av. Antonio Gouveia, 171,Pajucara,57030170
;EEB52AC1-A96B-4F56-83A0-2FF96612E744;Brasil;Alagoas;Maceio;Hotel Brisa Suites;Avenida Doutor Antonio Gouveia, 953;Pajucara;57030170;;;;-9.67218;-35.71656;;;;N;;0;;S;;Brasil,Alagoas,Maceio,Hotel Brisa Suites,Avenida Doutor Antonio Gouveia, 953,Pajucara,57030170
;4E8073D0-84C4-43EE-909E-34DBE1A229E5;Brasil;Alagoas;Maceio;Hotel R1 Maceio;Avenida Joao Davino, 386;Jatiuca;;;;;-9.64302;-35.70247;;;;N;;0;;S;;Brasil,Alagoas,Maceio,Hotel R1 Maceio,Avenida Joao Davino, 386,Jatiuca,        
;4CB58827-89E6-41C1-8733-350200584191;Brasil;Alagoas;Maceio;Ibis Styles Maceio Pajucara;Avenida Doutor Antonio Gouveia, 901;Pajucara;;;ache@kontik.com.br;;-9.66668;-35.71243;;;;N;;0;;S;;Brasil,Alagoas,Maceio,Ibis Styles Maceio Pajucara,Avenida Doutor Antonio Gouveia, 901,Pajucara,        
;7EE1E6D6-4D80-47E7-BAA9-35DEF3845BBE;Brasil;Alagoas;Maceio;Pousada Praia Verde Maceio;Av: Professor Sandoval Arroxelas;Ponta Verde;57035972;;;;-9.65896;-35.70312;;;;N;;0;;S;;Brasil,Alagoas,Maceio,Pousada Praia Verde Maceio,Av: Professor Sandoval Arroxelas,Ponta Verde,57035972
;34157860-FA8B-446E-894D-3614B6F723AE;Brasil;Alagoas;Maceio;Ritz Suites;Avenida Brigadeiro Eduardo Gomes,;Lagoa da Anta;57038380;;;;-9.63931;-35.69845;;;;N;;0;;S;;Brasil,Alagoas,Maceio,Ritz Suites,Avenida Brigadeiro Eduardo Gomes,,Lagoa da Anta,57038380
;40974DAE-3562-4EA3-8A13-3C45FB51E598;Brasil;Alagoas;Maceio;Tambaqui Praia Hotel;Engenheiro Mario de Gusmao,176;Ponta Verde;57035000;;;;-9.66291;-35.6991;;;;N;;0;;S;;Brasil,Alagoas,Maceio,Tambaqui Praia Hotel,Engenheiro Mario de Gusmao,176,Ponta Verde,57035000
;02B5902E-5362-4B6A-962D-3DDEC986DE9D;Brasil;Alagoas;Maceio;Hotel Pousada da Sereia;Araujo Bivar, 57;Pajucara;57030035;;;;-9.66811;-35.7168;;;;N;;0;;S;;Brasil,Alagoas,Maceio,Hotel Pousada da Sereia,Araujo Bivar, 57,Pajucara,57030035
;E6768E1C-8634-44B5-B301-3FC8037BDB8A;Brasil;Alagoas;Maceio;Pousada Mare Alta;Rua Jangadeiros Alagoanos, 744;Pajucara;;;;;-9.66805;-35.71483;;;;N;;0;;S;;Brasil,Alagoas,Maceio,Pousada Mare Alta,Rua Jangadeiros Alagoanos, 744,Pajucara,        
;DA1F329E-A7F4-4D97-9E72-4134CA2E7F56;Brasil;Alagoas;Maceio;Maceio Atlantic Suites;Av. Alvaro Otacilio,;Jatiuca;57036850;;;;-9.65245;-35.69904;;;;N;;0;;S;;Brasil,Alagoas,Maceio,Maceio Atlantic Suites,Av. Alvaro Otacilio,,Jatiuca,57036850
;441FE844-1A2A-43ED-8977-4558296BD011;Brasil;Alagoas;Maceio;San Marino Suite Hotel;Doutor Noel Nutles;Ponta Verde;57035450;;;;-9.65778;-35.70013;;;;N;;0;;S;;Brasil,Alagoas,Maceio,San Marino Suite Hotel,Doutor Noel Nutles,Ponta Verde,57035450
;415AE2C2-2A35-4060-884A-4924E513CDFD;Brasil;Alagoas;Maceio;Vistamar Hotel Business;Avenida Doutor Antonio Gouveia;Pajucara;57030170;;;;-9.67037;-35.71551;;;;N;;0;;S;;Brasil,Alagoas,Maceio,Vistamar Hotel Business,Avenida Doutor Antonio Gouveia,Pajucara,57030170
;A8C888D3-397E-49B6-BCBC-4B6477DA1E4B;Brasil;Alagoas;Maceio;Amenit Hotel;Rua Jangadeiros Alagoanos;Pajucara;57030000;;;;-9.6653;-35.71237;;;;N;;0;;S;;Brasil,Alagoas,Maceio,Amenit Hotel,Rua Jangadeiros Alagoanos,Pajucara,57030000
;3838ED0E-9666-41EE-9CEE-4C13ED73F2A2;Brasil;Alagoas;Maceio;Hotel Pousada Morado do Sol;Rua Paulina Maria Mendonca, 140;Maceio;57037110;;;;-9.64468;-35.70194;;;;N;;0;;S;;Brasil,Alagoas,Maceio,Hotel Pousada Morado do Sol,Rua Paulina Maria Mendonca, 140,Maceio,57037110
;591B3B72-9969-4FAB-ADFE-4D5E63BD7C15;Brasil;Alagoas;Maceio;Pousada Estalagem;Rua Engenheiro Democrito Sarmento Barroca, 70;;;;;;-9.66341;-35.70876;;;;N;;0;;S;;Brasil,Alagoas,Maceio,Pousada Estalagem,Rua Engenheiro Democrito Sarmento Barroca, 70,,        
;75C5EFB3-D6B9-406D-AEE7-4E5236E1CAEC;Brasil;Alagoas;Maceio;E.m Hoteis Epp;Rua Jose Luiz Calazans;Jatiuca;57035850;;;;-9.64424;-35.70046;;;;N;;0;;S;;Brasil,Alagoas,Maceio,E.m Hoteis Epp,Rua Jose Luiz Calazans,Jatiuca,57035850
;D91EA608-83C8-44F3-8DD7-552E83286E04;Brasil;Alagoas;Maceio;Pousada A Cabana;Rua Prefeito Abdon Arroxelas, 327;Ponta Verde;;;;;-9.65587;-35.70196;;;;N;;0;;S;;Brasil,Alagoas,Maceio,Pousada A Cabana,Rua Prefeito Abdon Arroxelas, 327,Ponta Verde,        
;4DC80E8A-1659-4A1C-B50A-57FED2AB78BF;Brasil;Alagoas;Maceio;Hotel Intercity Maceio;Rua Doutor Noel Nutels, 147;;;;anasilva@kontik.com.br;;-9.65611;-35.70008;;;;N;;0;;S;;Brasil,Alagoas,Maceio,Hotel Intercity Maceio,Rua Doutor Noel Nutels, 147,,        
;2567AEC5-892B-4FBC-BF45-595F35026D78;Brasil;Alagoas;Maceio;Pousada Des Basques;AV. DOUTOR JULIO MARQUES LUZ, 694;Jatiuca;57035610;;;;-9.65321;-35.70532;;;;N;;0;;S;;Brasil,Alagoas,Maceio,Pousada Des Basques,AV. DOUTOR JULIO MARQUES LUZ, 694,Jatiuca,57035610
;CCAF828B-4147-4786-9F1F-5D3164E87B0B;Brasil;Alagoas;Maceio;Ponta Verde Praia Hotel;Avenida Alvaro Otacilio;Praia Ponta Verde;57035180;;;;-9.66407;-35.69571;;;;N;;0;;S;;Brasil,Alagoas,Maceio,Ponta Verde Praia Hotel,Avenida Alvaro Otacilio,Praia Ponta Verde,57035180
;7F11FCD9-568D-45C8-8B3D-5D51CC021187;Brasil;Alagoas;Maceio;Tropicalis Slim;Rua Jangadeiros Alagoanos;Pajucara;57030000;;;;-9.66435;-35.71105;;;;N;;0;;S;;Brasil,Alagoas,Maceio,Tropicalis Slim,Rua Jangadeiros Alagoanos,Pajucara,57030000
;AA3BB1D0-FAB0-43A5-AB92-5EF70BAE3321;Brasil;Alagoas;Maceio;Village Pratagy Resort - Gjp;Rod Gunther Frans Oliveira,;Pescaria;57039230;;;;-9.54958;-35.63084;;;;N;;0;;S;;Brasil,Alagoas,Maceio,Village Pratagy Resort - Gjp,Rod Gunther Frans Oliveira,,Pescaria,57039230
;138F50DA-3B2A-464D-BF7D-617BDD8FF3E0;Brasil;Alagoas;Maceio;Hotel Ciribai;Rua Coronel Alcides de Barros Ferreira;Jatiuca;57036480;;;;-9.64666;-35.70242;;;;N;;0;;S;;Brasil,Alagoas,Maceio,Hotel Ciribai,Rua Coronel Alcides de Barros Ferreira,Jatiuca,57036480
;1E68435A-9509-4B54-A9AA-6415307E1942;Brasil;Alagoas;Maceio;Acqua Inn Maceio;Rua Engenheiro Mario de Gusmao, 988;Ponta Verde;;;;;-9.66309;-35.6984;;;;N;;0;;S;;Brasil,Alagoas,Maceio,Acqua Inn Maceio,Rua Engenheiro Mario de Gusmao, 988,Ponta Verde,        
;DDFC7622-E879-4905-B878-66E44E1B0707;Brasil;Alagoas;Maceio;Reymar Express Maceio;Rua Marechal Mascarenhas de Moraes, 20;Praia de Lagoa da Anta;57038120;;;;-9.63384;-35.69849;;;;N;;0;;S;;Brasil,Alagoas,Maceio,Reymar Express Maceio,Rua Marechal Mascarenhas de Moraes, 20,Praia de Lagoa da Anta,57038120
;03E3867F-0CB4-47A0-B8D8-67804DA464C6;Brasil;Alagoas;Maceio;Ibis Maceio Pajucara;Antonio Gouveia,;Pajucara;57030170;;;;-9.671;-35.71596;;;;N;;0;;S;;Brasil,Alagoas,Maceio,Ibis Maceio Pajucara,Antonio Gouveia,,Pajucara,57030170
;8EA45AB3-750C-478D-B1D7-6EA0C4E8D96A;Brasil;Alagoas;Maceio;Maceio Atlantic Suites;Avenida Alvaro Otacilio;Jatiuca;57036850;;;;-9.65245;-35.69904;;;;N;;0;;S;;Brasil,Alagoas,Maceio,Maceio Atlantic Suites,Avenida Alvaro Otacilio,Jatiuca,57036850
;92CA0EFE-97A3-40EE-BFF8-6F5248755597;Brasil;Alagoas;Maceio;Cais Da Praia Hotel;Avenida Alvaro Otacilio, 4353;Jatiuca;;;;;-9.64704;-35.7002;;;;N;;0;;S;;Brasil,Alagoas,Maceio,Cais Da Praia Hotel,Avenida Alvaro Otacilio, 4353,Jatiuca,        
;D6476579-BDA1-466B-88DA-7096D18D0B02;Brasil;Alagoas;Maceio;Comfort Hotel Maceio;Desportista Humberto Guimaraes, 372;Ponta Verde;57035030;;ache@kontik.com.br;;-9.66281;-35.70329;;;;N;;0;;S;;Brasil,Alagoas,Maceio,Comfort Hotel Maceio,Desportista Humberto Guimaraes, 372,Ponta Verde,57035030
;3F25D0ED-CB46-4706-B4C2-7870AEB89ED4;Brasil;Alagoas;Maceio;Jatiuca Suites Resort;Avenida Roberto Mascarenhas De Brito, 666;;;;;;-9.6413;-35.70039;;;;N;;0;;S;;Brasil,Alagoas,Maceio,Jatiuca Suites Resort,Avenida Roberto Mascarenhas De Brito, 666,,        
;9089F14A-5280-4EED-8167-7A5ECE6BADE9;Brasil;Alagoas;Maceio;Comfort Maceio;Rua Desportista Humberto Guimaraes, 372;Ponta Verde;;;;;-9.66281;-35.70329;;;;N;;0;;S;;Brasil,Alagoas,Maceio,Comfort Maceio,Rua Desportista Humberto Guimaraes, 372,Ponta Verde,        
;FEBF7714-172B-44A4-9E02-7CFB440B43D7;Brasil;Alagoas;Maceio;Cais Da Praia Hotel;Avenida Alvaro Otacilio, 4353;Jatiuca;;;;;-9.64704;-35.7002;;;;N;;0;;S;;Brasil,Alagoas,Maceio,Cais Da Praia Hotel,Avenida Alvaro Otacilio, 4353,Jatiuca,        
;21E32BE3-D89B-47F7-9E1B-7D696EA137A1;Brasil;Alagoas;Maceio;Hotel Porto Da Praia;Rua Prefeito Abdon Arroxelas, 128;;;;;;-9.65563;-35.69983;;;;N;;0;;S;;Brasil,Alagoas,Maceio,Hotel Porto Da Praia,Rua Prefeito Abdon Arroxelas, 128,,        
;ACFD81B2-1A28-4E98-81D5-7E3022D0A9B0;Brasil;Alagoas;Maceio;Best Western Premier Maceio;Doutor Antonio Gouveia;Pajucara;57030170;;;;-9.66653;-35.71226;;;;N;;0;;S;;Brasil,Alagoas,Maceio,Best Western Premier Maceio,Doutor Antonio Gouveia,Pajucara,57030170
;7B14869A-D715-4A59-8274-7F9C627C6FD6;Brasil;Alagoas;Maceio;Pratagy Beach Resort;Avenida Gunther Frans Oliveira;Pescaria;57039600;;;;-9.53885;-35.62505;;;;N;;0;;S;;Brasil,Alagoas,Maceio,Pratagy Beach Resort,Avenida Gunther Frans Oliveira,Pescaria,57039600
;0AF08C4B-62BB-4931-B51D-8139F11EF01B;Brasil;Alagoas;Maceio;Soft Inn Maceio Ponta Verde;Rua Engenheiro Mario de Gusmao, 978;Ponta Verde;57035000;;;;-9.66264;-35.69969;;;;N;;0;;S;;Brasil,Alagoas,Maceio,Soft Inn Maceio Ponta Verde,Rua Engenheiro Mario de Gusmao, 978,Ponta Verde,57035000
;2DAD21AF-99FF-406B-BD19-89CE49B34EE9;Brasil;Alagoas;Maceio;Hotel Jatiuca;Avenida Alvaro Otacilio, 5500;Jatiuca;57036850;;;;-9.64788;-35.70032;;;;N;;0;;S;;Brasil,Alagoas,Maceio,Hotel Jatiuca,Avenida Alvaro Otacilio, 5500,Jatiuca,57036850
;E1A50FE4-38D2-4221-A0C0-8A1407A565F6;Brasil;Alagoas;Maceio;ER Hospedagens;Rua Durval Guimaraes, 532;Centro;;;administradora@erhospedagens.com.br;;-9.66151;-35.70336;;0;;N;;0;;S;;Brasil,Alagoas,Maceio,ER Hospedagens,Rua Durval Guimaraes, 532,Centro,        
;7A5B6853-E2C7-4262-B561-8FAAEC310CAF;Brasil;Alagoas;Maceio;Hotel Costamar;Desportista H. Guimaraes;Ponta Verde;57035030;;;;-9.66285;-35.70286;;;;N;;0;;S;;Brasil,Alagoas,Maceio,Hotel Costamar,Desportista H. Guimaraes,Ponta Verde,57035030
;FC1C4170-594B-4AA0-AC24-92D6857AF1F4;Brasil;Alagoas;Maceio;Jatiuca Hoteis e Resorts;Avenida Brigadeiro Eduardo Gomes;Mangabeiras;57038230;;camilasilva@kontik.com.br;;-9.63294;-35.69691;;;;N;;0;;S;;Brasil,Alagoas,Maceio,Jatiuca Hoteis e Resorts,Avenida Brigadeiro Eduardo Gomes,Mangabeiras,57038230
;6A9502F5-C9B5-4ECB-9658-93029366CBD6;Brasil;Alagoas;Maceio;Hotel Praia Bonita;Avenida Doutor Antonio Gouveia;Pajucara;57030170;;;;-9.67105;-35.71591;;;;N;;0;;S;;Brasil,Alagoas,Maceio,Hotel Praia Bonita,Avenida Doutor Antonio Gouveia,Pajucara,57030170
;72A044B7-BEDD-49B8-8B45-940A72C200C5;Brasil;Alagoas;Maceio;Ritz Coralli Hotel Boutique;Eng. Mario de Gusmao, 126;Ponta Verde;57035000;;;;-9.66282;-35.69917;;;;N;;0;;S;;Brasil,Alagoas,Maceio,Ritz Coralli Hotel Boutique,Eng. Mario de Gusmao, 126,Ponta Verde,57035000
;666AA951-6B40-49B7-B3D7-9CDEDE9F4C6F;Brasil;Alagoas;Maceio;Hotel Praia Bonita Jatiuca;Avenida Joao Davino - Ate 697/698;Jatiuca;57035554;;;;-9.64274;-35.70972;;;;N;;0;;S;;Brasil,Alagoas,Maceio,Hotel Praia Bonita Jatiuca,Avenida Joao Davino - Ate 697/698,Jatiuca,57035554
;7D00BA94-7AFA-4D2F-905E-9DD8C3BA0BF1;Brasil;Alagoas;Maceio;Matsubara Hotel Alagoas;Av Brigadeiro Eduardo Gomes;Lagoa D'antas;57032230;;;;-9.63116;-35.69639;;;;N;;0;;S;;Brasil,Alagoas,Maceio,Matsubara Hotel Alagoas,Av Brigadeiro Eduardo Gomes,Lagoa D'antas,57032230
;526DDD69-A769-41E3-9551-A23F5E7A0B0F;Brasil;Alagoas;Maceio;Hotel Gogo da Ema;Rua Francisco Laranjeiras;Ponta Verde;57035090;;;;-9.66352;-35.69694;;;;N;;0;;S;;Brasil,Alagoas,Maceio,Hotel Gogo da Ema,Rua Francisco Laranjeiras,Ponta Verde,57035090
;E9A4F7DB-1729-498B-8207-AA44A5217D55;Brasil;Alagoas;Maceio;Yes Hotel;Avenida Joao Davino;Jatiuca;57035554;;;;-9.64298;-35.70391;;;;N;;0;;S;;Brasil,Alagoas,Maceio,Yes Hotel,Avenida Joao Davino,Jatiuca,57035554
;C52084A7-7A1D-43D9-80D0-AB69CD729931;Brasil;Alagoas;Maceio;Aram Ouro Branco Hotel;Epaminondas Gracindo;Pajucara;57030100;;;;-9.67206;-35.71783;;;;N;;0;;S;;Brasil,Alagoas,Maceio,Aram Ouro Branco Hotel,Epaminondas Gracindo,Pajucara,57030100
;69D221A7-4990-45EF-A338-AC1668068F8B;Brasil;Alagoas;Maceio;Marinas Palace Maceio Hotel;Jose Luis Calazans,30;Jatiuca;57037020;;;;-9.64478;-35.70036;;;;N;;0;;S;;Brasil,Alagoas,Maceio,Marinas Palace Maceio Hotel,Jose Luis Calazans,30,Jatiuca,57037020
;3BF16009-1C40-4AC8-BB9B-B00ACA6A6C45;Brasil;Alagoas;Maceio;Hotel Praia Bonita;Avenida Doutor Antonio Gouveia;Pajucara;57030170;;;;-9.67105;-35.71591;;;;N;;0;;S;;Brasil,Alagoas,Maceio,Hotel Praia Bonita,Avenida Doutor Antonio Gouveia,Pajucara,57030170
;A6B566EA-E68B-4AA0-ADDE-B592A648DA80;Brasil;Alagoas;Maceio;Lagoa Mar Hotel;Avenida Doutor Jose Sampaio Luz;Ponta Verde;57035260;;;;-9.65998;-35.70114;;;;N;;0;;S;;Brasil,Alagoas,Maceio,Lagoa Mar Hotel,Avenida Doutor Jose Sampaio Luz,Ponta Verde,57035260
;98B0CBCC-753C-4236-A5F3-B6B36671BDCC;Brasil;Alagoas;Maceio;Hotel Refugio;Rua Quintino Bocaiuva, 63;;;;;;-9.66675;-35.71446;;;;N;;0;;S;;Brasil,Alagoas,Maceio,Hotel Refugio,Rua Quintino Bocaiuva, 63,,        
;17159B12-8BB3-4138-8D9A-B6BD3E618462;Brasil;Alagoas;Maceio;Flix Hotel;Rua Vereador Pedro Moura, 211;Jatiuca;57036360;;ache@kontik.com.br;;-9.65153;-35.70182;;;;N;;0;;S;;Brasil,Alagoas,Maceio,Flix Hotel,Rua Vereador Pedro Moura, 211,Jatiuca,57036360
;C7EC779F-24F1-4E1A-A82D-B973CBDAA3D8;Brasil;Alagoas;Maceio;Pajucara Express;Avenida Doutor Antonio Gouveia;Pajucara;57030170;;;;-9.67227;-35.71625;;;;N;;0;;S;;Brasil,Alagoas,Maceio,Pajucara Express,Avenida Doutor Antonio Gouveia,Pajucara,57030170
;B5DF552F-A762-47B7-975F-BB0FA7678225;Brasil;Alagoas;Maceio;Hotel Porto Maceio;Rua General Joao Saleiro Pitao, 29;;;;;;-9.58937;-35.78796;;;;N;;0;;S;;Brasil,Alagoas,Maceio,Hotel Porto Maceio,Rua General Joao Saleiro Pitao, 29,,        
;EADAC42A-FBAE-42BF-AA24-BCB523F3EE76;Brasil;Alagoas;Maceio;Rua Prefeito Abdon Arroxelas, 147;Rua Doutor Noel Nutels;Ponta Verde;57035450;;;;-9.65589;-35.70001;;;;N;;0;;S;;Brasil,Alagoas,Maceio,Rua Prefeito Abdon Arroxelas, 147,Rua Doutor Noel Nutels,Ponta Verde,57035450
;89C094A4-4841-4EA6-A219-BD295E989EDA;Brasil;Alagoas;Maceio;Pousada Aquarela do Brasil;Desembargador Almeida Guimaraes, 367;Pajucara;57030160;;;;-9.6713;-35.71677;;;;N;;0;;S;;Brasil,Alagoas,Maceio,Pousada Aquarela do Brasil,Desembargador Almeida Guimaraes, 367,Pajucara,57030160
;852A9C0E-2D3A-45E5-B32A-C57BAA4BB017;Brasil;Alagoas;Maceio;Meridiano Hotel;Avenida Doutor Antonio Gouveia;Pajucara;57030170;;;;-9.66788;-35.71368;;;;N;;0;;S;;Brasil,Alagoas,Maceio,Meridiano Hotel,Avenida Doutor Antonio Gouveia,Pajucara,57030170
;0D797ACA-8671-4311-9F37-C5BB93AF4D0F;Brasil;Alagoas;Maceio;Praia Hotel Sete Coqueiros;Dr. Antonio Gouveia;Praia de Pajucara;57030170;;;;-9.66511;-35.71001;;;;N;;0;;S;;Brasil,Alagoas,Maceio,Praia Hotel Sete Coqueiros,Dr. Antonio Gouveia,Praia de Pajucara,57030170
;CBA4CED8-C975-4E87-B756-C62B54CBB3B9;Brasil;Alagoas;Maceio;Mar de Maceio Pousada;Avenida Professor Vital Barbosa;Ponta Verde;57035400;;;;-9.65757;-35.70833;;;;N;;0;;S;;Brasil,Alagoas,Maceio,Mar de Maceio Pousada,Avenida Professor Vital Barbosa,Ponta Verde,57035400
;99F325F9-0303-40D7-AE09-C75A74842C50;Brasil;Alagoas;Maceio;Verano Pajucara By Tropicalis;Rua Jangadeiros Alagoanos, SN;Pajucara;;;;;-9.66577;-35.7128;;;;N;;0;;S;;Brasil,Alagoas,Maceio,Verano Pajucara By Tropicalis,Rua Jangadeiros Alagoanos, SN,Pajucara,        
;EA75B8D2-2F87-45BC-862E-C9EBE9978B42;Brasil;Alagoas;Maceio;Jatiuca Resort;Avenida Alvaro Otacilio, 5500;;;;;;-9.64967;-35.70002;;;;N;;0;;S;;Brasil,Alagoas,Maceio,Jatiuca Resort,Avenida Alvaro Otacilio, 5500,,        
;66C16347-68B7-4245-B86E-D0133764D58F;Brasil;Alagoas;Maceio;Acqua Suites Maceio;Avenida Doutor Antonio Gouveia, 845;Pajucara;57030170;;;;-9.667;-35.7128;;;;N;;0;;S;;Brasil,Alagoas,Maceio,Acqua Suites Maceio,Avenida Doutor Antonio Gouveia, 845,Pajucara,57030170
;1C6DA26B-3D9D-4D51-B0AB-D2DAC38E0E42;Brasil;Alagoas;Maceio;Hotel Palmanova;Avenida Comendador Gustavo Paiva, 6130;;;;;;-9.63259;-35.70075;;;;N;;0;;S;;Brasil,Alagoas,Maceio,Hotel Palmanova,Avenida Comendador Gustavo Paiva, 6130,,        
;05A3BC81-17AC-46AC-8681-D53CCEFBA07F;Brasil;Alagoas;Maceio;Hotel Paraiso das Aguas;Av Dr Antonio Gouveia;Pajucara;57035180;;;;-9.67227;-35.71625;;;;N;;0;;S;;Brasil,Alagoas,Maceio,Hotel Paraiso das Aguas,Av Dr Antonio Gouveia,Pajucara,57035180
;2C84CB0B-3E77-42CD-83D6-D55939B90E24;Brasil;Alagoas;Maceio;Tropicalis Hotel;Mario de Gusmao;Ponta Verde;57051190;;;;-9.66311;-35.69722;;;;N;;0;;S;;Brasil,Alagoas,Maceio,Tropicalis Hotel,Mario de Gusmao,Ponta Verde,57051190
;AEF57F4D-063B-46F8-A7AA-DAABEEDD1A25;Brasil;Alagoas;Maceio;Hotel Conde;Rua Nova Brasilia;Cruz das Almas;57038380;;;;-9.63243;-35.69815;;;;N;;0;;S;;Brasil,Alagoas,Maceio,Hotel Conde,Rua Nova Brasilia,Cruz das Almas,57038380
;C0308FEB-3F90-496A-BF2B-DB220058B8B0;Brasil;Alagoas;Maceio;Coqueiros Express Hotel;Desportista Humberto Guimaraes, 830;Ponta Verde;57035030;;;;-9.66346;-35.6992;;;;N;;0;;S;;Brasil,Alagoas,Maceio,Coqueiros Express Hotel,Desportista Humberto Guimaraes, 830,Ponta Verde,57035030
;DFA93485-3A4D-46CA-B61C-DEA436D19C82;Brasil;Alagoas;Maceio;Hotel Porto Grande;Rua Helio Pradines;Ponta Verde;57035220;;;;-9.65752;-35.70043;;;;N;;0;;S;;Brasil,Alagoas,Maceio,Hotel Porto Grande,Rua Helio Pradines,Ponta Verde,57035220
;F5F4F79E-1403-44C9-A765-DF12E182F336;Brasil;Alagoas;Maceio;Laguna Praia Hotel;Jangadeiros Alagoanos, 1231;Pajucara;57030000;;;;-9.66487;-35.71157;;;;N;;0;;S;;Brasil,Alagoas,Maceio,Laguna Praia Hotel,Jangadeiros Alagoanos, 1231,Pajucara,57030000
;25401529-0237-4BCB-9976-E365D51D1905;Brasil;Alagoas;Maceio;Veleiro Praia Hotel;Avenida Joao Davino, 198;;;;;;-9.64307;-35.70105;;;;N;;0;;S;;Brasil,Alagoas,Maceio,Veleiro Praia Hotel,Avenida Joao Davino, 198,,        
;5C8A2D16-EDAE-44A9-9435-E7743934525B;Brasil;Alagoas;Maceio;Bluemar Hotel;Avenida Joao Davino, 268;Jatiuca;;;;;-9.64303;-35.70167;;;;N;;0;;S;;Brasil,Alagoas,Maceio,Bluemar Hotel,Avenida Joao Davino, 268,Jatiuca,        
;4E22C6A6-2697-43C2-9207-E91E4FC77E6B;Brasil;Alagoas;Maceio;Marinas Palace Maceio Hotel;Rua Jose Luiz Calazans;Jatiuca;57037350;;;;-9.64478;-35.70036;;;;N;;0;;S;;Brasil,Alagoas,Maceio,Marinas Palace Maceio Hotel,Rua Jose Luiz Calazans,Jatiuca,57037350
;51F9E9AE-129F-48D4-A48C-E96F4AF37F26;Brasil;Alagoas;Maceio;Pousada Mandacaru;Rua Quintino Bocaiuva, 15;;;;;;-9.6667;-35.71464;;;;N;;0;;S;;Brasil,Alagoas,Maceio,Pousada Mandacaru,Rua Quintino Bocaiuva, 15,,        
;B08D40F3-9F59-4F16-9A67-F0846F36663B;Brasil;Alagoas;Maceio;Hotel D'anatureza;Rod. Al 101 Norte, 25050;Ipioca;57039700;;;;-9.50404;-35.58799;;;;N;;0;;S;;Brasil,Alagoas,Maceio,Hotel D'anatureza,Rod. Al 101 Norte, 25050,Ipioca,57039700
;37F46314-2DA9-4DCC-86C1-F0CDB2D1D4B0;Brasil;Alagoas;Maceio;Ritz Plazamar Hotel;Rua Carlos Tenorio, 105;Ponta Verde;57035010;;;;-9.66305;-35.7069;;;;N;;0;;S;;Brasil,Alagoas,Maceio,Ritz Plazamar Hotel,Rua Carlos Tenorio, 105,Ponta Verde,57035010
;BF3BBFC6-0704-4289-A0D0-F29FB0A607AA;Brasil;Alagoas;Maceio;Hotel Praia Bonita;Av Dr Antonio Gouveia, N 943;Pajucara;57030170;;;;-9.66708;-35.71288;;;;N;;0;;S;;Brasil,Alagoas,Maceio,Hotel Praia Bonita,Av Dr Antonio Gouveia, N 943,Pajucara,57030170
;7050B6D2-A7ED-4ACE-8FC3-F4DF72F88476;Brasil;Alagoas;Maceio;Altantico Flat Hotel;Avenida Beira Mar, 291;;;;;;-8.34171;-34.95;;;;N;;0;;S;;Brasil,Alagoas,Maceio,Altantico Flat Hotel,Avenida Beira Mar, 291,,        
;A6B557C7-3506-4544-B9AE-F7BE41F0DD16;Brasil;Alagoas;Maceio;Saint Patrick Praia Hotel;Julio Marques Luz, 186;Jatiuca;57035000;;;;-9.65322;-35.70072;;;;N;;0;;S;;Brasil,Alagoas,Maceio,Saint Patrick Praia Hotel,Julio Marques Luz, 186,Jatiuca,57035000
;D355F227-3E0E-47CF-A1AB-F96F4C061097;Brasil;Alagoas;Maceio;Maceio Mar Hotel;Avenida Alvaro Otacilio, 2991;Ponta Verde;57035180;;;;-9.66114;-35.6971;;;;N;;0;;S;;Brasil,Alagoas,Maceio,Maceio Mar Hotel,Avenida Alvaro Otacilio, 2991,Ponta Verde,57035180
;CD61EDE9-60C8-445A-A420-FCB9F3C07440;Brasil;Alagoas;Maceio;Hotel Brisa Mar;Avenida Doutor Antonio Gouveia, 133;Pajucara;57030170;;;;-9.67221;-35.71652;;;;N;;0;;S;;Brasil,Alagoas,Maceio,Hotel Brisa Mar,Avenida Doutor Antonio Gouveia, 133,Pajucara,57030170
;A2000637-A23D-4A53-BE07-FE68F94CD47E;Brasil;Alagoas;Maceio;Residence Waterfront;Rua Hilda de Melo Aciole;Ipioca;57039705;;;;-9.53069;-35.60479;;;;N;;0;;S;;Brasil,Alagoas,Maceio,Residence Waterfront,Rua Hilda de Melo Aciole,Ipioca,57039705
;ED575623-DE1B-438B-A2F6-FFC9D1AC1D0F;Brasil;Alagoas;Maceio;Porto Kaete Hotel;Avenida Julio Marques Luz, 221;Jatiuca;;;;;-9.65342;-35.7009;;;;N;;0;;S;;Brasil,Alagoas,Maceio,Porto Kaete Hotel,Avenida Julio Marques Luz, 221,Jatiuca,        
;F7E8B3E1-870A-4C8C-A670-01B330A49E12;Brasil;Alagoas;Maragogi;Praia Dourada Maragogi Park;Rua Luiz H. Cavalcante;Povoado Sao Bento;57955000;;;;-8.99134;-35.20411;;;;N;;0;;S;;Brasil,Alagoas,Maragogi,Praia Dourada Maragogi Park,Rua Luiz H. Cavalcante,Povoado Sao Bento,57955000
;011A7F24-52CE-4D59-BA8A-04F810A899B9;Brasil;Alagoas;Maragogi;Pousada Camurim Grande;Rod Br 101 Norte Alagoas Km 12;Maragogi;57955000;;;;-9.01811;-35.22504;;;;N;;0;;S;;Brasil,Alagoas,Maragogi,Pousada Camurim Grande,Rod Br 101 Norte Alagoas Km 12,Maragogi,57955000
;0F2995CB-01BC-41C8-9778-1CB7E4200E37;Brasil;Alagoas;Maragogi;Dolphin Pousada Maragogi;Rua Santa Terezinha, 18;;;;;;-9.02001;-35.22527;;;;N;;0;;S;;Brasil,Alagoas,Maragogi,Dolphin Pousada Maragogi,Rua Santa Terezinha, 18,,        
;B2FDB461-EF5A-4E91-A62D-255766F8C440;Brasil;Alagoas;Maragogi;Pousada Concha Dourada;Praca Alfredo Volpi, SN Lote 1 Qd D;Carvao;;;;;-9.00363;-35.21805;;;;N;;0;;S;;Brasil,Alagoas,Maragogi,Pousada Concha Dourada,Praca Alfredo Volpi, SN Lote 1 Qd D,Carvao,        
;AB821C9D-3864-4B86-9B96-2DBD192197B4;Brasil;Alagoas;Maragogi;Pousada Barra Velha;Barra Velha, S/n;Praia de Peroba;57955000;;;;-9.00843;-35.2252;;;;N;;0;;S;;Brasil,Alagoas,Maragogi,Pousada Barra Velha,Barra Velha, S/n,Praia de Peroba,57955000
;1AE4A5E3-5BFB-48CC-8E6A-2FBB95231DD8;Brasil;Alagoas;Maragogi;Pousada Taieiras;Rua Caribe, 68;Largo do Carvao;57955000;;anasilva@kontik.com.br;;-9.00529;-35.21657;;;;N;;0;;S;;Brasil,Alagoas,Maragogi,Pousada Taieiras,Rua Caribe, 68,Largo do Carvao,57955000
;AA835300-7B66-44E3-BB45-4545F97D452A;Brasil;Alagoas;Maragogi;Pousada Vovo Zilda Maragogi;Av. Arlindo Cidrim, n 415;Peroba;;;;;-8.92792;-35.17006;;;;N;;0;;S;;Brasil,Alagoas,Maragogi,Pousada Vovo Zilda Maragogi,Av. Arlindo Cidrim, n 415,Peroba,        
;68394A77-EF0E-4DEA-BA64-4C8C37816C3B;Brasil;Alagoas;Maragogi;Odoia Maragogi;Avenida Senador Rui Palmeira, 956;Litoraneo;;;;;-9.01628;-35.22299;;;;N;;0;;S;;Brasil,Alagoas,Maragogi,Odoia Maragogi,Avenida Senador Rui Palmeira, 956,Litoraneo,        
;A8FCF8F4-FB9A-4B7D-B53F-55088FA233F8;Brasil;Alagoas;Maragogi;Pousada Portal do Maragogi;Rod 101 Norte , N 04;Litoraneo;57955000;;;;-9.01239;-35.22514;;;;N;;0;;S;;Brasil,Alagoas,Maragogi,Pousada Portal do Maragogi,Rod 101 Norte , N 04,Litoraneo,57955000
;DF3E40D0-2E39-42DC-921C-664810B40C8E;Brasil;Alagoas;Maragogi;Pousada Dos Jangadeiros;Avenida Senador Rui Palmeira, SN;Beira Mar;;;;;-9.00919;-35.21833;;;;N;;0;;S;;Brasil,Alagoas,Maragogi,Pousada Dos Jangadeiros,Avenida Senador Rui Palmeira, SN,Beira Mar,        
;7B2E4C59-3C5F-4D8D-A4C5-6E988F210B11;Brasil;Alagoas;Maragogi;Pousada Morada Do Sol;Rua Jose Cavalcante De Lira Filho, 10;Centro;;;;;-9.06286;-35.24128;;;;N;;0;;S;;Brasil,Alagoas,Maragogi,Pousada Morada Do Sol,Rua Jose Cavalcante De Lira Filho, 10,Centro,        
;F9A97B56-5CE2-4AF9-8F3F-6E9CFAF29F0A;Brasil;Alagoas;Maragogi;Grand Oca Maragogi Beach & Leisure Resort;Al 101 Norte;Ponta da Mangue;57955000;;;;-9.00952;-35.22533;;;;N;;0;;S;;Brasil,Alagoas,Maragogi,Grand Oca Maragogi Beach & Leisure Resort,Al 101 Norte,Ponta da Mangue,57955000
;407C7F3E-60B8-4D92-A7FD-7B6C248D3D4F;Brasil;Alagoas;Maragogi;Pousada Galemares;Avenida Senador Rui Palmeira, 757;Litoraneo;;;;;-9.01118;-35.21989;;;;N;;0;;S;;Brasil,Alagoas,Maragogi,Pousada Galemares,Avenida Senador Rui Palmeira, 757,Litoraneo,        
;BF42EC76-FEE9-4D8E-82AA-8EB16D246DD6;Brasil;Alagoas;Maragogi;Hotel Areias Belas;Av.beira Mar, N 59;Centro;57955000;;;;-9.01423;-35.22301;;;;N;;0;;S;;Brasil,Alagoas,Maragogi,Hotel Areias Belas,Av.beira Mar, N 59,Centro,57955000
;EF35AC5F-B6CA-4920-9815-937EAF0E7A4C;Brasil;Alagoas;Maragogi;Pousada Maritimos;Rua Jose Machado Filho, 49;Litoraneo;;;ache@kontik.com.br;;-9.01467;-35.22493;;;;N;;0;;S;;Brasil,Alagoas,Maragogi,Pousada Maritimos,Rua Jose Machado Filho, 49,Litoraneo,        
;5111E710-A67A-4121-981D-9B5E8C75C2A4;Brasil;Alagoas;Maragogi;Peroba Villa;Rodovia Alameda 101 Norte, 10;Peroba;57955000;;anasilva@kontik.com.br;;-9.05092;-35.24205;;;;N;;0;;S;;Brasil,Alagoas,Maragogi,Peroba Villa,Rodovia Alameda 101 Norte, 10,Peroba,57955000
;04C57229-1E01-4996-AE27-B542E0B3ADDA;Brasil;Alagoas;Maragogi;Pousada Marahub;Av. Senador Rui Palmeira;Povoado Sao Bento;57955000;;;;-9.01819;-35.22388;;;;N;;0;;S;;Brasil,Alagoas,Maragogi,Pousada Marahub,Av. Senador Rui Palmeira,Povoado Sao Bento,57955000
;EC63C00D-FB99-414E-8D4F-B67F2799EA58;Brasil;Alagoas;Maragogi;Pousada Shallom Beach;Rua Manoel Santos Rangel, 77;Sao Bento;;;;;-9.05065;-35.2406;;;;N;;0;;S;;Brasil,Alagoas,Maragogi,Pousada Shallom Beach,Rua Manoel Santos Rangel, 77,Sao Bento,        
;213B285E-6C57-4D0C-91F6-C7920830DAF1;Brasil;Alagoas;Maragogi;Pousada Tapitanga;Loteamento Canto Do Mar, 22 Lote 22 Quadra 8;Barra Grande;;;;;-8.97998;-35.19324;;;;N;;0;;S;;Brasil,Alagoas,Maragogi,Pousada Tapitanga,Loteamento Canto Do Mar, 22 Lote 22 Quadra 8,Barra Grande,        
;CAE5D7E6-8182-422C-B806-CE1AED577648;Brasil;Alagoas;Maragogi;Pousada Sea La Vie;R Alfredo Volpi, 67;Portal De Maragogi;;;;;-9.00385;-35.21894;;;;N;;0;;S;;Brasil,Alagoas,Maragogi,Pousada Sea La Vie,R Alfredo Volpi, 67,Portal De Maragogi,        
;E582D88F-C65A-4737-BC2D-CFBB14D00BC8;Brasil;Alagoas;Maragogi;Pousada La Riviera;Avenida Senador Rui Palmeira, 245;Litoraneo;;;;;-9.01404;-35.22169;;;;N;;0;;S;;Brasil,Alagoas,Maragogi,Pousada La Riviera,Avenida Senador Rui Palmeira, 245,Litoraneo,        
;AC2ECB6F-2254-4A46-98DD-E0147FFE8E07;Brasil;Alagoas;Maragogi;Cellinas Mar;Rua Edvaldo Maciel Monteiro, 5;Sao Bento;;;;;-9.05823;-35.23976;;;;N;;0;;S;;Brasil,Alagoas,Maragogi,Cellinas Mar,Rua Edvaldo Maciel Monteiro, 5,Sao Bento,        
;5A06C6F5-6677-4EBA-8E02-E26F53457B41;Brasil;Alagoas;Maragogi;Pousada Oasis Maragogi;Rua Governador Afranio Lages, 74;Centro;;;;;-9.01566;-35.2244;;;;N;;0;;S;;Brasil,Alagoas,Maragogi,Pousada Oasis Maragogi,Rua Governador Afranio Lages, 74,Centro,        
;16D6F6B9-3D7C-4CE2-8CA9-2397D959D8CF;Brasil;Alagoas;Marechal Deodoro;Hotel Ponta Verde Praia do Frances;Rua das Algas, 300;Praia do Frances;57160000;;;;-9.76955;-35.84014;;;;N;;0;;S;;Brasil,Alagoas,Marechal Deodoro,Hotel Ponta Verde Praia do Frances,Rua das Algas, 300,Praia do Frances,57160000
;E02D70E3-D35B-4C12-98CE-3A1398B859D1;Brasil;Alagoas;Marechal Deodoro;Pousada Lua Cheia;Rua Cavalo Marinho, 85;;;;;;-9.76889;-35.84196;0;0;0;N;;0;;S;;Brasil,Alagoas,Marechal Deodoro,Pousada Lua Cheia,Rua Cavalo Marinho, 85,,        
;60B1AAE9-E5B9-4326-A853-531E3E33C791;Brasil;Alagoas;Marechal Deodoro;Capitaes de Areia;Rua Vermelha, N 13;Frances;57160000;;;;-9.76937;-35.84171;;;;N;;0;;S;;Brasil,Alagoas,Marechal Deodoro,Capitaes de Areia,Rua Vermelha, N 13,Frances,57160000
;13B72A71-C44B-48CF-8C49-5A635574E37A;Brasil;Alagoas;Marechal Deodoro;Martur;Distrito Barra Nova;Povoado Barra Nova;57160000;;;;-9.72214;-35.80917;;;;N;;0;;S;;Brasil,Alagoas,Marechal Deodoro,Martur,Distrito Barra Nova,Povoado Barra Nova,57160000
;EE161E05-87BA-42F2-8B4E-4BE2593B92DB;Brasil;Alagoas;Murici;Alecrim Parque Pousada;Br 104, Km 61;;;;;;-9.30755;-35.9394;;;;N;;0;;S;;Brasil,Alagoas,Murici,Alecrim Parque Pousada,Br 104, Km 61,,        
;9AA8E5BF-A9EE-4C2C-ABEB-DB7CFE43CB83;Brasil;Alagoas;Olho Dagua do Casado;Virgulino Hotel;Avenida Travessa Desembargador Washington Luiz, 65;Centro;;;;;-9.50192;-37.83293;;;;N;;0;;S;;Brasil,Alagoas,Olho Dagua do Casado,Virgulino Hotel,Avenida Travessa Desembargador Washington Luiz, 65,Centro,        
;02143678-AF34-4CE6-A82A-17FF92E78F3C;Brasil;Alagoas;Palmeira dos Indios;Verde Hotel;Jose Pinto de Barros,;Centro;57600310;;;;-9.40863;-36.6293;;;;N;;0;;S;;Brasil,Alagoas,Palmeira dos Indios,Verde Hotel,Jose Pinto de Barros,,Centro,57600310
;D097E7D3-2478-4BA4-A28F-7E313C484B74;Brasil;Alagoas;Palmeira dos Indios;Hotel Grandville II;Rua Deputado Jota Duarte, 85 C;Juca Sampaio;;;;;-9.42184;-36.62673;;;;N;;0;;S;;Brasil,Alagoas,Palmeira dos Indios,Hotel Grandville II,Rua Deputado Jota Duarte, 85 C,Juca Sampaio,        
;5DB46CA7-5E0F-4F3F-B375-7F14D0DB186D;Brasil;Alagoas;Palmeira dos Indios;Sao Bernardo Hotel;Praca da Independencia;Centro;57600010;;;;-9.40593;-36.63101;;;;N;;0;;S;;Brasil,Alagoas,Palmeira dos Indios,Sao Bernardo Hotel,Praca da Independencia,Centro,57600010
;972598D9-3926-463D-BF1F-AFEB16810E97;Brasil;Alagoas;Palmeira dos Indios;Oyo Hotel GrandVille;Rua Deputado Jota Duarte, 95;Juca Sampaio;;;;;-9.4223;-36.62702;;;;N;;0;;S;;Brasil,Alagoas,Palmeira dos Indios,Oyo Hotel GrandVille,Rua Deputado Jota Duarte, 95,Juca Sampaio,        
;D4B5266D-5085-46A3-964E-D65F05D5C947;Brasil;Alagoas;Palmeira dos Indios;Grandville Hotel Palmeira;Rua Antonio Matias;Centro;57600350;;ache@kontik.com.br;;-9.41092;-36.63167;;;;N;;0;;S;;Brasil,Alagoas,Palmeira dos Indios,Grandville Hotel Palmeira,Rua Antonio Matias,Centro,57600350
;BC78EDA9-4254-4FC2-9E78-E2A095F07642;Brasil;Alagoas;Palmeira dos Indios;Hotel Imperial Das Palmeiras;Avenida Vieira De Brito, 1888B;Vila Maria;57607570;;;;-9.426;-36.63572;;;;N;;0;;S;;Brasil,Alagoas,Palmeira dos Indios,Hotel Imperial Das Palmeiras,Avenida Vieira De Brito, 1888B,Vila Maria,57607570
;53574039-1C2E-4BC6-8375-BBE6DFD12961;Brasil;Alagoas;Pao de Acucar;Porta Do Sol Pousada;Avenida Braulio Cavalcante, 694;;;;;;-9.74975;-37.43339;;;;N;;0;;S;;Brasil,Alagoas,Pao de Acucar,Porta Do Sol Pousada,Avenida Braulio Cavalcante, 694,,        
;67FF67F9-9C84-4FC5-82E7-2AD639682E21;Brasil;Alagoas;Passo de Camaragibe;Hotel Fazenda Cambara;Rod Al;Zona Rural;57930000;;;;-9.24274;-35.48979;;;;N;;0;;S;;Brasil,Alagoas,Passo de Camaragibe,Hotel Fazenda Cambara,Rod Al,Zona Rural,57930000
;0A442857-8743-4F4D-AB96-3DD20A5A2AC1;Brasil;Alagoas;Passo de Camaragibe;Pousada O Casarao;Sitio Estancia, SN;Marceneiro;;;;;-9.30041;-35.40129;;;;N;;0;;S;;Brasil,Alagoas,Passo de Camaragibe,Pousada O Casarao,Sitio Estancia, SN,Marceneiro,        
;BA43629F-3BFB-4261-91BD-0E9451987FE4;Brasil;Alagoas;Penedo;Hotel Rochedo;Rod Engenheiro Joaquim Goncalves, 700 Pavmto 1 E 2;Dom Constantino;;;ache@kontik.com.br;;-10.2859;-36.55117;;;;N;;0;;S;;Brasil,Alagoas,Penedo,Hotel Rochedo,Rod Engenheiro Joaquim Goncalves, 700 Pavmto 1 E 2,Dom Constantino,        
;3FE40B05-9E8E-4F2E-BFBA-4D1F64E57ED1;Brasil;Alagoas;Penedo;Hotel Sao Francisco;Av.floriano Peixoto,;Centro;87501170;;;;-10.29041;-36.58572;;;;N;;0;;S;;Brasil,Alagoas,Penedo,Hotel Sao Francisco,Av.floriano Peixoto,,Centro,87501170
;0546FB2B-6623-4366-9D48-A49FF06A0E64;Brasil;Alagoas;Penedo;Hotel O Lacador;Rod Eng Joaquim Goncalves;Cohab;57200000;;;;-10.28502;-36.55527;;;;N;;0;;S;;Brasil,Alagoas,Penedo,Hotel O Lacador,Rod Eng Joaquim Goncalves,Cohab,57200000
;35CE3AC4-9E52-4A1E-8CA9-A9FE56D4137B;Brasil;Alagoas;Penedo;Hotel Encantos de Penedo;Avenida Floriano Peixoto, 195;Santa Luzia;57200000;;;;-10.29175;-36.58456;;;;N;;0;;S;;Brasil,Alagoas,Penedo,Hotel Encantos de Penedo,Avenida Floriano Peixoto, 195,Santa Luzia,57200000
;4C7AEDD8-BAA5-4379-A93D-E88F9B4CAA48;Brasil;Alagoas;Penedo;Pousada do Conde;Praca Jacome Calheiros;Centro Historico;57200000;;;;-10.28804;-36.5818;;;;N;;0;;S;;Brasil,Alagoas,Penedo,Pousada do Conde,Praca Jacome Calheiros,Centro Historico,57200000
;419F7C1D-0B86-42A6-8789-6017C4744648;Brasil;Alagoas;Pilar;Pousada Do Pilar;Avenida Otacilio Cavalcante, 114;Cha Do Pilar;;;;;-9.59725;-35.95621;;;;N;;0;;S;;Brasil,Alagoas,Pilar,Pousada Do Pilar,Avenida Otacilio Cavalcante, 114,Cha Do Pilar,        
;897B7FE6-8A67-4CE8-9A55-06B1BDFF3918;Brasil;Alagoas;Piranhas;O Canto Pousada;R Do Canto, 154;Centro Historico;;;;;-9.65178;-37.66211;;;;N;;0;;S;;Brasil,Alagoas,Piranhas,O Canto Pousada,R Do Canto, 154,Centro Historico,        
;74686FC4-ADDA-40E4-9A56-0DBA97BC361E;Brasil;Alagoas;Piranhas;Pousada Porto Piranhas;Rua Tenente Jose Martiniano Vasco, 70;Centro;;;;;-9.62482;-37.75653;;;;N;;0;;S;;Brasil,Alagoas,Piranhas,Pousada Porto Piranhas,Rua Tenente Jose Martiniano Vasco, 70,Centro,        
;C133C078-8A6B-4B3F-955D-0E06DE53A533;Brasil;Alagoas;Piranhas;Pousada Lua Rosa;R Jose Nunes De Araujo, 130;Centro Historico;;;;;-9.65554;-37.66369;;;;N;;0;;S;;Brasil,Alagoas,Piranhas,Pousada Lua Rosa,R Jose Nunes De Araujo, 130,Centro Historico,        
;DA241D04-45B8-488B-A5D6-14B3AFFC78AD;Brasil;Alagoas;Piranhas;Pousada Lapinha Do Sertao;Rua José Martiniano Vasco, 111;Centro;;;;;-9.65432;-37.66223;;;;N;;0;;S;;Brasil,Alagoas,Piranhas,Pousada Lapinha Do Sertao,Rua José Martiniano Vasco, 111,Centro,        
;9494DB00-218E-4F4E-97ED-14CDA6584D79;Brasil;Alagoas;Piranhas;Pousada Sao Francisco;Rod Al 225 Km 5.9;Xingo;;;;;-9.58647;-37.77629;;;;N;;0;;S;;Brasil,Alagoas,Piranhas,Pousada Sao Francisco,Rod Al 225 Km 5.9,Xingo,        
;EE85418C-28A8-4AFE-9521-26FCA5E75C84;Brasil;Alagoas;Piranhas;Pousada Canoa De Tolda;Avenida Delmiro Gouveia, 45;Nossa Senhora Da Saude;;;;;-9.60719;-37.76021;;;;N;;0;;S;;Brasil,Alagoas,Piranhas,Pousada Canoa De Tolda,Avenida Delmiro Gouveia, 45,Nossa Senhora Da Saude,        
;F7FBBD78-9311-4C86-A2A0-2ED984FB415D;Brasil;Alagoas;Piranhas;Pousada Sol Nascente;Avenida Sergipe, SN;Xingo  Vila Sergipe;;;;;-9.60778;-37.76353;;;;N;;0;;S;;Brasil,Alagoas,Piranhas,Pousada Sol Nascente,Avenida Sergipe, SN,Xingo  Vila Sergipe,        
;27767465-4203-4266-85C5-3CFB1A88F9EE;Brasil;Alagoas;Piranhas;Hotel Aconchego Do Velho Chico;Rodovia Altemar Dutra, SN;Piranhas Velhas;;;;;-9.62381;-37.76117;;;;N;;0;;S;;Brasil,Alagoas,Piranhas,Hotel Aconchego Do Velho Chico,Rodovia Altemar Dutra, SN,Piranhas Velhas,        
;B913A99C-B895-489C-A857-451293715205;Brasil;Alagoas;Piranhas;Pousada Bonita;Av Santana Do Ipanema, 39;Xingo;;;;;-9.60386;-37.76752;;;;N;;0;;S;;Brasil,Alagoas,Piranhas,Pousada Bonita,Av Santana Do Ipanema, 39,Xingo,        
;6E99F24E-942D-4445-9118-72AE81182FCF;Brasil;Alagoas;Piranhas;Hotel Reserva Do Xingo;Rod Al 225 sn Km 12;Xingo;;;;;-9.60639;-37.78037;;;;N;;0;;S;;Brasil,Alagoas,Piranhas,Hotel Reserva Do Xingo,Rod Al 225 sn Km 12,Xingo,        
;4883BD8A-3A79-4C76-B36B-85DD267B2D22;Brasil;Alagoas;Piranhas;Hotel Chacara Xique Xique;Rua Ac Do Xingo, 08;Xingo;;;;;-9.60491;-37.78007;;;;N;;0;;S;;Brasil,Alagoas,Piranhas,Hotel Chacara Xique Xique,Rua Ac Do Xingo, 08,Xingo,        
;C6F276CF-28A3-4C28-8FA6-8C206F19A0F7;Brasil;Alagoas;Piranhas;Pousada Mecejana;Travessa Campo Grande, 63;Xingo;;;;;-9.60297;-37.76838;;;;N;;0;;S;;Brasil,Alagoas,Piranhas,Pousada Mecejana,Travessa Campo Grande, 63,Xingo,        
;696FE33F-2DF6-439B-9062-96F905662928;Brasil;Alagoas;Piranhas;Dunen Hotel;Centro Comercial Grinauria Miranda Loja23;Centro;;;;;-9.6048;-37.7667;;;;N;;0;;S;;Brasil,Alagoas,Piranhas,Dunen Hotel,Centro Comercial Grinauria Miranda Loja23,Centro,        
;EEF27CD6-77E0-4862-9332-BDB302D8215A;Brasil;Alagoas;Piranhas;Pousada Recanto Dos Canyons;Rua Sao Domingos, 7;Xingo;;;;;-9.61158;-37.76167;;;;N;;0;;S;;Brasil,Alagoas,Piranhas,Pousada Recanto Dos Canyons,Rua Sao Domingos, 7,Xingo,        
;BEAE16C2-DE14-4F7D-A8B6-CF088C345464;Brasil;Alagoas;Piranhas;Pousada Mariha;R Pacatuba 17 Vila Sergipe;Xingo;;;;;-9.61481;-37.76521;;;;N;;0;;S;;Brasil,Alagoas,Piranhas,Pousada Mariha,R Pacatuba 17 Vila Sergipe,Xingo,        
;DDDF1A6F-572B-4B66-80D4-FA08241B75FF;Brasil;Alagoas;Piranhas;Pousada Imperio Do Cangaco;Rodovia Altemar Dutra, 10;Nossa Senhora Da Saude;;;;;-9.65511;-37.66464;;;;N;;0;;S;;Brasil,Alagoas,Piranhas,Pousada Imperio Do Cangaco,Rodovia Altemar Dutra, 10,Nossa Senhora Da Saude,        
;31047202-71D3-4693-A41A-2EC0ADFBF60F;Brasil;Alagoas;Porto Calvo;Hotel Deth;Rua Boa Vista;Centro;57900000;;;;-9.0499;-35.40118;;;;N;;0;;S;;Brasil,Alagoas,Porto Calvo,Hotel Deth,Rua Boa Vista,Centro,57900000
;EE9C211E-1D70-4962-830A-8A772EE7C642;Brasil;Alagoas;Porto Calvo;Hotel Deth;Rua Boa Vista, 454a;Centro;57900000;;;;-9.04988;-35.4012;;;;N;;0;;S;;Brasil,Alagoas,Porto Calvo,Hotel Deth,Rua Boa Vista, 454a,Centro,57900000
;6D922128-B878-45DD-A2DF-D8157FC8FEF2;Brasil;Alagoas;Porto de Pedras;Pousada Sunshine Patacho;Rua Alameda Graciliano Ramos, 1020;Curtume Praia Do Patacho;;;;;-9.18389;-35.30323;;;;N;;0;;S;;Brasil,Alagoas,Porto de Pedras,Pousada Sunshine Patacho,Rua Alameda Graciliano Ramos, 1020,Curtume Praia Do Patacho,        
;CB35A726-D100-4B66-B04D-E670EFA2E2A8;Brasil;Alagoas;Porto de Pedras;Pousada Villa Morena;DT Povoado Tatuamunha, SN;Litoral;;;Villamorenapousada@gmail.com;;-9.22121;-35.34118;;0;;N;;0;;S;;Brasil,Alagoas,Porto de Pedras,Pousada Villa Morena,DT Povoado Tatuamunha, SN,Litoral,        
;6D701648-5C4D-472C-8043-4F6920E2F854;Brasil;Alagoas;Rio Largo;Pousada Reforco 6;Rodovia Br 101, 7632;Centro;;;;;-9.43089;-35.8371;;;;N;;0;;S;;Brasil,Alagoas,Rio Largo,Pousada Reforco 6,Rodovia Br 101, 7632,Centro,        
;AD6FFC22-138C-4858-AB48-338634E02E46;Brasil;Alagoas;Santana do Ipanema;Hotel Privillege;Rua Projetada, 81;Sao Vicente;57500000;;ache@kontik.com.br;;-9.36421;-37.25302;;;;N;;0;;S;;Brasil,Alagoas,Santana do Ipanema,Hotel Privillege,Rua Projetada, 81,Sao Vicente,57500000
;8D24F79D-75AA-40FF-A6F7-866FE7D50076;Brasil;Alagoas;Santana do Ipanema;Pousada e Restaurante Aquarelas;Nossa Sra. de Fatima, 320;Monumento;57500000;;;;-9.37232;-37.24061;;;;N;;0;;S;;Brasil,Alagoas,Santana do Ipanema,Pousada e Restaurante Aquarelas,Nossa Sra. de Fatima, 320,Monumento,57500000
;E5374D1A-085C-4090-AABB-B1D57ED4FB0A;Brasil;Alagoas;Santana do Ipanema;Hotel Ribeira do Ipanema;Rua Coronel Lucena;Monumento;57500000;;;;-9.37213;-37.243;;;;N;;0;;S;;Brasil,Alagoas,Santana do Ipanema,Hotel Ribeira do Ipanema,Rua Coronel Lucena,Monumento,57500000
;514C1FF0-91F9-484C-9667-C8B48B21D244;Brasil;Alagoas;Santana do Ipanema;Hotel Asa Branca;Av. Dr. Otavio Cabral, 640;Centro;57500000;;;;-9.37337;-37.2349;;;;N;;0;;S;;Brasil,Alagoas,Santana do Ipanema,Hotel Asa Branca,Av. Dr. Otavio Cabral, 640,Centro,57500000
;A2D9D744-1E0F-432B-AA39-FED040E6A763;Brasil;Alagoas;Santana do Ipanema;Pousada Cangaco;Avenida Doutor Arsenio Moreira;Centro;57500000;;ache@kontik.com.br;;-9.36297;-37.26638;;;;N;;0;;S;;Brasil,Alagoas,Santana do Ipanema,Pousada Cangaco,Avenida Doutor Arsenio Moreira,Centro,57500000
;D90A0FE7-3395-4455-AD79-0CDF839709BC;Brasil;Alagoas;Sao Miguel dos Campos;Pousada Paraiso;Rua Coronel Francisco Cavalcante;Centro;57240000;;;;-9.77949;-36.1042;;;;N;;0;;S;;Brasil,Alagoas,Sao Miguel dos Campos,Pousada Paraiso,Rua Coronel Francisco Cavalcante,Centro,57240000
;3981ACC9-007E-413F-A216-6F29EA5322FC;Brasil;Alagoas;Sao Miguel dos Campos;Pousada Campo Verde;Av Joao Soriano Bomfim;Centro;57240000;;;;-9.77543;-36.09255;;;;N;;0;;S;;Brasil,Alagoas,Sao Miguel dos Campos,Pousada Campo Verde,Av Joao Soriano Bomfim,Centro,57240000
;15B2893A-4EA0-4987-BD16-7C62A921FC4D;Brasil;Alagoas;Sao Miguel dos Campos;Pousada dos Caetes;Br 101 Sul, S/n;Sede;57240000;;;;-9.76846;-36.08552;;;;N;;0;;S;;Brasil,Alagoas,Sao Miguel dos Campos,Pousada dos Caetes,Br 101 Sul, S/n,Sede,57240000
;0751F1C9-E0F0-4FF5-94C2-949BF03F36F5;Brasil;Alagoas;Sao Miguel dos Campos;Hotel Central;Rua Barao do Jequia;Centro;50240000;;;;-9.78052;-36.09727;;;;N;;0;;S;;Brasil,Alagoas,Sao Miguel dos Campos,Hotel Central,Rua Barao do Jequia,Centro,50240000
;0381FC9F-5AD9-43A3-9F41-9DDCA4CACF56;Brasil;Alagoas;Sao Miguel dos Campos;Hotel Via Mares;Av. Joao Floriano Bomfim, 134;Centro;57240000;;;;-9.79917;-36.11123;;;;N;;0;;S;;Brasil,Alagoas,Sao Miguel dos Campos,Hotel Via Mares,Av. Joao Floriano Bomfim, 134,Centro,57240000
;9F3F0E55-108E-479A-AD4F-845AA51E099B;Brasil;Alagoas;Sao Miguel dos Milagres;Anga Hotel;Rua Bom Jesus, Sn;Centro;;;;;-9.23862;-35.34486;;;;N;;0;;S;;Brasil,Alagoas,Sao Miguel dos Milagres,Anga Hotel,Rua Bom Jesus, Sn,Centro,        
;34E547FE-E198-45A4-A7C1-69F928D4030F;Brasil;Alagoas;Teotonio Vilela;Pousada Sao Geraldo;Avenida Maria Jeane Moreira Sampaio;Centro;57265000;;;;-9.90926;-36.35704;;;;N;;0;;S;;Brasil,Alagoas,Teotonio Vilela,Pousada Sao Geraldo,Avenida Maria Jeane Moreira Sampaio,Centro,57265000
;3EB075CB-F9FB-41EA-B85C-80F32E2B6E77;Brasil;Alagoas;Teotonio Vilela;Pousada Santana Alagoas;Antonio Ubaldo dos Anjos;Centro;57265000;;;;-9.90596;-36.35324;;;;N;;0;;S;;Brasil,Alagoas,Teotonio Vilela,Pousada Santana Alagoas,Antonio Ubaldo dos Anjos,Centro,57265000
;1A425B43-7DE6-4188-A4A4-01A4B0C9832E;Brasil;Alagoas;Uniao dos Palmares;Recanto Mirante Das Aguas;Rua Do Taquari, 188 848;Centro;;;;;-9.14913;-36.03685;;;;N;;0;;S;;Brasil,Alagoas,Uniao dos Palmares,Recanto Mirante Das Aguas,Rua Do Taquari, 188 848,Centro,        
;FB1A9AB8-28CC-4EA3-AB71-13B8A553D8D2;Brasil;Alagoas;Uniao dos Palmares;Hotel Santa Maria Madalena;Rua Mal Deodoro Fonseca, 135;Povoado Varzea Grande;57800000;;ache@kontik.com.br;;-9.15851;-36.03198;;;;N;;0;;S;;Brasil,Alagoas,Uniao dos Palmares,Hotel Santa Maria Madalena,Rua Mal Deodoro Fonseca, 135,Povoado Varzea Grande,57800000
;C8086FF5-1FAE-40E2-8944-5D28E818B3B7;Brasil;Alagoas;Uniao dos Palmares;Quilombo Park Hotel;Rod. 104;Zona Rural;57800000;;;;-9.159;-36.02751;;;;N;;0;;S;;Brasil,Alagoas,Uniao dos Palmares,Quilombo Park Hotel,Rod. 104,Zona Rural,57800000
;875A5F6B-ADA8-4CB8-A73A-43B5C6B39810;Brasil;Amazonas;Apui;Hotel Carvalho;Av. Transamazonica, 832;Centro;;;;;-7.19519;-59.88656;;;;N;;0;;S;;Brasil,Amazonas,Apui,Hotel Carvalho,Av. Transamazonica, 832,Centro,        
;8C550E74-A990-43A4-9806-A6D574847F7A;Brasil;Amazonas;Apui;Silverado Hotel;Rua Pernambuco, 20;Centro;;;;;-7.1989;-59.89397;;;;N;;0;;S;;Brasil,Amazonas,Apui,Silverado Hotel,Rua Pernambuco, 20,Centro,        
;804D2DC4-72CF-4D12-92DE-96085D136967;Brasil;Amazonas;Atalaia do Norte;Hotel Castro Alves;Rua Trinta E Um De Marco, 120;Centro;;;;;-4.36584;-70.19579;;;;N;;0;;S;;Brasil,Amazonas,Atalaia do Norte,Hotel Castro Alves,Rua Trinta E Um De Marco, 120,Centro,        
;AB125088-1070-464B-8A6F-02767032814A;Brasil;Amazonas;Autazes;Hotel Tupinamba Autazares;Rua Raimundo Cavalcante, 789;Centro;;;;;-3.58076;-59.13301;;;;N;;0;;S;;Brasil,Amazonas,Autazes,Hotel Tupinamba Autazares,Rua Raimundo Cavalcante, 789,Centro,        
;34B57BFD-CD61-4585-9466-C214F4154AA5;Brasil;Amazonas;Autazes;Ellen Palace Hotel;Rua do Engenho, 89;Centro;69240000;;;;-3.58564;-59.13017;;;;N;;0;;S;;Brasil,Amazonas,Autazes,Ellen Palace Hotel,Rua do Engenho, 89,Centro,69240000
;CDA48FAC-8E5D-4481-B8F4-9B6B2CC56B37;Brasil;Amazonas;Barcelos;Hotel Cidade;Avenida Mariua, 192;Centro;69700000;(97) 991512969;HOTELCIDADE3@GMAIL.COM;;-0.96796;-62.92871;;;;N;;0;;S;;Brasil,Amazonas,Barcelos,Hotel Cidade,Avenida Mariua, 192,Centro,69700000
;36EDD568-2E80-4FCB-AC50-E43C51391D94;Brasil;Amazonas;Benjamin Constant;Cabanas Restaurante e Hoteis;Rua Valdir Lima, 2;Colonia;;;contato@hotelcabanasbc.com.br;http:hotelcabanasbc.com.br;-4.38071;-70.02126;;0;;N;;0;;S;;Brasil,Amazonas,Benjamin Constant,Cabanas Restaurante e Hoteis,Rua Valdir Lima, 2,Colonia,        
;2984B329-E1C1-4E4D-ACC0-DBFC56BF6592;Brasil;Amazonas;Boca do Acre;HOTEL VALE;Av. Boca do Acre, 380;Praia do Gado;69850000;;hotelvalebocadoacre@gmail.com;;-8.75067;-67.39879;;;;N;;0;;S;;Brasil,Amazonas,Boca do Acre,HOTEL VALE,Av. Boca do Acre, 380,Praia do Gado,69850000
;AA3732A2-1F75-4D46-8E89-C7735D10231D;Brasil;Amazonas;Borba;Hotel Borba Palece;Av Getulio Vargas, 23;Centro;;;;;-4.38459;-59.59268;;;;N;;0;;S;;Brasil,Amazonas,Borba,Hotel Borba Palece,Av Getulio Vargas, 23,Centro,        
;81467B7E-BD87-4B39-8927-283FAEFA0205;Brasil;Amazonas;Carauari;Hotel Lobo Carauari;Av Dom Pedro Ii;Centro;69500000;;;;-4.87508;-66.89669;;;;N;;0;;S;;Brasil,Amazonas,Carauari,Hotel Lobo Carauari,Av Dom Pedro Ii,Centro,69500000
;677D8379-C7F6-4CCD-A832-ED4761AE829F;Brasil;Amazonas;Carauari;Tatiana?s Hotel;Rua Francisco Campelo,;Centro;69500000;;;;-4.87771;-66.89613;;;;N;;0;;S;;Brasil,Amazonas,Carauari,Tatiana?s Hotel,Rua Francisco Campelo,,Centro,69500000
;879057FF-8AAE-4158-B7FB-0FBC522AC993;Brasil;Amazonas;Coari;Hotel Alex Flat;Rua de Cinco Setembro, 225;Centro;69460000;;;;-4.10298;-63.14636;;;;N;;0;;S;;Brasil,Amazonas,Coari,Hotel Alex Flat,Rua de Cinco Setembro, 225,Centro,69460000
;C36A32B9-DAB3-4310-90B6-31E535A60E48;Brasil;Amazonas;Coari;Hotel M.f.5 Center;Rua Independencia;Centro;69460000;;;;-4.08501;-63.14016;;;;N;;0;;S;;Brasil,Amazonas,Coari,Hotel M.f.5 Center,Rua Independencia,Centro,69460000
;E33ECBD9-FAA5-4347-9578-97FCF90E8DD7;Brasil;Amazonas;Coari;Hagia Sophia Galeria e Hotel;Rua de Cinco Setembro, 141;Centro;;;;;-4.08618;-63.14061;;;;N;;0;;S;;Brasil,Amazonas,Coari,Hagia Sophia Galeria e Hotel,Rua de Cinco Setembro, 141,Centro,        
;D49932E3-CD88-4423-B02D-6D0C3472126A;Brasil;Amazonas;Eirunepe;Hotel Aquarius;Aevnida Getulio Vargas, 712;Centro;69880000;;;;-3.12486;-60.02078;;;;N;;0;;S;;Brasil,Amazonas,Eirunepe,Hotel Aquarius,Aevnida Getulio Vargas, 712,Centro,69880000
;63AAFFAE-32B1-4AE9-8190-164F65A4C8B9;Brasil;Amazonas;Envira;Hotel Leokliver;Rua Joaquim Borba, 139;;;;;;-7.43783;-70.02897;;;;N;;0;;S;;Brasil,Amazonas,Envira,Hotel Leokliver,Rua Joaquim Borba, 139,,        
;37374380-2A79-4048-8D16-21BF2C3166EC;Brasil;Amazonas;Fonte Boa;Hotel Eliana;Avenida Governador Gilberto Mestrinho, 220;Cidade Nova;;;;;-3.0694;-59.92358;;;;N;;0;;S;;Brasil,Amazonas,Fonte Boa,Hotel Eliana,Avenida Governador Gilberto Mestrinho, 220,Cidade Nova,        
;C0ABD75D-C236-4858-A7A6-3E1037C7CA5F;Brasil;Amazonas;Humaita;Humaita Quality Hotel;Circular Municipal;Centro;69800000;;ache@kontik.com.br;;-7.5051;-63.02562;;;;N;;0;;S;;Brasil,Amazonas,Humaita,Humaita Quality Hotel,Circular Municipal,Centro,69800000
;7587141F-5239-46CB-805F-B1D57B769200;Brasil;Amazonas;Humaita;Hotel Pousada Paraiso;Rua Padre Luiz Verzon;Nova Humaita;69800000;;;;-7.51148;-63.03645;;;;N;;0;;S;;Brasil,Amazonas,Humaita,Hotel Pousada Paraiso,Rua Padre Luiz Verzon,Nova Humaita,69800000
;31F5615B-3271-4487-845E-C1F66B054152;Brasil;Amazonas;Humaita;Hotel Macedonia;Circular Municipal;Centro;69800000;;;;-7.51543;-63.02929;;;;N;;0;;S;;Brasil,Amazonas,Humaita,Hotel Macedonia,Circular Municipal,Centro,69800000
;115095A1-2FBD-4EAA-B83E-8053E5C99D01;Brasil;Amazonas;Iranduba;Pousada Garrido;Comunidade Tumbira, 25;Zona Rural;;;;;-3.12277;-59.9914;;;;N;;0;;S;;Brasil,Amazonas,Iranduba,Pousada Garrido,Comunidade Tumbira, 25,Zona Rural,        
;61BF4AE5-AB2E-4C25-8BFB-22D87DCBB99B;Brasil;Amazonas;Itacoatiara;Lider Hotel - Itacoatiara;Avenida Parque;Centro;;;;;-3.13873;-58.44649;;;;N;;0;;S;;Brasil,Amazonas,Itacoatiara,Lider Hotel - Itacoatiara,Avenida Parque,Centro,        
;B3066D30-9DE5-48B8-8E6C-4F2923750191;Brasil;Amazonas;Itacoatiara;Christian Hotel;Rua Floriano Peixoto, 259;Centro;;;ache@kontik.com.br;;-3.14478;-58.44985;;0;;N;;0;;S;;Brasil,Amazonas,Itacoatiara,Christian Hotel,Rua Floriano Peixoto, 259,Centro,        
;D0172A75-839C-4DD0-9DFC-52BFB58BAE2D;Brasil;Amazonas;Itacoatiara;Regine's Hotel;Av Torquato Tapajos;Centro;69100000;;;;-3.14206;-58.44083;;;;N;;0;;S;;Brasil,Amazonas,Itacoatiara,Regine's Hotel,Av Torquato Tapajos,Centro,69100000
;830D1682-1E8A-47B2-A26A-5E05F32D68DB;Brasil;Amazonas;Itacoatiara;Hotel Cleia Cirino;Avenida 07 de Setembro, 535;Centro;69100036;;ache@kontik.com.br;;-3.14549;-58.4445;;;;N;;0;;S;;Brasil,Amazonas,Itacoatiara,Hotel Cleia Cirino,Avenida 07 de Setembro, 535,Centro,69100036
;C112975D-D935-451F-B9D0-5EB5F3374DAF;Brasil;Amazonas;Itacoatiara;Christian Hotel;Rua Floriano Peixoto, 259;Colonia;;;;;-3.14478;-58.44985;;;;N;;0;;S;;Brasil,Amazonas,Itacoatiara,Christian Hotel,Rua Floriano Peixoto, 259,Colonia,        
;6FF6BF39-B809-4617-9FA1-609F643051DA;Brasil;Amazonas;Itacoatiara;Lider Hotel Ii;Avenida Park;Pedreiras;69100000;;;;-3.13873;-58.44649;;;;N;;0;;S;;Brasil,Amazonas,Itacoatiara,Lider Hotel Ii,Avenida Park,Pedreiras,69100000
;C3A872C9-62A9-4556-BE92-8D66E9428DC6;Brasil;Amazonas;Itacoatiara;Hotel Claudia Cirino;Rua Ruy Barbosa, 278;;;;;;-3.14604;-58.4475;;;;N;;0;;S;;Brasil,Amazonas,Itacoatiara,Hotel Claudia Cirino,Rua Ruy Barbosa, 278,,        
;58DC23F8-0CF3-4FB3-9199-F066446F1A34;Brasil;Amazonas;Itacoatiara;Pousada Do Rio Urubu;Rua extensão m 10 k 218;Vila De Lindoia Zona Rura;;;;;-3.11356;-58.42291;;;;N;;0;;S;;Brasil,Amazonas,Itacoatiara,Pousada Do Rio Urubu,Rua extensão m 10 k 218,Vila De Lindoia Zona Rura,        
;81142083-411F-4156-97C1-3C143EF79481;Brasil;Amazonas;Itapiranga;Hotel Amazonas  Itapiranga;Travessa Joaquim De Almeilda, 79;Cidade Baixa;;;;;-2.74906;-58.02229;;;;N;;0;;S;;Brasil,Amazonas,Itapiranga,Hotel Amazonas  Itapiranga,Travessa Joaquim De Almeilda, 79,Cidade Baixa,        
;10597FAB-AB88-497E-9A1D-48AB3C7B38CD;Brasil;Amazonas;Itapiranga;Hotel Ferrari;Av. Ademar Grana Viana SN;Centro;;;;;-2.74558;-58.02899;;;;N;;0;;S;;Brasil,Amazonas,Itapiranga,Hotel Ferrari,Av. Ademar Grana Viana SN,Centro,        
;D6B7EF79-1846-4F47-9A48-9D825C4CEF17;Brasil;Amazonas;Itapiranga;HOTEL DAS ARARAS ;RUA LAURO GARCIA, 1072;JD PRIMAVERA;69120000; (92) 92541866;hoteldasararas2012@gmail.com;;-10.89444;-61.93578;;;;N;;0;;S;;Brasil,Amazonas,Itapiranga,HOTEL DAS ARARAS ,RUA LAURO GARCIA, 1072,JD PRIMAVERA,69120000
;7640C56D-A3E0-4A66-89AA-560B10051CF6;Brasil;Amazonas;Labrea;Dannys Hotel;Praca Coronel Labre;Centro;69830000;;;;-7.25953;-64.79994;;;;N;;0;;S;;Brasil,Amazonas,Labrea,Dannys Hotel,Praca Coronel Labre,Centro,69830000
;43162AE0-1283-4CA7-8F20-321BC734DEAF;Brasil;Amazonas;Manacapuru;Hotel Maranata;Boulevard Pedro Rates de Oliveira;Centro;69400000;;;;-3.29557;-60.62904;;;;N;;0;;S;;Brasil,Amazonas,Manacapuru,Hotel Maranata,Boulevard Pedro Rates de Oliveira,Centro,69400000
;6BA3D3E1-D4EB-413B-9D27-9E568B2CCBF0;Brasil;Amazonas;Manacapuru;Novo Hotel e Restaurante;Av Ribeiro Junior;Centro;69400000;;;;-3.2983;-60.61902;;;;N;;0;;S;;Brasil,Amazonas,Manacapuru,Novo Hotel e Restaurante,Av Ribeiro Junior,Centro,69400000
;D6AEDC96-A97F-417B-B422-C9BA0EAF34E5;Brasil;Amazonas;Manacapuru;Paraiso D Angelo Turismo;Boulevard Pedro Rates de Oliveira;Correnteza;69400000;;;;-3.30717;-60.60531;;;;N;;0;;S;;Brasil,Amazonas,Manacapuru,Paraiso D Angelo Turismo,Boulevard Pedro Rates de Oliveira,Correnteza,69400000
;FABDE646-A710-4071-84F0-027740822C9D;Brasil;Amazonas;Manaus;Ibis Manaus Aeroporto;Avenida do Turismo;Taruma;69041010;;;;-3.02595;-60.05793;;;;N;;0;;S;;Brasil,Amazonas,Manaus,Ibis Manaus Aeroporto,Avenida do Turismo,Taruma,69041010
;1C5E3C33-C3BB-4569-BD20-02A2953E7643;Brasil;Amazonas;Manaus;Pico Da Neblina;Avenida Eduardo Gomes;Centro;;;;;-3.13287;-60.02413;;;;N;;0;;S;;Brasil,Amazonas,Manaus,Pico Da Neblina,Avenida Eduardo Gomes,Centro,        
;380D877A-B0BA-419B-B461-02D7290F0D7E;Brasil;Amazonas;Manaus;Hotel Manaos;Avenida Eduardo Ribeiro,n 881;Centro;69010001;;;;-3.1297;-60.0242;;;;N;;0;;S;;Brasil,Amazonas,Manaus,Hotel Manaos,Avenida Eduardo Ribeiro,n 881,Centro,69010001
;4178CC40-90ED-4BAF-94A7-044FEF079485;Brasil;Amazonas;Manaus;Caesar Business Manaus Amazonas;Darcy Vargas, 645;Chapada;69050000;;;;-3.09243;-60.02077;;;;N;;0;;S;;Brasil,Amazonas,Manaus,Caesar Business Manaus Amazonas,Darcy Vargas, 645,Chapada,69050000
;441D6D57-4CEF-480F-B4D6-05ABBD1EBC09;Brasil;Amazonas;Manaus;Hotel Saint Paul;Avenida Ramos Ferreira, 1115;;;;;;-3.12806;-60.02245;;;;N;;0;;S;;Brasil,Amazonas,Manaus,Hotel Saint Paul,Avenida Ramos Ferreira, 1115,,        
;F26E9485-6D68-4431-8863-05C12E1CB20F;Brasil;Amazonas;Manaus;da Vinci Hotel-manaus;Rua Belo Horizonte, N 240a;Adrianopolis;69057060;;;;-3.10668;-60.01116;;;;N;;0;;S;;Brasil,Amazonas,Manaus,da Vinci Hotel-manaus,Rua Belo Horizonte, N 240a,Adrianopolis,69057060
;859B890D-FFFB-4CAD-B620-0D53CDA24DDD;Brasil;Amazonas;Manaus;Tropical Executive Hotel;Avenida Coronel Teixeira, 1320;Ponta Negra;;;;;-3.06234;-60.10438;;;;N;;0;;S;;Brasil,Amazonas,Manaus,Tropical Executive Hotel,Avenida Coronel Teixeira, 1320,Ponta Negra,        
;530D04E5-10DB-444C-B7CC-0DCED284D737;Brasil;Amazonas;Manaus;Central Hotel Manaus;Rua Dr. Moreira, N 202;Centro;69005250;;;;-3.13621;-60.0219;;;;N;;0;;S;;Brasil,Amazonas,Manaus,Central Hotel Manaus,Rua Dr. Moreira, N 202,Centro,69005250
;92A606F5-9E5E-4050-974B-16D3FE027CBA;Brasil;Amazonas;Manaus;Cesar Business Manaus-amazonas;Avenida Darcy Vargas;Parque 10 de Novembro;69055035;;;;-3.09243;-60.02077;;;;N;;0;;S;;Brasil,Amazonas,Manaus,Cesar Business Manaus-amazonas,Avenida Darcy Vargas,Parque 10 de Novembro,69055035
;A4BE65CA-94F0-46C9-A273-1CDFFB0B622C;Brasil;Amazonas;Manaus;Hotel Express Vieiralves;Rua Rio Ituxi, 95;Nossa Senhora das Gracas;;;;;-3.10282;-60.02347;;;;N;;0;;S;;Brasil,Amazonas,Manaus,Hotel Express Vieiralves,Rua Rio Ituxi, 95,Nossa Senhora das Gracas,        
;C3035258-D8F2-4A1A-8C6E-20FA397BB579;Brasil;Amazonas;Manaus;Lord Manaus Hotel (ant. Best Western);Rua Marcilio Dias, N217;Centro;69005270;;;;-3.13602;-60.02304;;;;N;;0;;S;;Brasil,Amazonas,Manaus,Lord Manaus Hotel (ant. Best Western),Rua Marcilio Dias, N217,Centro,69005270
;D045F75C-1FFE-4872-B662-261731268B8E;Brasil;Amazonas;Manaus;Hotel do Largo;Rua Monsenhor Coutinho, 790;Centro;69010110;;;;-3.12911;-60.02233;;;;N;;0;;S;;Brasil,Amazonas,Manaus,Hotel do Largo,Rua Monsenhor Coutinho, 790,Centro,69010110
;59D65740-6733-41B3-9A24-2713CCBA4F92;Brasil;Amazonas;Manaus;Novotel Manaus;Avenida Mandii;Distrito Industrial;69075140;;;;-3.12938;-59.98438;;;;N;;0;;S;;Brasil,Amazonas,Manaus,Novotel Manaus,Avenida Mandii,Distrito Industrial,69075140
;F249534A-003F-4AB4-A431-320B5E275803;Brasil;Amazonas;Manaus;Hotel Barra do Rio Negro;Rua Joaquim Sarmento;Centro;69010000;;;;-3.13332;-60.02508;;;;N;;0;;S;;Brasil,Amazonas,Manaus,Hotel Barra do Rio Negro,Rua Joaquim Sarmento,Centro,69010000
;E9AE719D-852A-4FC5-AC5E-32480863B7EE;Brasil;Amazonas;Manaus;Plaza Hotel-manaus;Av. Getulio Vargas, N 215;Centro;69020010;;;;-3.13333;-60.02085;;;;N;;0;;S;;Brasil,Amazonas,Manaus,Plaza Hotel-manaus,Av. Getulio Vargas, N 215,Centro,69020010
;0D8E6152-5010-4039-A7BC-32E78B385FE8;Brasil;Amazonas;Manaus;Amazon Tupana Lodge;Br319 Km, 178;;;;;;-3.12848;-59.96649;;;;N;;0;;S;;Brasil,Amazonas,Manaus,Amazon Tupana Lodge,Br319 Km, 178,,        
;D35EA772-3F96-4954-90CA-41BC7143CDB6;Brasil;Amazonas;Manaus;Comfort Hotel Manaus;Rua Mandii;Distrito Industrial;69075140;;;;-3.13237;-59.9835;;;;N;;0;;S;;Brasil,Amazonas,Manaus,Comfort Hotel Manaus,Rua Mandii,Distrito Industrial,69075140
;05B3C825-B947-4DA8-A89F-4287CFFE8116;Brasil;Amazonas;Manaus;Hotel Talissa Ii;Parana, 85;Flores;69058540;;;;-3.06492;-60.01386;;;;N;;0;;S;;Brasil,Amazonas,Manaus,Hotel Talissa Ii,Parana, 85,Flores,69058540
;69D39C78-ACD6-4A0E-8473-428F825581D7;Brasil;Amazonas;Manaus;Manaus Hoteis Millennium;Avenida Djalma Batista, 1661;;;;;;-3.10151;-60.02589;;;;N;;0;;S;;Brasil,Amazonas,Manaus,Manaus Hoteis Millennium,Avenida Djalma Batista, 1661,,        
;D0A3A642-DBDF-4A10-B9BD-447276C34D14;Brasil;Amazonas;Manaus;Hotel Taj Mahal;Avenida Getulio Vargas;Centro;69020010;;;;-3.12478;-60.02078;;;;N;;0;;S;;Brasil,Amazonas,Manaus,Hotel Taj Mahal,Avenida Getulio Vargas,Centro,69020010
;161CBA97-ED85-43D4-82C8-4811C12D0DAD;Brasil;Amazonas;Manaus;Hotel Milenium Manaus;Av. Djalma Batista;Chapada;69050010;;;;-3.10151;-60.02589;;;;N;;0;;S;;Brasil,Amazonas,Manaus,Hotel Milenium Manaus,Av. Djalma Batista,Chapada,69050010
;0E5A2A7F-0E84-47BE-BD00-48E735D455AB;Brasil;Amazonas;Manaus;Intercity Manaus;Avenida Professor Marciano Armon,  544;Adrianopolis;69057030;;;;-3.1147;-60.01548;;;;N;;0;;S;;Brasil,Amazonas,Manaus,Intercity Manaus,Avenida Professor Marciano Armon,  544,Adrianopolis,69057030
;EE13D051-353F-4A01-88B1-579BBE643BDE;Brasil;Amazonas;Manaus;Hotel Talissa I;Barao de Palmares,98;Flores;69058200;;;;-3.06181;-60.002;;;;N;;0;;S;;Brasil,Amazonas,Manaus,Hotel Talissa I,Barao de Palmares,98,Flores,69058200
;2D1B5233-EAD0-464E-8EEC-582074241D2F;Brasil;Amazonas;Manaus;Ramada By Wyndham Manaus Torres Center;Avenida Governador Jose Lindoso, 280;Aleixo;;;;;-3.08657;-59.98805;;;;N;;0;;S;;Brasil,Amazonas,Manaus,Ramada By Wyndham Manaus Torres Center,Avenida Governador Jose Lindoso, 280,Aleixo,        
;F96A0D64-AB59-45F2-ADAE-592C2D87D5BB;Brasil;Amazonas;Manaus;Krystal Hotel;Rua Barroso;Centro;69050010;;camilasilva@kontik.com.br;;-3.13419;-60.02318;;;;N;;0;;S;;Brasil,Amazonas,Manaus,Krystal Hotel,Rua Barroso,Centro,69050010
;28CCAD13-6D72-486D-BBEA-5B6A12820ED5;Brasil;Amazonas;Manaus;Novotel Manaus;Avenida Mandii;Distrito Industrial;69075140;;;;-3.12938;-59.98438;;;;N;;0;;S;;Brasil,Amazonas,Manaus,Novotel Manaus,Avenida Mandii,Distrito Industrial,69075140
;A905D452-BFC1-4C93-BBC6-5D11989EEEB3;Brasil;Amazonas;Manaus;Mercure Manaus Hotel;Rua Recife, 1000;Adrianopolis;69057000;;simonepires@kontik.com.br;;-3.10699;-60.01291;;;;N;;0;;S;;Brasil,Amazonas,Manaus,Mercure Manaus Hotel,Rua Recife, 1000,Adrianopolis,69057000
;CC0670F5-2BE9-4314-A360-64821C6B0FED;Brasil;Amazonas;Manaus;Go Inn Manaus;Rua Monsenhor Coutinho, 560;Centro;69010110;;;;-3.12898;-60.02449;;;;N;;0;;S;;Brasil,Amazonas,Manaus,Go Inn Manaus,Rua Monsenhor Coutinho, 560,Centro,69010110
;678862F3-406A-4E34-9DB6-75526FA98555;Brasil;Amazonas;Manaus;Hotel Express Vieiralves;Avenida Rio Branco, 95;Nossa Senhora das Gracas;69053110;;reservas@manaushoteis.tur.br;;-3.10176;-60.01854;;;;N;;0;;S;;Brasil,Amazonas,Manaus,Hotel Express Vieiralves,Avenida Rio Branco, 95,Nossa Senhora das Gracas,69053110
;FB1AFD63-03B8-4007-9C51-7AE675B88540;Brasil;Amazonas;Manaus;Hotel Manauense;Rua B 20, 1584;Japiim;69076360;;;;-3.11196;-59.97729;;;;N;;0;;S;;Brasil,Amazonas,Manaus,Hotel Manauense,Rua B 20, 1584,Japiim,69076360
;49708F17-CA26-4691-AB12-828B756BC729;Brasil;Amazonas;Manaus;Restaurant Le Point;Rua Acre (cj Manauense);Nossa Senhora das Gracas;69053550;;;;-3.10538;-60.01944;;;;N;;0;;S;;Brasil,Amazonas,Manaus,Restaurant Le Point,Rua Acre (cj Manauense),Nossa Senhora das Gracas,69053550
;51119675-F7D5-4918-A208-88498A176E90;Brasil;Amazonas;Manaus;Sleep Inn Manaus;Av. Rodrigo Otavio,;Distrito Industrial;69077900;;;;-3.12629;-59.98382;;;;N;;0;;S;;Brasil,Amazonas,Manaus,Sleep Inn Manaus,Av. Rodrigo Otavio,,Distrito Industrial,69077900
;3E77FE0D-A346-48A9-A8DC-887981D9ADCA;Brasil;Amazonas;Manaus;Quality Hotel Manaus;Av Mario Ypiriranga, 1009;Santo Antonio;69029520;;;;-3.1047;-60.01357;;;;N;;0;;S;;Brasil,Amazonas,Manaus,Quality Hotel Manaus,Av Mario Ypiriranga, 1009,Santo Antonio,69029520
;3473B571-734D-4E1F-849C-8A2C56166B45;Brasil;Amazonas;Manaus;Blue Tree Premium Manaus;Avenida Paraiba, 767;Adrianopolis;;;;;-3.1102;-60.01043;;;;N;;0;;S;;Brasil,Amazonas,Manaus,Blue Tree Premium Manaus,Avenida Paraiba, 767,Adrianopolis,        
;F5F95258-93DD-49BC-80A0-8CB48587210C;Brasil;Amazonas;Manaus;Pousada Canto Dos Passaros;Comunidade Indigena Tres Unidos, 35;Rio Negro;;;;;-3.08922;-60.02406;;;;N;;0;;S;;Brasil,Amazonas,Manaus,Pousada Canto Dos Passaros,Comunidade Indigena Tres Unidos, 35,Rio Negro,        
;D77D9D23-E904-4474-8A7C-9065CA641DF2;Brasil;Amazonas;Manaus;Juma Opera Hotel;Rua 10 De Julho, 481;Centro;;;lucianearaujo@kontik.com.br;;-3.12987;-60.02319;;;;N;;0;;S;;Brasil,Amazonas,Manaus,Juma Opera Hotel,Rua 10 De Julho, 481,Centro,        
;F31506E9-E8AF-48D4-91DF-9E4E0E46C940;Brasil;Amazonas;Manaus;Adrianopolis All Suites;Rua Salvador;Adrianopolis;69057040;;camilasilva@kontik.com.br;;-3.10741;-60.01449;;;;N;;0;;S;;Brasil,Amazonas,Manaus,Adrianopolis All Suites,Rua Salvador,Adrianopolis,69057040
;A9742122-6687-472A-9D11-9EE3AB790629;Brasil;Amazonas;Manaus;Accor Hotels Manaus;Mandii;Distrito Industrial;69075140;;;;-3.13237;-59.9835;;;;N;;0;;S;;Brasil,Amazonas,Manaus,Accor Hotels Manaus,Mandii,Distrito Industrial,69075140
;45297E68-9990-4776-89FC-A43134FEBBDC;Brasil;Amazonas;Manaus;Ibis Manaus;Avenida Mandii;Distrito Industrial;69075140;;;;-3.12912;-59.98283;;;;N;;0;;S;;Brasil,Amazonas,Manaus,Ibis Manaus,Avenida Mandii,Distrito Industrial,69075140
;E46E05D8-BF05-40FE-B2B2-A5A6A8171AF8;Brasil;Amazonas;Manaus;Hotel Ana Cassia;Rua dos Andradas;Centro;69005180;;;;-3.13912;-60.02028;;;;N;;0;;S;;Brasil,Amazonas,Manaus,Hotel Ana Cassia,Rua dos Andradas,Centro,69005180
;0E65342C-AFE1-49F5-8E40-2BC1063146E6;Brasil;São Paulo;São José do Rio Preto;Ibis Styles Rio Preto Monte Libano;Washington Luiz, 445;Centro;15130000;;alexmelo@kontik.com.br;;-20.81666;-49.44668;;;;N;;0;;S;;Brasil,São Paulo,São José do Rio Preto,Ibis Styles Rio Preto Monte Libano,Washington Luiz, 445,Centro,15130000
;0ADB6C8A-3D46-45E3-8905-3B201ED3271F;Brasil;São Paulo;São José do Rio Preto;Saint Peter Hotel;Rua Ondina, 360;Redentora;15015205;;;;-20.82056;-49.38954;;;;N;;0;;S;;Brasil,São Paulo,São José do Rio Preto,Saint Peter Hotel,Rua Ondina, 360,Redentora,15015205
;7848B18D-B854-4E1C-86C6-3CEB216F139B;Brasil;São Paulo;São José do Rio Preto;Ibis Styles Sj Rio Preto;Avenida Arthur Nonato, 5901;;;;;;-20.82555;-49.40394;;;;N;;0;;S;;Brasil,São Paulo,São José do Rio Preto,Ibis Styles Sj Rio Preto,Avenida Arthur Nonato, 5901,,        
;5D5DA65F-6939-4B28-AB2D-648F3797FC20;Brasil;São Paulo;São José do Rio Preto;Hyatt Place Sao Jose do Rio Preto;Juscelino Kubitschek de Oliveira, 5000;Iguatemi;15093340;;alexmelo@kontik.com.br;;-20.86592;-49.41304;;;;N;;0;;S;;Brasil,São Paulo,São José do Rio Preto,Hyatt Place Sao Jose do Rio Preto,Juscelino Kubitschek de Oliveira, 5000,Iguatemi,15093340
;F108F3D6-8707-425B-8107-752F04D41962;Brasil;São Paulo;São José do Rio Preto;Ipe Park Hotel;Washington Luis Km 428;Cedral;15895000;;;;-20.8513;-49.3435;;;;N;;0;;S;;Brasil,São Paulo,São José do Rio Preto,Ipe Park Hotel,Washington Luis Km 428,Cedral,15895000
;B2A9B8EF-477B-4CB0-B430-984B9F1F070D;Brasil;São Paulo;São José do Rio Preto;Comfort Suites Sao Jose Do Rio Preto;Avenida Brigadeiro Faria Lima, 5005;Vila Sao Jose;;;;;-20.83403;-49.39975;;;;N;;0;;S;;Brasil,São Paulo,São José do Rio Preto,Comfort Suites Sao Jose Do Rio Preto,Avenida Brigadeiro Faria Lima, 5005,Vila Sao Jose,        
;8E32F06A-B583-48A5-9379-9CD5E4361533;Brasil;São Paulo;São José do Rio Preto;Hilton Garden Inn Sao Jose do Rio Preto;Avenida Anisio Haddad, 8002;Jardim Palmeiras;;;;;-20.84606;-49.40238;;;;N;;0;;S;;Brasil,São Paulo,São José do Rio Preto,Hilton Garden Inn Sao Jose do Rio Preto,Avenida Anisio Haddad, 8002,Jardim Palmeiras,        
;17D83174-FE9B-4EE8-A295-A00EFB019DEE;Brasil;São Paulo;São José do Rio Preto;Hotel Metropolis;Bernadino de Campos, N 3428;Centro;15015300;;;;-20.81428;-49.38403;;;;N;;0;;S;;Brasil,São Paulo,São José do Rio Preto,Hotel Metropolis,Bernadino de Campos, N 3428,Centro,15015300
;56D0B87D-0B97-46FB-897E-A467231E0B26;Brasil;São Paulo;São José do Rio Preto;Augustus Plaza Hotel-sao Jose do Rio Preto;Vountarios de Sao Paulo,;Centro;15015200;;;;-20.81037;-49.37852;;;;N;;0;;S;;Brasil,São Paulo,São José do Rio Preto,Augustus Plaza Hotel-sao Jose do Rio Preto,Vountarios de Sao Paulo,,Centro,15015200
;AA90EA6F-2F76-4980-9032-A9706524AC4F;Brasil;São Paulo;São José do Rio Preto;Hotel Chamonix Rio Preto;Bernardino de Campos;Centro;15015300;;;;-20.81162;-49.3811;;;;N;;0;;S;;Brasil,São Paulo,São José do Rio Preto,Hotel Chamonix Rio Preto,Bernardino de Campos,Centro,15015300
;F5E0B2DA-6CCB-4C77-B193-AFCFA8415D26;Brasil;São Paulo;São José do Rio Preto;Quality Saint Paul Plaza Hotel;Avenida Jose Munia, 5200;Vila Nova Redentora;15090500;;emergencial@kontik.com.br;;-20.82881;-49.39029;;;;N;;0;;S;;Brasil,São Paulo,São José do Rio Preto,Quality Saint Paul Plaza Hotel,Avenida Jose Munia, 5200,Vila Nova Redentora,15090500
;86F8F5C5-9B82-4DA1-AF36-C0B32E327DA3;Brasil;São Paulo;São José do Rio Preto;Hotel Michelangelo;Rua Vilibaldo Elias Gomes,;Estancia Jockey Club;15081050;;;;-20.86126;-49.33813;;;;N;;0;;S;;Brasil,São Paulo,São José do Rio Preto,Hotel Michelangelo,Rua Vilibaldo Elias Gomes,,Estancia Jockey Club,15081050
;D1047E1A-7E73-4766-B63A-D982CFE64C87;Brasil;São Paulo;São José do Rio Preto;Arco Hotel Rio Preto;Avenida Arthur Nonato, 6174;Jardim Maracana;15092000;;;;-20.82562;-49.40637;;;;N;;0;;S;;Brasil,São Paulo,São José do Rio Preto,Arco Hotel Rio Preto,Avenida Arthur Nonato, 6174,Jardim Maracana,15092000
;09C52DE8-25BB-4800-B9DA-DA1EE9374F89;Brasil;São Paulo;São José do Rio Preto;Cassino Tower Sao Jose do Rio Preto;Rua 15 de Novembro, 3150;Centro;;;;;-20.81344;-49.38053;;;;N;;0;;S;;Brasil,São Paulo,São José do Rio Preto,Cassino Tower Sao Jose do Rio Preto,Rua 15 de Novembro, 3150,Centro,        
;C3FC1E60-81DD-4E7E-A776-E1C93CE00309;Brasil;São Paulo;São José do Rio Preto;Ibis Sao Jose do Rio Preto;Avenida Arthur Nonato;Nova Redentora;15090040;;;;-20.824;-49.38735;;;;N;;0;;S;;Brasil,São Paulo,São José do Rio Preto,Ibis Sao Jose do Rio Preto,Avenida Arthur Nonato,Nova Redentora,15090040
;0942D219-CC14-4686-BB8C-E212D4085BE4;Brasil;São Paulo;São José do Rio Preto;King Hotel;R Siqueira Campos, 3328;Centro;15010040;;;;-20.81298;-49.37783;;;;N;;0;;S;;Brasil,São Paulo,São José do Rio Preto,King Hotel,R Siqueira Campos, 3328,Centro,15010040
;00981FA0-F0E1-4C4B-B670-E60EE85E933B;Brasil;São Paulo;São José do Rio Preto;Hotel Anaja Lta;Rua General Glicerio;Centro;1501540;;;;-20.80856;-49.37903;;;;N;;0;;S;;Brasil,São Paulo,São José do Rio Preto,Hotel Anaja Lta,Rua General Glicerio,Centro,1501540
;2AFD5574-184A-4632-B5A3-E8230EFA6C9D;Brasil;São Paulo;São José do Rio Preto;Pousada Ousen Rio Preto;Rodovia Br-153 Transbrasiliana;Sao Benedito da Capelinha;15053750;;;;-20.772;-49.35081;;;;N;;0;;S;;Brasil,São Paulo,São José do Rio Preto,Pousada Ousen Rio Preto,Rodovia Br-153 Transbrasiliana,Sao Benedito da Capelinha,15053750
;B1E0EE89-6593-4C58-AD62-EF7AE894D4FA;Brasil;São Paulo;São José do Rio Preto;Hotel Ibis Budget Sao Jose do Rio Preto;Avenida Marginal Comendador Vicente Filizola;Jardim Alto Rio Preto;15020360;;;;-20.8243;-49.40874;;;;N;;0;;S;;Brasil,São Paulo,São José do Rio Preto,Hotel Ibis Budget Sao Jose do Rio Preto,Avenida Marginal Comendador Vicente Filizola,Jardim Alto Rio Preto,15020360
;8E355E65-C510-467E-9F69-F5E95C6AA9FA;Brasil;São Paulo;São José do Rio Preto;Faria Lima Flat Services;Avenida Brigadeiro Faria Lima, 5045;;;;;;-20.83404;-49.39976;;;;N;;0;;S;;Brasil,São Paulo,São José do Rio Preto,Faria Lima Flat Services,Avenida Brigadeiro Faria Lima, 5045,,        
;F3701D44-52DB-4DF3-9D72-FE15918AF0B3;Brasil;São Paulo;São José do Rio Preto;Itamarati Hotel;Rua Jorge Tibirica, 3042;;;;;;-20.81173;-49.38051;;;;N;;0;;S;;Brasil,São Paulo,São José do Rio Preto,Itamarati Hotel,Rua Jorge Tibirica, 3042,,        
;9D60F74D-8FF9-4D88-BC83-0066126327A0;Brasil;São Paulo;São José dos Campos;Marua Hotel;Rua Holanda;Jardim Oswaldo Cruz;12216570;;;;-23.20211;-45.88419;;;;N;;0;;S;;Brasil,São Paulo,São José dos Campos,Marua Hotel,Rua Holanda,Jardim Oswaldo Cruz,12216570
;11E6BD36-A255-435F-8A65-03D87944A3CA;Brasil;São Paulo;São José dos Campos;Travel Inn Space Valley;Av. Dr. Nelson D avilla, 1875;Jd. Aparecida;12245030;;;;-23.2028;-45.88478;;;;N;;0;;S;;Brasil,São Paulo,São José dos Campos,Travel Inn Space Valley,Av. Dr. Nelson D avilla, 1875,Jd. Aparecida,12245030
;6E886FF5-B5A4-42A6-86DB-0699F3399522;Brasil;São Paulo;São José dos Campos;Astro Hotel;Dr Nelson D'avila,;Centro;12245030;;;;-23.19435;-45.88549;;;;N;;0;;S;;Brasil,São Paulo,São José dos Campos,Astro Hotel,Dr Nelson D'avila,,Centro,12245030
;C44E47E8-5ED5-415D-8675-06B03BE155A6;Brasil;São Paulo;São José dos Campos;City Hall Flat;Av Cassiano Ricardo, 1306;Jardim Alvorada;12240540;;reservas@cityhallloft.com.br;;-23.22414;-45.91191;;;;N;;0;;S;;Brasil,São Paulo,São José dos Campos,City Hall Flat,Av Cassiano Ricardo, 1306,Jardim Alvorada,12240540
;D0E80237-60F9-45B0-9894-0897943CBF7D;Brasil;São Paulo;São José dos Campos;Faro Sao Jose dos Campos;Siria, 25;Jardim Osvaldo Cruz;12216530;;;;-23.19919;-45.88369;;;;N;;0;;S;;Brasil,São Paulo,São José dos Campos,Faro Sao Jose dos Campos,Siria, 25,Jardim Osvaldo Cruz,12216530
;242ED2CB-E353-4BF5-9F23-092170390E2B;Brasil;São Paulo;São José dos Campos;Hotel Dan Inn Sao Jose Dos Campos;Avenida Doutor Joao Guilhermino, 287;Centro;12210131;;;;-23.18717;-45.88404;;;;N;;0;;S;;Brasil,São Paulo,São José dos Campos,Hotel Dan Inn Sao Jose Dos Campos,Avenida Doutor Joao Guilhermino, 287,Centro,12210131
;77AD26DC-E1E2-43C7-B304-18750114ACCE;Brasil;São Paulo;São José dos Campos;Pousada Muriqui;Rua Ezequiel A Graciano, 118;Sao Frco Xavier;;;;;-22.91353;-45.96077;;;;N;;0;;S;;Brasil,São Paulo,São José dos Campos,Pousada Muriqui,Rua Ezequiel A Graciano, 118,Sao Frco Xavier,        
;48C302E1-9E13-44CE-9973-22B22AEB88E5;Brasil;São Paulo;São José dos Campos;Promenade Interprise;Av. Dep. Benedito Matazzo;Jardim Oswaldo Cruz;12216550;;;;-23.2027;-45.88243;;;;N;;0;;S;;Brasil,São Paulo,São José dos Campos,Promenade Interprise,Av. Dep. Benedito Matazzo,Jardim Oswaldo Cruz,12216550
;15EF1C4B-97F3-46B4-B3F1-274F70B37739;Brasil;São Paulo;São José dos Campos;Mercure Sao Jose dos Campos;Av Jorge Zaru;Vila Ema;12243081;;;;-23.20574;-45.90536;;;;N;;0;;S;;Brasil,São Paulo,São José dos Campos,Mercure Sao Jose dos Campos,Av Jorge Zaru,Vila Ema,12243081
;AAE99C5E-4BD2-40CF-AA62-2ED9E19C03A9;Brasil;São Paulo;São José dos Campos;Aquarius do Vale;Rua Juiz David Barrilli, N 376;Pq.residencial Aquarius;12246200;;;;-23.22208;-45.90448;;;;N;;0;;S;;Brasil,São Paulo,São José dos Campos,Aquarius do Vale,Rua Juiz David Barrilli, N 376,Pq.residencial Aquarius,12246200
;8196939D-BD48-4AAA-9D90-42F0287F8701;Brasil;São Paulo;São José dos Campos;Salbores Bar e Restaurante;Rua Siria;Jardim Oswaldo Cruz;12216530;;;;-23.19919;-45.88369;;;;N;;0;;S;;Brasil,São Paulo,São José dos Campos,Salbores Bar e Restaurante,Rua Siria,Jardim Oswaldo Cruz,12216530
;6337E75A-9E26-40BE-A4C6-4DE3A2347C96;Brasil;São Paulo;São José dos Campos;Ibis Sao Jose dos Campos - Dutra;Cidade Jardim, N 101;Jardim Satelite;12231000;;;;-23.21422;-45.89149;;;;N;;0;;S;;Brasil,São Paulo,São José dos Campos,Ibis Sao Jose dos Campos - Dutra,Cidade Jardim, N 101,Jardim Satelite,12231000
;6CF2B48E-D413-4863-8A42-524F48132EA6;Brasil;São Paulo;São José dos Campos;Intevale Othon Travel - Sjk/sp;R Lupercio Antonio dos Santos;Vila Sanches;12245037;;;;-23.20218;-45.88641;;;;N;;0;;S;;Brasil,São Paulo,São José dos Campos,Intevale Othon Travel - Sjk/sp,R Lupercio Antonio dos Santos,Vila Sanches,12245037
;3C944DA1-3184-421E-BEAE-5547C42E0C0C;Brasil;São Paulo;São José dos Campos;Mondrian Suite Hotel;Rua do Aruana;Parque Residencial Aquari;12246250;;;;-23.21495;-45.90718;;;;N;;0;;S;;Brasil,São Paulo,São José dos Campos,Mondrian Suite Hotel,Rua do Aruana,Parque Residencial Aquari,12246250
;86742B21-EE58-4BC8-8F85-5D2F94ADA6E6;Brasil;São Paulo;São José dos Campos;Carlton Plaza Hotel Sao Jose Dos Campos;Rua Presidente Bernardes, 73;Jardim Paulista;12216130;;;;-23.18908;-45.87918;;;;N;;0;;S;;Brasil,São Paulo,São José dos Campos,Carlton Plaza Hotel Sao Jose Dos Campos,Rua Presidente Bernardes, 73,Jardim Paulista,12216130
;3856FB9A-EB8E-4E61-AFB4-6A60774B7C55;Brasil;São Paulo;São José dos Campos;Othon Travel Intervale;Rua Lupercio Antonio dos  Santos;Vila Bethania;12245521;;;;-23.20218;-45.88641;;;;N;;0;;S;;Brasil,São Paulo,São José dos Campos,Othon Travel Intervale,Rua Lupercio Antonio dos  Santos,Vila Bethania,12245521
;33C8BED1-238D-4626-82E6-711247CC08C6;Brasil;São Paulo;São José dos Campos;Golden Tulip Sao Jose dos Campos;Avenida Sao Joao, 2200;Jardim das Colinas;12242970;;;;-23.20393;-45.90977;;;;N;;0;;S;;Brasil,São Paulo,São José dos Campos,Golden Tulip Sao Jose dos Campos,Avenida Sao Joao, 2200,Jardim das Colinas,12242970
;54130EEE-DE55-49DF-9FEE-7F2CD5D32657;Brasil;São Paulo;São José dos Campos;Novotel Sao Jose dos Campos;Avenida Doutor Nelson D'avila;Jardim Sao Dimas;12245031;;;;-23.20059;-45.88564;;;;N;;0;;S;;Brasil,São Paulo,São José dos Campos,Novotel Sao Jose dos Campos,Avenida Doutor Nelson D'avila,Jardim Sao Dimas,12245031
;FE78912B-339E-453E-97C8-8140B50AA4D8;Brasil;São Paulo;São José dos Campos;B&b Hotels Sao Jose dos Campos;Rua Lupercio Antonio dos Santos, 31;Vila Sanches;12245521;;;;-23.20218;-45.88641;;;;N;;0;;S;;Brasil,São Paulo,São José dos Campos,B&b Hotels Sao Jose dos Campos,Rua Lupercio Antonio dos Santos, 31,Vila Sanches,12245521
;781C1275-807A-4E1A-BD6E-8C38B429E710;Brasil;São Paulo;São José dos Campos;Polo Hotel;Rua Republica De Israel, 60;;;;;;-23.20098;-45.88297;;;;N;;0;;S;;Brasil,São Paulo,São José dos Campos,Polo Hotel,Rua Republica De Israel, 60,,        
;90F5F870-9773-4E7E-BC1E-91D8B287314E;Brasil;São Paulo;São José dos Campos;Modena I;Avenida Doutor Nelson D'avila;Jardim Sao Dimas;12245030;;;;-23.19699;-45.88598;;;;N;;0;;S;;Brasil,São Paulo,São José dos Campos,Modena I,Avenida Doutor Nelson D'avila,Jardim Sao Dimas,12245030
;226DEF1E-BF40-4988-BDFA-94B61217F853;Brasil;São Paulo;São José dos Campos;Hotel Urupema;Av.nove de  Julho, N1037;Jardim Apolo;12240001;;;;-23.2021;-45.89623;;;;N;;0;;S;;Brasil,São Paulo,São José dos Campos,Hotel Urupema,Av.nove de  Julho, N1037,Jardim Apolo,12240001
;456AA30C-0DC6-41D5-8903-976C4C05E58A;Brasil;São Paulo;São José dos Campos;Monreale Plus Sao Jose dos Campos;Av. Engenheiro Francisco Jose Longo, 511;Jardim Sao Dimas;12245001;;;;-23.19748;-45.8893;;;;N;;0;;S;;Brasil,São Paulo,São José dos Campos,Monreale Plus Sao Jose dos Campos,Av. Engenheiro Francisco Jose Longo, 511,Jardim Sao Dimas,12245001
;630943D0-9245-428C-B68D-9AA9837597D4;Brasil;São Paulo;São José dos Campos;Ibis Sao Jose dos Campos Dutra;Avenida Cidade Jardim;Jardim Satelite;12231675;;;;-23.21422;-45.89149;;;;N;;0;;S;;Brasil,São Paulo,São José dos Campos,Ibis Sao Jose dos Campos Dutra,Avenida Cidade Jardim,Jardim Satelite,12231675
;39FE099E-7475-4E7A-AD95-A1B64F3D79D2;Brasil;São Paulo;São José dos Campos;San Diego Suites Sao Jose dos Campos;Avenida Doutor Nelson D'avila - Lado Impar;Jardim Sao Dimas;12245030;;;;-23.2028;-45.88478;;;;N;;0;;S;;Brasil,São Paulo,São José dos Campos,San Diego Suites Sao Jose dos Campos,Avenida Doutor Nelson D'avila - Lado Impar,Jardim Sao Dimas,12245030
;B3843DDB-4098-4527-93F3-A1D634FFAD4D;Brasil;São Paulo;São José dos Campos;Hotel Di Giulio (astron);Deputado Benedito Matarazzo;Tatetuba;12220610;;;;-23.18465;-45.85172;;;;N;;0;;S;;Brasil,São Paulo,São José dos Campos,Hotel Di Giulio (astron),Deputado Benedito Matarazzo,Tatetuba,12220610
;72B52D9B-44CA-4634-A020-A86E2EBCD2CB;Brasil;São Paulo;São José dos Campos;San Marino Hotel;Av Cassiano Ricardo, 2050;Jardim das Industrias;;;;;-23.22991;-45.91289;;;;N;;0;;S;;Brasil,São Paulo,São José dos Campos,San Marino Hotel,Av Cassiano Ricardo, 2050,Jardim das Industrias,        
;4CD1B66B-B9DA-4FDF-B2C8-AD9445AB80B7;Brasil;São Paulo;São José dos Campos;Blanco Palace Hotel;Av. Pedro Friggi, N 401;Vista Verde;12223430;;;;-23.17839;-45.83479;;;;N;;0;;S;;Brasil,São Paulo,São José dos Campos,Blanco Palace Hotel,Av. Pedro Friggi, N 401,Vista Verde,12223430
;C55DA392-8B17-476D-A6A5-B23D0EA704E3;Brasil;São Paulo;São José dos Campos;Ibis Sao Jose Dos Campos Colinas;Avenida Jorge Zarur, 81 Torre I;Vila Ema;;;anasilva@kontik.com.br;;-23.20574;-45.90536;;;;N;;0;;S;;Brasil,São Paulo,São José dos Campos,Ibis Sao Jose Dos Campos Colinas,Avenida Jorge Zarur, 81 Torre I,Vila Ema,        
;77F907F9-FA73-42FD-8FC3-C7CC7EE0BC81;Brasil;São Paulo;São José dos Campos;Polo Hotel;Rua Republica de Israel, 60;Jardim Oswaldo Cruz;12216620;;;;-23.20098;-45.88297;;;;N;;0;;S;;Brasil,São Paulo,São José dos Campos,Polo Hotel,Rua Republica de Israel, 60,Jardim Oswaldo Cruz,12216620
;B1EBC933-DA04-48C0-821F-CA6DA62EF83F;Brasil;São Paulo;São José dos Campos;Hotel Ema Palace;Rua Jorge Barbosa Moreira,70;Vila Ema;12243070;;;;-23.20342;-45.90015;;;;N;;0;;S;;Brasil,São Paulo,São José dos Campos,Hotel Ema Palace,Rua Jorge Barbosa Moreira,70,Vila Ema,12243070
;9CEC3502-404D-451D-9999-CAEEF14D3F39;Brasil;São Paulo;São José dos Campos;Mondrian Suite Hotel;Rua do Aruana, 76;Parque Residencial Aquari;12246250;;;;-23.21495;-45.90718;;;;N;;0;;S;;Brasil,São Paulo,São José dos Campos,Mondrian Suite Hotel,Rua do Aruana, 76,Parque Residencial Aquari,12246250
;019303B5-7E6B-45E3-B89E-CD87D88DC5F8;Brasil;São Paulo;São José dos Campos;Carlton Plaza Hoteis SJCampos;Rua Presidente Bernardes, 33;Jardim Paulista;;;;;-23.18889;-45.87897;;;;N;;0;;S;;Brasil,São Paulo,São José dos Campos,Carlton Plaza Hoteis SJCampos,Rua Presidente Bernardes, 33,Jardim Paulista,        
;41209A89-DE7D-4544-908B-CDB80CFDE7F2;Brasil;São Paulo;São José dos Campos;Hotel Nacional Inn Sao Jose Dos Campos;Avenida Deputado Benedito Matarazzo, 9009;Jardim Oswaldo Cruz;12216550;;;;-23.20282;-45.88266;;;;N;;0;;S;;Brasil,São Paulo,São José dos Campos,Hotel Nacional Inn Sao Jose Dos Campos,Avenida Deputado Benedito Matarazzo, 9009,Jardim Oswaldo Cruz,12216550
;8CF3D23C-F8D3-42B3-B1C2-CE312C72CEA3;Brasil;São Paulo;São José dos Campos;Mercure Sao Jose Dos Campos Colinas;Avenida Jorge Zarur, 81 Torre II;Vila Ema;;;;;-23.20574;-45.90536;;;;N;;0;;S;;Brasil,São Paulo,São José dos Campos,Mercure Sao Jose Dos Campos Colinas,Avenida Jorge Zarur, 81 Torre II,Vila Ema,        
;7BBE3A1B-5B8E-4D5C-A20C-E3829FAC2E48;Brasil;São Paulo;São José dos Campos;Hotel Oyo Urupema;Avenida Nove De Julho, 1037;;;;;;-23.2021;-45.89623;;;;N;;0;;S;;Brasil,São Paulo,São José dos Campos,Hotel Oyo Urupema,Avenida Nove De Julho, 1037,,        
;F370CF80-D85F-40F6-9DAD-BF7FF30EF9CA;Brasil;São Paulo;Sao Luis do Paraitinga;Trilha Das 7 Cachoeiras;Estrada Bairro Do Pinga, 0, Km 2,5;Catucaba;;;;;-23.24563;-45.19824;;;;N;;0;;S;;Brasil,São Paulo,Sao Luis do Paraitinga,Trilha Das 7 Cachoeiras,Estrada Bairro Do Pinga, 0, Km 2,5,Catucaba,        
;B84B9976-09F1-4232-B71D-E17D210A924F;Brasil;São Paulo;Sao Luis do Paraitinga;Pousada Asa Do Vento;Via De Acesso Doutor Renato Aguiar, 300;Centro;;;;;-23.22204;-45.30899;;;;N;;0;;S;;Brasil,São Paulo,Sao Luis do Paraitinga,Pousada Asa Do Vento,Via De Acesso Doutor Renato Aguiar, 300,Centro,        
;625ABB11-D6E9-416A-82E4-704F6C7548C4;Brasil;São Paulo;Sao Manuel;Hotel Paulista Express;Rua Sete de Setembro;Centro;18650000;;;;-22.72941;-48.56887;;;;N;;0;;S;;Brasil,São Paulo,Sao Manuel,Hotel Paulista Express,Rua Sete de Setembro,Centro,18650000
;032DEE38-1D55-4F66-9C3C-00F30B974217;Brasil;São Paulo;São Paulo;LHotel Portobay Sao Paulo;Alameda Campinas, 266;Jardim Paulista;;;;;-23.56431;-46.65182;;;;N;;0;;S;;Brasil,São Paulo,São Paulo,LHotel Portobay Sao Paulo,Alameda Campinas, 266,Jardim Paulista,        
;FED709E2-14C9-4005-AE7A-00F8CD9A29CB;Brasil;São Paulo;São Paulo;Bougainville Hotel Fazenda;do Educandario, S/n;Modelo;13900970;;;;-23.58755;-46.7633;;;;N;;0;;S;;Brasil,São Paulo,São Paulo,Bougainville Hotel Fazenda,do Educandario, S/n,Modelo,13900970
;C2EA2104-3629-424C-90B3-0117520567EA;Brasil;São Paulo;São Paulo;Nomah;Rua Tabapua, 743 Sala 301 Lado F;Itaim Bibi;;;;;-23.58369;-46.67755;;;;N;;0;;S;;Brasil,São Paulo,São Paulo,Nomah,Rua Tabapua, 743 Sala 301 Lado F,Itaim Bibi,        
;CF94C968-9A9A-4CB6-98A7-013C774AFEB4;Brasil;São Paulo;São Paulo;Pousada Agua Azul Marau;Rua do Rocio, S/n;Vila Olimpia;4552000;;;;-23.59403;-46.68598;;;;N;;0;;S;;Brasil,São Paulo,São Paulo,Pousada Agua Azul Marau,Rua do Rocio, S/n,Vila Olimpia,4552000
;8C7EC3AD-8780-401B-92C0-022088A52CC5;Brasil;São Paulo;São Paulo;Gil Rocha Photography;Avenida Sao Joao, 822;Republica;1036100;;;;-23.54144;-46.64147;;;;N;;0;;S;;Brasil,São Paulo,São Paulo,Gil Rocha Photography,Avenida Sao Joao, 822,Republica,1036100
;16651524-01C0-4B91-9DD0-023787CCFBD3;Brasil;São Paulo;São Paulo;San Raphael Country Hotel;Avenida Tiradentes;Centro;13309640;;;;-23.29331;-47.30065;;;;N;;0;;S;;Brasil,São Paulo,São Paulo,San Raphael Country Hotel,Avenida Tiradentes,Centro,13309640
;AACE8A81-504F-45ED-B378-02B47B13891E;Brasil;São Paulo;São Paulo;Wyndham Sao Paulo Paulista;Alameda Campinas, 540;Jardim Paulista;;;raissacestari@kontik.com.br;;-23.5662;-46.65364;;;;N;;0;;S;;Brasil,São Paulo,São Paulo,Wyndham Sao Paulo Paulista,Alameda Campinas, 540,Jardim Paulista,        
;A8E9D2B8-BC58-4BF2-BE0F-02E84282BCE3;Brasil;São Paulo;São Paulo;Aero Plaza Hotel;Avenida Washington Luis, 7041;;;;;;-23.62215;-46.66213;;;;N;;0;;S;;Brasil,São Paulo,São Paulo,Aero Plaza Hotel,Avenida Washington Luis, 7041,,        
;6F6FD19D-BC18-4440-8ED2-03354ADBB5ED;Brasil;São Paulo;São Paulo;Hotel Mimo;Avenida Doutor Joao Guimaraes, 735;;;;;;-23.60849;-46.75118;;;;N;;0;;S;;Brasil,São Paulo,São Paulo,Hotel Mimo,Avenida Doutor Joao Guimaraes, 735,,        
;2F36E284-820B-4611-80F2-0425E8499805;Brasil;São Paulo;São Paulo;Hotel Luz Plaza Sao Paulo;Rua Prates,;Bom Retiro;1121000;;camilasilva@kontik.com.br;;-23.53273;-46.63719;;;;N;;0;;S;;Brasil,São Paulo,São Paulo,Hotel Luz Plaza Sao Paulo,Rua Prates,,Bom Retiro,1121000
;A0EE0963-0A9B-4DE2-88A8-0454C9C8F0A9;Brasil;São Paulo;São Paulo;Massis Five Stars;Rua Luis Coelho, 80;Cerqueira Cesar;1309000;;;;-23.55732;-46.65842;;;;N;;0;;S;;Brasil,São Paulo,São Paulo,Massis Five Stars,Rua Luis Coelho, 80,Cerqueira Cesar,1309000
;BF3D0D9F-959F-4038-8123-0473371FCACD;Brasil;São Paulo;São Paulo;Hotel Villagio;Vasco da Gama, 110;Chacara do Trevo;13280000;;;;-23.05789;-46.99403;;;;N;;0;;S;;Brasil,São Paulo,São Paulo,Hotel Villagio,Vasco da Gama, 110,Chacara do Trevo,13280000
;152FCFC5-2465-4BD4-BEBB-05201B845B87;Brasil;São Paulo;São Paulo;Boulevard Riviera Flat;Alameda das Conchas, 241;Riviera de Sao Lourenco;11250000;;;;-23.79745;-46.01415;;;;N;;0;;S;;Brasil,São Paulo,São Paulo,Boulevard Riviera Flat,Alameda das Conchas, 241,Riviera de Sao Lourenco,11250000
;ED0CBBE4-22CB-4308-A2A3-06899C7A8054;Brasil;São Paulo;São Paulo;Ramada Encore Sao Paulo Tiradentes;Avenida Tiradentes;Luz;1102000;;;;-23.52854;-46.63107;;;;N;;0;;S;;Brasil,São Paulo,São Paulo,Ramada Encore Sao Paulo Tiradentes,Avenida Tiradentes,Luz,1102000
;5BA64B1D-3053-4FC1-8B40-068FC8440F8F;Brasil;São Paulo;São Paulo;Gran Villagio Hotel;Rua Martins Fontes, 330;Consolacao;;;;;-23.54962;-46.64549;;;;N;;0;;S;;Brasil,São Paulo,São Paulo,Gran Villagio Hotel,Rua Martins Fontes, 330,Consolacao,        
;BD1FCE90-244A-46B1-B19D-06BB4F64773E;Brasil;São Paulo;São Paulo;Ancona Center Hotel;Jose Fontana, 120;Centro;13900480;;;;-22.70201;-46.7696;;;;N;;0;;S;;Brasil,São Paulo,São Paulo,Ancona Center Hotel,Jose Fontana, 120,Centro,13900480
;63BBB20A-2FB5-41D0-9229-07B4BDC3070B;Brasil;São Paulo;São Paulo;Roomo Be Urban Brooklin;Rua Joaquim Guarani, 85;Jardim das Acacias;;;;;-23.62822;-46.6896;;;;N;;0;;S;;Brasil,São Paulo,São Paulo,Roomo Be Urban Brooklin,Rua Joaquim Guarani, 85,Jardim das Acacias,        
;B57883A3-99E2-4836-83EE-0827184C107B;Brasil;São Paulo;São Paulo;Esuites Congonhas By Atlantica;Rua Henrique Fausto Lancellotti, 6333;Nova Piraju;;;;;-23.62819;-46.66382;;;;N;;0;;S;;Brasil,São Paulo,São Paulo,Esuites Congonhas By Atlantica,Rua Henrique Fausto Lancellotti, 6333,Nova Piraju,        
;CDDB7C91-DB97-44A5-82AF-088E04CBE8CF;Brasil;São Paulo;São Paulo;Nobile Paulista Prime;Alameda Campinas;Jardins;1404000;;;;-23.5662;-46.65364;;;;N;;0;;S;;Brasil,São Paulo,São Paulo,Nobile Paulista Prime,Alameda Campinas,Jardins,1404000
;A3B4A158-4787-4F00-9287-08CFAF0C7DC1;Brasil;São Paulo;São Paulo;Hotel Upper;Rua Rio Grande;Vila Mariana;4018000;;;;-23.58565;-46.644;;;;N;;0;;S;;Brasil,São Paulo,São Paulo,Hotel Upper,Rua Rio Grande,Vila Mariana,4018000
;AA3D1907-F6E2-493F-AD78-093463727067;Brasil;São Paulo;São Paulo;Estanplaza Funchal Faria Lima;Rua Funchal;Vila Funchal;4551060;;;;-23.59359;-46.68889;;;;N;;0;;S;;Brasil,São Paulo,São Paulo,Estanplaza Funchal Faria Lima,Rua Funchal,Vila Funchal,4551060
;CAF44760-C7F7-4808-8E08-093982A85A12;Brasil;São Paulo;São Paulo;Pullman Ibirapuera;Rua Joinville, 515;Ibirapuera;4008110;;;;-23.61015;-46.66671;;;;N;;0;;S;;Brasil,São Paulo,São Paulo,Pullman Ibirapuera,Rua Joinville, 515,Ibirapuera,4008110
;09A19753-96A1-4A5E-8F1A-099B84D50AE2;Brasil;São Paulo;São Paulo;Pigalle Hotel;Rua dos Democratas, 255;Vila Monte Alegre;;;;;-23.62827;-46.64001;;;;N;;0;;S;;Brasil,São Paulo,São Paulo,Pigalle Hotel,Rua dos Democratas, 255,Vila Monte Alegre,        
;81901CEA-2473-452C-AFC8-0A38A1D717C7;Brasil;São Paulo;São Paulo;Melia Paulista;Avenida Paulista, 2181;Consolacao;1311300;;;;-23.55781;-46.66081;;;;N;;0;;S;;Brasil,São Paulo,São Paulo,Melia Paulista,Avenida Paulista, 2181,Consolacao,1311300
;D254F216-A312-487A-878E-0A9C954C4C9D;Brasil;São Paulo;São Paulo;Vila Gale Paulista;Rua Bela Cintra, 952 e 956;Consolacao;;;;;-23.55529;-46.66084;;;;N;;0;;S;;Brasil,São Paulo,São Paulo,Vila Gale Paulista,Rua Bela Cintra, 952 e 956,Consolacao,        
;FF14FA72-87C0-4D1B-B5E3-0AFC35A35AA8;Brasil;São Paulo;São Paulo;Bienal Suites;Rua Sena Madureira, 1225;Vila Clementino;4021051;;;;-23.59296;-46.64769;;;;N;;0;;S;;Brasil,São Paulo,São Paulo,Bienal Suites,Rua Sena Madureira, 1225,Vila Clementino,4021051
;E803DB07-3793-4094-8CC0-0CABCA2BB44F;Brasil;São Paulo;São Paulo;Pousada Vesuvio;Dr. Edson Batista, 444;Cibratel I;11740000;;;;-24.19969;-46.81414;;;;N;;0;;S;;Brasil,São Paulo,São Paulo,Pousada Vesuvio,Dr. Edson Batista, 444,Cibratel I,11740000
;6E342896-CA61-481D-85B4-0D8A98D5DAD2;Brasil;São Paulo;São Paulo;Transamerica Executive Paulista;Rua Sao Carlos do Pinhal, 200;Bela Vista;1333000;;LUCIANEARAUJO@kontik.com.br;;-23.56519;-46.64965;;;;N;;0;;S;;Brasil,São Paulo,São Paulo,Transamerica Executive Paulista,Rua Sao Carlos do Pinhal, 200,Bela Vista,1333000
;039A730F-207D-4987-94F0-0DC6CBFA39F6;Brasil;São Paulo;São Paulo;Estanplaza Nacoes Unidas;Rua Guararapes, 1889;Brooklin Novo;4561004;;;;-23.60303;-46.69343;;;;N;;0;;S;;Brasil,São Paulo,São Paulo,Estanplaza Nacoes Unidas,Rua Guararapes, 1889,Brooklin Novo,4561004
;F7C54574-ECD2-4049-A87E-0E2AA9DA04BE;Brasil;São Paulo;São Paulo;Estanconfor Villa Paulista;Rua Cincinato Braga,;Jardins;1333010;;;;-23.56824;-46.646;;;;N;;0;;S;;Brasil,São Paulo,São Paulo,Estanconfor Villa Paulista,Rua Cincinato Braga,,Jardins,1333010
;65728EFA-A3FE-4B59-9988-0F623E02F9C7;Brasil;São Paulo;São Paulo;Linson Augusta Hotel;Rua Augusta,;Consolacao;1304000;;;;-23.55131;-46.65019;;;;N;;0;;S;;Brasil,São Paulo,São Paulo,Linson Augusta Hotel,Rua Augusta,,Consolacao,1304000
;41CFE767-0EB4-4D62-AFAF-0F6B92AF3DAC;Brasil;São Paulo;São Paulo;Mercure Sao Paulo Paraiso;Rua Vergueiro;Paraiso;4101000;;;;-23.5769;-46.64037;;;;N;;0;;S;;Brasil,São Paulo,São Paulo,Mercure Sao Paulo Paraiso,Rua Vergueiro,Paraiso,4101000
;4013EE79-8A06-4806-B069-0FD8DA0FB0CD;Brasil;São Paulo;São Paulo;Ejoy Butanta;Rua Drausio, 108;Butanta;;;;;-23.57306;-46.709;;;;N;;0;;S;;Brasil,São Paulo,São Paulo,Ejoy Butanta,Rua Drausio, 108,Butanta,        
;FC3D23C2-54B2-4E94-8650-1041FD2AADBD;Brasil;São Paulo;São Paulo;Mercure Jardins;Alameda Itu;Cerqueira Cesar;4021051;;katialaporta@kontik.com.br;;-23.56077;-46.66327;;;;N;;0;;S;;Brasil,São Paulo,São Paulo,Mercure Jardins,Alameda Itu,Cerqueira Cesar,4021051
;C130BAA7-D1CB-461D-92B0-10B1E38202EF;Brasil;São Paulo;São Paulo;Hotel Jb - Campos do Jordao;Emilio Ribas, 946;Capivari;12460000;;;;-22.71939;-45.56988;;;;N;;0;;S;;Brasil,São Paulo,São Paulo,Hotel Jb - Campos do Jordao,Emilio Ribas, 946,Capivari,12460000
;E8001CBF-3254-45BD-AF8F-1151360A23F5;Brasil;São Paulo;São Paulo;Tulip Inn Interative Flat;Rua Jose Maria Lisboa,;Jardins;1423000;;;;-23.56861;-46.65754;;;;N;;0;;S;;Brasil,São Paulo,São Paulo,Tulip Inn Interative Flat,Rua Jose Maria Lisboa,,Jardins,1423000
;90AD15F7-CEBD-48A1-9D80-1164C8C7CD59;Brasil;São Paulo;São Paulo;Travel Inn Jardins - Park Avenue;Alameda Jau, 358;Jardins;1420000;;;;-23.56721;-46.65343;;;;N;;0;;S;;Brasil,São Paulo,São Paulo,Travel Inn Jardins - Park Avenue,Alameda Jau, 358,Jardins,1420000
;8AE108BE-3BA7-46C6-86DA-11D5DD79FC63;Brasil;São Paulo;São Paulo;Travel.com Viagens;Alameda dos Nhambiquaras, 1518;Indianopolis;4090003;;;;-23.61108;-46.66342;;;;N;;0;;S;;Brasil,São Paulo,São Paulo,Travel.com Viagens,Alameda dos Nhambiquaras, 1518,Indianopolis,4090003
;3E1771F9-B5B9-4BBA-87EB-1206FD4B14A5;Brasil;São Paulo;São Paulo;Colinas de Itupeva;Mario Tonoli, S/n;Morro Alto;13295000;;;;-23.19228;-47.08623;;;;N;;0;;S;;Brasil,São Paulo,São Paulo,Colinas de Itupeva,Mario Tonoli, S/n,Morro Alto,13295000
;F00A343C-B913-4C60-8F91-129347F7EBF0;Brasil;São Paulo;São Paulo;Pullman Sao Paulo Vila Olimpia (ant Caesar Park);Olimpiadas, 205;Vila Olimpia;4551000;;EQUIPEULTRA@KONTIK.COM.BR;;-23.59596;-46.68441;;;;N;;0;;S;;Brasil,São Paulo,São Paulo,Pullman Sao Paulo Vila Olimpia (ant Caesar Park),Olimpiadas, 205,Vila Olimpia,4551000
;8E0A8B25-0D24-4872-857B-13B510EBE7E8;Brasil;São Paulo;São Paulo;Hotel Dan Inn Higienopolis Sao Paulo;Rua Maria Antonia, 40;Vila Buarque;1222010;;reservas@daninnhigienopolis.com.br;;-23.54769;-46.64913;;;;N;;0;;S;;Brasil,São Paulo,São Paulo,Hotel Dan Inn Higienopolis Sao Paulo,Rua Maria Antonia, 40,Vila Buarque,1222010
;49E9421F-0A1C-433C-BC3C-13FE67FBE478;Brasil;São Paulo;São Paulo;Pousada Vila De Cunha;Praça Conego Siqueira, 15;Centro;;;;;-23.07489;-44.96005;;;;N;;0;;S;;Brasil,São Paulo,São Paulo,Pousada Vila De Cunha,Praça Conego Siqueira, 15,Centro,        
;8B227206-5303-4E28-8CE1-15D4EA6C18B7;Brasil;São Paulo;São Paulo;Green Place Flat;Rua Doutor Diogo de Faria;Vila Mariana;4037004;;;;-23.59539;-46.64858;;;;N;;0;;S;;Brasil,São Paulo,São Paulo,Green Place Flat,Rua Doutor Diogo de Faria,Vila Mariana,4037004
;68A4DEC4-E262-44CE-BBD5-161C46B5E862;Brasil;São Paulo;São Paulo;Hotel E Restaurante 955 Ltda;Avenida Reboucas  ate 411  lado impar;Cerqueira Cesar;5401100;;;;-23.56014;-46.67086;;;;N;;0;;S;;Brasil,São Paulo,São Paulo,Hotel E Restaurante 955 Ltda,Avenida Reboucas  ate 411  lado impar,Cerqueira Cesar,5401100
;F404372E-14E9-44BF-963F-161E38F4E5F9;Brasil;São Paulo;São Paulo;Estanplaza International;Rua Fernandes Moreira,;Chacara Sto. Antonio;4716003;;;;-23.62985;-46.70664;;;;N;;0;;S;;Brasil,São Paulo,São Paulo,Estanplaza International,Rua Fernandes Moreira,,Chacara Sto. Antonio,4716003
;14F77761-91C3-4627-BE2E-1659A5E776F4;Brasil;São Paulo;São Paulo;Q Apartments Global Network BR;Rua Tutoia, 224;Vila Mariana;;;;;-23.57359;-46.65198;;;;N;;0;;S;;Brasil,São Paulo,São Paulo,Q Apartments Global Network BR,Rua Tutoia, 224,Vila Mariana,        
;7CD55CA8-EBF9-4597-B1E9-166751D0B4AC;Brasil;São Paulo;São Paulo;Uniclass Hotel Lapa;Rua Engenheiro Aubertin, 57;Lapa de Baixo;;;;;-23.51641;-46.70493;;;;N;;0;;S;;Brasil,São Paulo,São Paulo,Uniclass Hotel Lapa,Rua Engenheiro Aubertin, 57,Lapa de Baixo,        
;5EC0C74D-8E71-484E-93A1-1708EDD74B1B;Brasil;São Paulo;São Paulo;Hampton Park Residence;Alameda Campinas;Jardim Paulista;1404001;;;;-23.57071;-46.65777;;;;N;;0;;S;;Brasil,São Paulo,São Paulo,Hampton Park Residence,Alameda Campinas,Jardim Paulista,1404001
;991DA427-2E27-494B-8C78-18064F1E8EB7;Brasil;São Paulo;São Paulo;Transamerica Executive Bela Cintra;Rua Bela Cintra, 1356;;;;ache@kontik.com.br;;-23.55797;-46.6637;;;;N;;0;;S;;Brasil,São Paulo,São Paulo,Transamerica Executive Bela Cintra,Rua Bela Cintra, 1356,,        
;02FC7FE3-BB7C-4FC9-B49D-1807C8014414;Brasil;São Paulo;São Paulo;Hotel Moncloa;Rua Augusta;Consolacao;1304000;;;;-23.55178;-46.65212;;;;N;;0;;S;;Brasil,São Paulo,São Paulo,Hotel Moncloa,Rua Augusta,Consolacao,1304000
;75317E61-C1DC-4380-BEAC-1865A58DF690;Brasil;São Paulo;São Paulo;LM Hotel;Rua Doutor Ornelas, 250;Pari;;;;;-23.53147;-46.61629;;;;N;;0;;S;;Brasil,São Paulo,São Paulo,LM Hotel,Rua Doutor Ornelas, 250,Pari,        
;91AD100D-83E7-4FDA-8B53-187950E56E3C;Brasil;São Paulo;São Paulo;London Class Suites;Jau, 135;Jd. Paulista;1420000;;camilasilva@kontik.com.br;;-23.5688;-46.65183;;;;N;;0;;S;;Brasil,São Paulo,São Paulo,London Class Suites,Jau, 135,Jd. Paulista,1420000
;715DDBD4-FB92-486F-A57D-198F5F6E6515;Brasil;São Paulo;São Paulo;Melia Ibirapuera;Avenida Ibirapuera, 2534;Moema;4028002;;;;-23.60563;-46.66459;;;;N;;0;;S;;Brasil,São Paulo,São Paulo,Melia Ibirapuera,Avenida Ibirapuera, 2534,Moema,4028002
;41E356F3-820B-4811-A6A7-1B21E02421A8;Brasil;São Paulo;São Paulo;Hampton Park - Bela Vista;Alameda Campinas, 1213;Jardim Paulista;1404001;;;;-23.57071;-46.65777;;;;N;;0;;S;;Brasil,São Paulo,São Paulo,Hampton Park - Bela Vista,Alameda Campinas, 1213,Jardim Paulista,1404001
;580CFF0A-0715-4362-BA8E-1B99276DA1C5;Brasil;São Paulo;São Paulo;Mercure Sao Paulo Ibirapuera Privilege;Avenida Macuco, 579;Moema;4523001;;ache@kontik.com.br;;-23.6044;-46.66551;;;;N;;0;;S;;Brasil,São Paulo,São Paulo,Mercure Sao Paulo Ibirapuera Privilege,Avenida Macuco, 579,Moema,4523001
;049FB9EC-2248-43D4-A05F-1F56DB7B6A2C;Brasil;São Paulo;São Paulo;Grand Mercure SP Itaim Bibi;Rua Tenente Negrao, 200;Itaim Bibi;4530030;;alexmelo@kontik.com.br;;-23.58519;-46.67246;;;;N;;0;;S;;Brasil,São Paulo,São Paulo,Grand Mercure SP Itaim Bibi,Rua Tenente Negrao, 200,Itaim Bibi,4530030
;EAE3C3B0-6867-4705-B5DC-1FDF6283C162;Brasil;São Paulo;São Paulo;Transamerica Prime Paradise Garden;Rua Sampaio Viana, 425;Paraiso;4004001;;;;-23.57454;-46.64799;;;;N;;0;;S;;Brasil,São Paulo,São Paulo,Transamerica Prime Paradise Garden,Rua Sampaio Viana, 425,Paraiso,4004001
;C88608F7-E16D-4939-99C8-20442B02C2B7;Brasil;São Paulo;São Paulo;Hotel Municipal;Coronel F Nogueira, 279;Centro;15400000;;;;-20.73733;-48.91368;;;;N;;0;;S;;Brasil,São Paulo,São Paulo,Hotel Municipal,Coronel F Nogueira, 279,Centro,15400000
;6900A3AB-C79B-495F-A362-05A64DAE6590;Estados Unidos;;Boca Raton;Best Western Plus University Inn;2700 North Federal Highway;;;;;;26.37507;-80.07592;;;;N;;0;;S;;Estados Unidos,,Boca Raton,Best Western Plus University Inn,2700 North Federal Highway,,        
;BF941527-FB1A-4338-A7AB-812E6F580DCC;Estados Unidos;;Boca Raton;Wyndham Boca Raton;1950 Glades Road;;;;;;26.36693;-80.1225;;;;N;;0;;S;;Estados Unidos,,Boca Raton,Wyndham Boca Raton,1950 Glades Road,,        
;DA68A47C-BA40-47EB-ADE5-033068934118;Índia;;Vadodara;Vivanta Vadodara;Akota Gardens;;;;;;22.29342;73.17435;;;;N;;0;;S;;Índia,,Vadodara,Vivanta Vadodara,Akota Gardens,,        
;A2F3F845-10C6-47E0-8C58-1D35589AA337;Índia;;Vadodara;Four Points By Sheraton Vadodara;1275 Ward, No. 7;;;;;;22.32344;73.18753;;;;N;;0;;S;;Índia,,Vadodara,Four Points By Sheraton Vadodara,1275 Ward, No. 7,,        
;71B393C3-DC21-4C51-82F3-436CCA0EBE0C;Índia;;Vadodara;Hyatt Place Vadodara;Hotel Wing  Nilamber Triumph, Nilamber Circle;;;;;;22.30188;73.13864;;;;N;;0;;S;;Índia,,Vadodara,Hyatt Place Vadodara,Hotel Wing  Nilamber Triumph, Nilamber Circle,,        
;4E869946-92E9-454B-BBD7-F41C87451AFA;Índia;;Vadodara;Courtyard by Marriott Vadodara;Block B, Sarabhai Campus, Near Genda Circle, Alemb;;;;;;22.31849;73.17093;;;;N;;0;;S;;Índia,,Vadodara,Courtyard by Marriott Vadodara,Block B, Sarabhai Campus, Near Genda Circle, Alemb,,        
;3A1E52C3-C154-47DA-924F-F9F1530FD257;Índia;;Rae Bareli;Oyo 4734 Hotel Sapphire;166, Civil Lines;;;;;;28.36071;79.41962;;;;N;;0;;S;;Índia,,Rae Bareli,Oyo 4734 Hotel Sapphire,166, Civil Lines,,        
;8CF47BEE-2172-4A4A-BC2A-0D93576C6A53;Alemanha;Brandemburgo;Berlim;Premier Inn Berlin Alexanderplatz Hotel;Theanolte Baehnisch Strasse 2;;;;;;52.52372;13.41747;;;;N;;0;;S;;Alemanha,Brandemburgo,Berlim,Premier Inn Berlin Alexanderplatz Hotel,Theanolte Baehnisch Strasse 2,,        
;1FA727EC-9742-47CA-AD96-24DF2972BFAD;Alemanha;Brandemburgo;Berlim;25Hours Hotel Bikini Berlin;Budapester Strasse 40;;;;;;52.50558;13.33793;;;;N;;0;;S;;Alemanha,Brandemburgo,Berlim,25Hours Hotel Bikini Berlin,Budapester Strasse 40,,        
;29482E23-B365-421B-8113-316B75F1B0B7;Alemanha;Brandemburgo;Berlim;Berlin Marriott Hotel;IngeBeisheimPlatz 1;;;;;;52.51089;13.37599;;;;N;;0;;S;;Alemanha,Brandemburgo,Berlim,Berlin Marriott Hotel,IngeBeisheimPlatz 1,,        
;D1EF9DA2-A487-4A27-852E-41EC5838C700;Alemanha;Brandemburgo;Berlim;Adlon Kempinski Berlin;Unter den Linden 77;;;;;;52.51612;13.38003;;;;N;;0;;S;;Alemanha,Brandemburgo,Berlim,Adlon Kempinski Berlin,Unter den Linden 77,,        
;3E4EBFBC-2309-484E-B65C-48B844B8F20D;Alemanha;Brandemburgo;Berlim;Grimms Hotel am Potsdamer Platz;Flottwellstrasse 45;;;;;;52.50308;13.37284;;;;N;;0;;S;;Alemanha,Brandemburgo,Berlim,Grimms Hotel am Potsdamer Platz,Flottwellstrasse 45,,        
;691773C8-C8BA-4078-A928-4EEEF0710ADC;Alemanha;Brandemburgo;Berlim;Hotel Indigo City East Side;Muhlenstrasse 1319;Centro;;;;;52.50421;13.44303;;;;N;;0;;S;;Alemanha,Brandemburgo,Berlim,Hotel Indigo City East Side,Muhlenstrasse 1319,Centro,        
;0203113C-EF5E-47FC-942C-58C158F330DE;Alemanha;Brandemburgo;Berlim;Sana Berlin Hotel;Nurnberger Strasse 33 34;;;;;;52.49903;13.33463;;;;N;;0;;S;;Alemanha,Brandemburgo,Berlim,Sana Berlin Hotel,Nurnberger Strasse 33 34,,        
;99D0CD8C-D4B3-4535-AF13-5C5BDD0FDB87;Alemanha;Brandemburgo;Berlim;Scandic Berlin Potsdamer Platz;Gabriele Tergit Promenade 19;;;;;;52.50469;13.37491;;;;N;;0;;S;;Alemanha,Brandemburgo,Berlim,Scandic Berlin Potsdamer Platz,Gabriele Tergit Promenade 19,,        
;C9336777-79C1-48C8-90D2-5E080B140B91;Alemanha;Brandemburgo;Berlim;Hotel Berlin Central District;Stauffenbergstrasse 26;;;;;;52.50754;13.36373;;;;N;;0;;S;;Alemanha,Brandemburgo,Berlim,Hotel Berlin Central District,Stauffenbergstrasse 26,,        
;50EC53EA-11C2-4587-9752-5F2DEBBD890D;Alemanha;Brandemburgo;Berlim;Centro Park Hotel;Buschkrugallee 60 62;;;;;;52.45819;13.44789;;;;N;;0;;S;;Alemanha,Brandemburgo,Berlim,Centro Park Hotel,Buschkrugallee 60 62,,        
;8401C587-7CB3-45C3-B285-6DB8FF243FE2;Alemanha;Brandemburgo;Berlim;Hotel Berlin Berlin;Lützowplatz 17  10785;;;;;;52.50386;13.3522;;;;N;;0;;S;;Alemanha,Brandemburgo,Berlim,Hotel Berlin Berlin,Lützowplatz 17  10785,,        
;67CC0EA5-7963-45C6-8924-7A337D6FAAC1;Alemanha;Brandemburgo;Berlim;The Mandala Hotel;Postdamer Strasse 3;;;;;www.themandala.de;52.509;13.37371;0;0;0;N;;0;;S;;Alemanha,Brandemburgo,Berlim,The Mandala Hotel,Postdamer Strasse 3,,        
;F699BB0E-2948-470F-9449-AF36822158C5;Alemanha;Brandemburgo;Berlim;Steigenberger Hotel Kanzleramt;Ella Trebe Strasse 5;;;;;;52.52364;13.36807;;;;N;;0;;S;;Alemanha,Brandemburgo,Berlim,Steigenberger Hotel Kanzleramt,Ella Trebe Strasse 5,,        
;3C7AE50C-18A7-4054-8F0E-D4732CEBB1F0;Alemanha;Brandemburgo;Berlim;Lulu Guldsmeden Hotel Berlim;Potsdamer Strasse 67;;;;;;52.5034;13.36632;;;;N;;0;;S;;Alemanha,Brandemburgo,Berlim,Lulu Guldsmeden Hotel Berlim,Potsdamer Strasse 67,,        
;4FC3D7B3-2C0D-4205-A269-DA51396A12FC;Alemanha;Brandemburgo;Berlim;Mercure Hotel Berlin City;Invalidenstrasse 38, Txl;;;;;;52.53037;13.38162;;;;N;;0;;S;;Alemanha,Brandemburgo,Berlim,Mercure Hotel Berlin City,Invalidenstrasse 38, Txl,,        
;6C6710EC-018A-4EC4-B1D8-E757F971681E;Alemanha;Brandemburgo;Berlim;Titanic Comfort Mitte;Elisabeth Mara Strasse 4;;;;;;52.51022;13.40418;;;;N;;0;;S;;Alemanha,Brandemburgo,Berlim,Titanic Comfort Mitte,Elisabeth Mara Strasse 4,,        
;2156398C-C1D2-4734-924F-F0DD00062529;Alemanha;Brandemburgo;Berlim;Movenpick Hotel Berlin;Schoneberger Str. 3;;;;;;52.46436;13.32952;;;;N;;0;;S;;Alemanha,Brandemburgo,Berlim,Movenpick Hotel Berlin,Schoneberger Str. 3,,        
;11C30EA9-407F-474F-B0BA-F3D086E31FD3;Alemanha;Brandemburgo;Berlim;Titanic Gendarmenmarkt Berlin;Franz. Str. 30;;;;;;52.51217;13.39282;;;;N;;0;;S;;Alemanha,Brandemburgo,Berlim,Titanic Gendarmenmarkt Berlin,Franz. Str. 30,,        
;16FECC27-C9CC-49EE-AB28-2B36FE3EFB73;Líbano;;Beirut;Radisson Blu Martinez Hotel;Phoenicia Street Beirut;;;;;;33.89983;35.49278;;;;N;;0;;S;;Líbano,,Beirut,Radisson Blu Martinez Hotel,Phoenicia Street Beirut,,        
;1DEAD4B8-3A0F-4F83-9581-B55474C198AA;Líbano;;Beirut;Le Gray Hotel;Martyrs Square;Centro;;;;;33.89643;35.50689;;;;N;;0;;S;;Líbano,,Beirut,Le Gray Hotel,Martyrs Square,Centro,        
;CB866F06-BDFA-46E2-933E-D62B8CC9CB0B;Líbano;;Beirut;Hotel Radisson Blu Beirut Hotel Verdun;Rachid Karame Street;;;;;;33.88401;35.48301;;;;N;;0;;S;;Líbano,,Beirut,Hotel Radisson Blu Beirut Hotel Verdun,Rachid Karame Street,,        
;BC411750-7628-47FF-8C84-660EB9C66A32;Reino Unido;;Belfast;Grand Central Hotel Belfast;915 Bedford St;;;;;;54.59517;-5.9321;;;;N;;0;;S;;Reino Unido,,Belfast,Grand Central Hotel Belfast,915 Bedford St,,        
;4069615C-E4FF-4158-AEF6-2E175CC5D107;Colômbia;Santander;Bucaramanga;Hotel Chicamocha;Calle 34 31 24;;;;;;7.12472;-73.11384;;;;N;;0;;S;;Colômbia,Santander,Bucaramanga,Hotel Chicamocha,Calle 34 31 24,,        
;7FA8A01A-333C-449F-9C4F-4614F8AC3B76;Colômbia;Santander;Bucaramanga;Hotel Dann Carlton Bucaramanga;Cl. 47 n 2883, Sotomayor, Bucaramanga, Santander,;;;;;;7.11758;-73.11268;;;;N;;0;;S;;Colômbia,Santander,Bucaramanga,Hotel Dann Carlton Bucaramanga,Cl. 47 n 2883, Sotomayor, Bucaramanga, Santander,,,        
;864D298E-084A-49E1-AC5E-FAF3867F7703;Noruega;;Bergen;Comfort Hotel Bergen;Strandgaten 190;;;;;;60.39621;5.3153;;;;N;;0;;S;;Noruega,,Bergen,Comfort Hotel Bergen,Strandgaten 190,,        
;EE62F7E1-0EE0-4E11-9E23-32C2265FC474;Argentina;Buenos Aires;Bahia Blanca;Hotel Argos;Espana 149;;;;;;-38.7236;-62.26448;;;;N;;0;;S;;Argentina,Buenos Aires,Bahia Blanca,Hotel Argos,Espana 149,,        
;01DCFACD-8376-489A-99CB-132CA27FEA62;Reino Unido;;Birmingham;Holiday Inn Birmingham Airport  NEC;Coventry Road;;;;;;52.44738;-1.75151;;;;N;;0;;S;;Reino Unido,,Birmingham,Holiday Inn Birmingham Airport  NEC,Coventry Road,,        
;FD4598EC-B0A8-4542-AFF5-4019E950B0A6;Reino Unido;;Birmingham;Novotel Birmingham Airport;Birmingham Airport;;;;;;52.45265;-1.73174;;;;N;;0;;S;;Reino Unido,,Birmingham,Novotel Birmingham Airport,Birmingham Airport,,        
;2A14346C-4CE2-4BF1-B163-8DCFD1813CF0;Reino Unido;;Birmingham;Hilton Garden Inn Birmingham Airport;Concorde Road;;;;;;52.45104;-1.73131;;;;N;;0;;S;;Reino Unido,,Birmingham,Hilton Garden Inn Birmingham Airport,Concorde Road,,        
;0F43143D-475D-4946-9CB5-7AF95F8AC369;Espanha;;Bilbao;Vincci Consulado De Bilbao;Calle Alameda Mazarredo 22;;;;;;43.2645;-2.92939;;;;N;;0;;S;;Espanha,,Bilbao,Vincci Consulado De Bilbao,Calle Alameda Mazarredo 22,,        
;40BD849A-1537-4E54-820B-E15B7A85F9AC;Espanha;;Bilbao;Hotel Ercilla;Gran Hotel Ercilla Sa Ercilla, 37 39 48011;;;;;;43.26118;-2.93857;;;;N;;0;;S;;Espanha,,Bilbao,Hotel Ercilla,Gran Hotel Ercilla Sa Ercilla, 37 39 48011,,        
;5DC19D1E-3A2C-4A3E-8C28-FEFB9F88F73B;Espanha;;Bilbao;Mercure Bilbao Jardines de Albia;San Vicente, 6;;;;;;43.26411;-2.92776;;;;N;;0;;S;;Espanha,,Bilbao,Mercure Bilbao Jardines de Albia,San Vicente, 6,,        
;1E99ABA3-2FF3-4DD9-9F1A-3958DE432EB2;Gâmbia;;Banjul;African Princess Beach Hotel;Palma Rima Road Kotu Beach;Kotu;;;;;13.45479;-16.71617;;;;N;;0;;S;;Gâmbia,,Banjul,African Princess Beach Hotel,Palma Rima Road Kotu Beach,Kotu,        
;377C9F68-2DA8-4A8A-80DD-1DF03D5C36C1;China;;Beijing;Rosewood Beijing;Jing Guang Centre;;;;;;39.88784;116.30567;;;;N;;0;;S;;China,,Beijing,Rosewood Beijing,Jing Guang Centre,,        
;8ABF4601-4DC4-42AC-B537-3A7A6DEC00EC;China;;Beijing;Jw Marriott Beijing;83 Jian Guo Road Chaoyang Dist;Centro;;;;;39.90871;116.48339;;;;N;;0;;S;;China,,Beijing,Jw Marriott Beijing,83 Jian Guo Road Chaoyang Dist,Centro,        
;7FB73539-29EF-4BB2-89AD-DC0C9800AB6A;México;Guanajuato;Guanajuato;El Diezmo Hotel;Plutarco Elias Calles, Calle Nicolas Campa E, Nico;;;;;;20.99814;-100.38343;;;;N;;0;;S;;México,Guanajuato,Guanajuato,El Diezmo Hotel,Plutarco Elias Calles, Calle Nicolas Campa E, Nico,,        
;C80FA70F-4231-4DB3-8E97-C0147BC6CEC3;Espanha;;Badajoz;Hotel Rio Badajoz;Av. Adolfo Diaz Ambrona, 13;;;;;;38.88415;-6.984;;;;N;;0;;S;;Espanha,,Badajoz,Hotel Rio Badajoz,Av. Adolfo Diaz Ambrona, 13,,        
;212BF88A-C803-48AC-B1D0-FF3E94672857;Espanha;;Badajoz;AC Hotel by Marriott Badajoz;Av. de Elvas, SN;;;;;;38.8836;-6.99432;;;;N;;0;;S;;Espanha,,Badajoz,AC Hotel by Marriott Badajoz,Av. de Elvas, SN,,        
;17040769-E110-4208-89D3-22E81717DC65;Malásia;;Kota Kinabalu;Tang Dynasty Hotel;1 1, Lorong Plaza Wawasan Coastal Highway;Centro;;;;;5.97322;116.06898;;;;N;;0;;S;;Malásia,,Kota Kinabalu,Tang Dynasty Hotel,1 1, Lorong Plaza Wawasan Coastal Highway,Centro,        
;246B26E5-33BF-4349-B7DB-0C2B09096BCA;Tailândia;;Bangkok;Movenpick Sukhumvit 15 Bangkok;47 Sukhumvit 15., Sukhumvit Roadklongtoey, Bkk;;;;;;13.74245;100.55905;;;;N;;0;;S;;Tailândia,,Bangkok,Movenpick Sukhumvit 15 Bangkok,47 Sukhumvit 15., Sukhumvit Roadklongtoey, Bkk,,        
;A7461BAE-F683-4631-9111-0E0D778A4821;Tailândia;;Bangkok;Doubletree Hilton Ploenchit;12 Sukhumvit 2;;;;;;13.74036;100.55187;;;;N;;0;;S;;Tailândia,,Bangkok,Doubletree Hilton Ploenchit,12 Sukhumvit 2,,        
;053D27B2-0C08-4134-B731-19324F50BF35;Tailândia;;Bangkok;Holiday Inn Bangkok;971 Phloen Chit Road;;;;;;13.74485;100.54194;;0;;N;;0;;S;;Tailândia,,Bangkok,Holiday Inn Bangkok,971 Phloen Chit Road,,        
;A9BCA93D-2298-410D-8310-38B9FB47CD59;Tailândia;;Bangkok;Riva Arun Bangkok;392 25 28 Maharaj Road Bangkok  Phraborom Maharaj;Centro;;;;;13.74426;100.49189;;;;N;;0;;S;;Tailândia,,Bangkok,Riva Arun Bangkok,392 25 28 Maharaj Road Bangkok  Phraborom Maharaj,Centro,        
;F6E1C581-4FD8-49E6-BA1E-47798E7C7155;Tailândia;;Bangkok;Grande Centre Point Terminal 21;2 Soi Sukhumvit 19, Khlong Toei Nuea, Watthana;Centro;;;;;13.73925;100.55986;;;;N;;0;;S;;Tailândia,,Bangkok,Grande Centre Point Terminal 21,2 Soi Sukhumvit 19, Khlong Toei Nuea, Watthana,Centro,        
;68E41F27-9E54-4B54-9C1D-C6832F94D119;Tailândia;;Bangkok;Grand Hyatt Erawan Bangkok;494 Ratchadamri Road;;;;;;13.74369;100.54051;;;;N;;0;;S;;Tailândia,,Bangkok,Grand Hyatt Erawan Bangkok,494 Ratchadamri Road,,        
;7050490B-239C-445C-82F4-F1B60871DD21;Tailândia;;Bangkok;Centara Grand At Central Plaza Ladprao Bangkok;1695 Phahonyothin Road;;;;;;13.8186;100.55946;;;;N;;0;;S;;Tailândia,,Bangkok,Centara Grand At Central Plaza Ladprao Bangkok,1695 Phahonyothin Road,,        
;9E4D7BFD-162E-431A-A1CA-F4CE572C76B4;Tailândia;;Bangkok;Avani Atrium Bangkok Hotel;1880 New Petchaburi Road  Bang Kapi  Huai Khwang;Centro;;;;;13.74789;100.57002;;;;N;;0;;S;;Tailândia,,Bangkok,Avani Atrium Bangkok Hotel,1880 New Petchaburi Road  Bang Kapi  Huai Khwang,Centro,        
;66735812-95CE-48E4-9002-13317BD6BE89;Itália;;Bologna;Unaway Congress Hotel Bologna San Lazzaro;Via Luigi Fantini, 1;;;;;;44.46118;11.41881;;;;N;;0;;S;;Itália,,Bologna,Unaway Congress Hotel Bologna San Lazzaro,Via Luigi Fantini, 1,,        
;7A3AC888-E9E5-4B11-80ED-831AB4BB2B41;Itália;;Bologna;Unahotels Bologna Centro;Viale Pietro Pietramellara, 41;;;;;;44.50524;11.34189;;;;N;;0;;S;;Itália,,Bologna,Unahotels Bologna Centro,Viale Pietro Pietramellara, 41,,        
;54B4DE2C-8F8E-4DAC-93C7-5FD84896F07B;Índia;Karnataka;Bangalore;The Pride Hotel Bangalore;93, Richmond Road;;;;;;12.96596;77.60596;;;;N;;0;;S;;Índia,Karnataka,Bangalore,The Pride Hotel Bangalore,93, Richmond Road,,        
;F1BB41CD-5D19-48C8-A72E-E478A4C1BC88;Índia;Karnataka;Bangalore;Courtyard By Marriott Bengaluru Hebbal;2, 55, Outer Ring Road, Jogappa Layout, Nagavara;;;;;;13.04243;77.60918;;;;N;;0;;S;;Índia,Karnataka,Bangalore,Courtyard By Marriott Bengaluru Hebbal,2, 55, Outer Ring Road, Jogappa Layout, Nagavara,,        
;64D52E9F-F5E5-4469-BFDD-F9E7B967A75D;Índia;Karnataka;Bangalore;Hilton Bengaluru Embassy Manyata Business Park;Block A, Hotel Building, 1, Outer Ring Road;;;;;;13.04301;77.6196;;;;N;;0;;S;;Índia,Karnataka,Bangalore,Hilton Bengaluru Embassy Manyata Business Park,Block A, Hotel Building, 1, Outer Ring Road,,        
;633AA095-0087-41D4-BD4D-624A821017B9;Estados Unidos;;Bloomington;Fairfield Inn And Suites By Marriott Minneapolis B;2401 American Boulevard East;Centro;;;;;44.85858;-93.31036;;;;N;;0;;S;;Estados Unidos,,Bloomington,Fairfield Inn And Suites By Marriott Minneapolis B,2401 American Boulevard East,Centro,        
;A3424C14-FE7A-462E-9344-58986B26F1D9;Estados Unidos;;Bloomington;Ac By Marriott Mall Of America;8100 26th Avenue South;;;;;;44.85632;-93.23634;;;;N;;0;;S;;Estados Unidos,,Bloomington,Ac By Marriott Mall Of America,8100 26th Avenue South,,        
;5EDAFFC6-6BDF-4F6E-8A1C-B076F571D9A1;Estados Unidos;;Berlin;Hotel Nh Berlin Potsdamer Platz;Stresemannstrasse 47;;;;;;52.50162;13.38563;;;;N;;0;;S;;Estados Unidos,,Berlin,Hotel Nh Berlin Potsdamer Platz,Stresemannstrasse 47,,        
;BE15276E-B709-4A09-BCA3-075D258D12EC;Estados Unidos;;Nashville;Omni Nashville Hotel;250 Fifth Avenue South;;;;;;36.15742;-86.77564;;;;N;;0;;S;;Estados Unidos,,Nashville,Omni Nashville Hotel,250 Fifth Avenue South,,        
;B15F79D1-F43F-4175-A064-357C9EA2E949;Estados Unidos;;Nashville;21C Museum Hotel Nashville;221 2Nd Avenue North;;;;;;36.16532;-86.77757;;;;N;;0;;S;;Estados Unidos,,Nashville,21C Museum Hotel Nashville,221 2Nd Avenue North,,        
;E99051BC-58BE-4C6B-BD15-3AC7F33676E2;Estados Unidos;;Nashville;Home2 Suites By Hilton Nashville Vanderbilt;1800 Division Street;;;;;;36.15113;-86.79582;;;;N;;0;;S;;Estados Unidos,,Nashville,Home2 Suites By Hilton Nashville Vanderbilt,1800 Division Street,,        
;28B05E36-E614-4F88-9898-3F3E7563E1C8;Estados Unidos;;Nashville;Residence Inn by Marriott Franklin Cool Springs;2009 Meridian Boulevard;;;;;;35.95017;-86.80878;;;;N;;0;;S;;Estados Unidos,,Nashville,Residence Inn by Marriott Franklin Cool Springs,2009 Meridian Boulevard,,        
;E190E789-9896-4CDA-9005-3F561E8A8D2E;Estados Unidos;;Nashville;Holiday Inn Express E Suites Nashville Opryland;2461 McGavock Pike;;;;;;36.21805;-86.70049;;;;N;;0;;S;;Estados Unidos,,Nashville,Holiday Inn Express E Suites Nashville Opryland,2461 McGavock Pike,,        
;A82BC632-7BCD-4E83-8DDE-46A9849B8906;Estados Unidos;;Nashville;Sonder at Village 21;1620 21st Ave S, Nashville;Centro;;;;;36.13775;-86.8006;;;;N;;0;;S;;Estados Unidos,,Nashville,Sonder at Village 21,1620 21st Ave S, Nashville,Centro,        
;BED62035-A3DB-4B79-8CA9-6E60C198B86B;Estados Unidos;;Nashville;Sleep Inn Nashville;3437 Percy Priest Drive;;;;;;36.15276;-86.62733;;;;N;;0;;S;;Estados Unidos,,Nashville,Sleep Inn Nashville,3437 Percy Priest Drive,,        
;02E28F4C-1618-4A4A-A24C-7A3972935AEA;Estados Unidos;;Nashville;Hilton Garden Inn Downtown Cc;305 Korean Veterans Boulevard;;;;;;36.15723;-86.77363;;;;N;;0;;S;;Estados Unidos,,Nashville,Hilton Garden Inn Downtown Cc,305 Korean Veterans Boulevard,,        
;57E632DB-701B-4B93-B0DB-9A9FD1354F7E;Estados Unidos;;Nashville;Renaissance Nashville Hotel;611 Commerce St;Centro;;;;;36.16077;-86.78114;;;;N;;0;;S;;Estados Unidos,,Nashville,Renaissance Nashville Hotel,611 Commerce St,Centro,        
;3B9CC017-1265-4389-B51D-B29EABDE13A1;Estados Unidos;;Nashville;Super 8 By Wyndham Hermitage Nashville;1414 Princeton Place;;;;;;36.17276;-86.60355;;;;N;;0;;S;;Estados Unidos,,Nashville,Super 8 By Wyndham Hermitage Nashville,1414 Princeton Place,,        
;7A7FDF97-0309-4022-8CE3-B996448FE9B3;Estados Unidos;;Nashville;Sheraton Grand Nashville;623 Union St;Centro;;;;;36.1631;-86.7829;;;;N;;0;;S;;Estados Unidos,,Nashville,Sheraton Grand Nashville,623 Union St,Centro,        
;D1F479F7-C04E-450D-BAD9-E277CCB9BC40;Estados Unidos;;Nashville;Four Points Airport Nashville;800 Royal Parkway;;;;;;36.14498;-86.66288;;;;N;;0;;S;;Estados Unidos,,Nashville,Four Points Airport Nashville,800 Royal Parkway,,        
;089853A9-21A4-4B5F-8A5E-4418FF34F4FA;Austrália;Queensland;Brisbane;Hotel Grand Chancellor Brisbane;23 Leichhardt St;Spring Hill;;;;;-27.46243;153.02166;;;;N;;0;;S;;Austrália,Queensland,Brisbane,Hotel Grand Chancellor Brisbane,23 Leichhardt St,Spring Hill,        
;5505A098-D3BF-4F0A-ADDB-5BA40F17DD39;Austrália;Queensland;Brisbane;Hilton Brisbane;190 Elizabeth St;;;;;;-27.46916;153.02704;;;;N;;0;;S;;Austrália,Queensland,Brisbane,Hilton Brisbane,190 Elizabeth St,,        
;E86B0AD5-3490-417B-9679-760AE91C8FD3;Austrália;Queensland;Brisbane;Hotel Indigo Brisbane City Centre;27 35 Turbot Street;;;;;;-27.46941;153.02073;;;;N;;0;;S;;Austrália,Queensland,Brisbane,Hotel Indigo Brisbane City Centre,27 35 Turbot Street,,        
;0804A32E-8665-4486-89BE-B7922B6491A9;Austrália;Queensland;Brisbane;Ibis Styles Brisbane;40 Elizabeth St;;;;;;-27.47126;153.02439;;;;N;;0;;S;;Austrália,Queensland,Brisbane,Ibis Styles Brisbane,40 Elizabeth St,,        
;5797F70F-47F4-4458-8A50-D365E66228C4;Austrália;Queensland;Brisbane;Annexe Apartments;911 Walden Ln;;;;;;-27.4475;153.02981;;;;N;;0;;S;;Austrália,Queensland,Brisbane,Annexe Apartments,911 Walden Ln,,        
;AE785146-863D-479D-B4BA-606C26CEF83B;Alemanha;;Bonn;Kameha Grand Bonn;Am Bonner Bogen 1, 53227;;;;;;50.71822;7.15215;;;;N;;0;;S;;Alemanha,,Bonn,Kameha Grand Bonn,Am Bonner Bogen 1, 53227,,        
;51F5DE0F-E9BD-42F9-BD26-39C2588A67BD;França;Nova-Aquitânia;Bordeaux;Sure Hotel by Best Western Bordeaux Lac;1 Rue du Grand Barail;;;;;;44.89;-0.56245;;;;N;;0;;S;;França,Nova-Aquitânia,Bordeaux,Sure Hotel by Best Western Bordeaux Lac,1 Rue du Grand Barail,,        
;290B42E6-9906-4974-8CCF-68A7E68CEAAD;França;Nova-Aquitânia;Bordeaux;Ibis Bordeaux Lac;Quartier du Lac, Rue du Petit Barail;;;;;;44.89047;-0.5646;;;;N;;0;;S;;França,Nova-Aquitânia,Bordeaux,Ibis Bordeaux Lac,Quartier du Lac, Rue du Petit Barail,,        
;6184953F-0502-451A-BD4A-B341C50C7CEC;França;Nova-Aquitânia;Bordeaux;Pullman Bordeaux Lac;Av. Jean Gabriel Domergue;;;;;;44.8897;-0.56618;;;;N;;0;;S;;França,Nova-Aquitânia,Bordeaux,Pullman Bordeaux Lac,Av. Jean Gabriel Domergue,,        
;019AB997-3024-4284-A5B4-C1F1D71BC319;França;Nova-Aquitânia;Bordeaux;Renaissance Bordeaux Hotel;16 Rue de Gironde;;;;;;44.86438;-0.55117;;;;N;;0;;S;;França,Nova-Aquitânia,Bordeaux,Renaissance Bordeaux Hotel,16 Rue de Gironde,,        
;BACF5F4C-4367-4287-80C0-DFEC21C1C196;França;Nova-Aquitânia;Bordeaux;Mercure Bordeaux Lac;Rue du grand Barail, Quartier du lac, 33300 Bordea;;;;;;44.88968;-0.56307;;;;N;;0;;S;;França,Nova-Aquitânia,Bordeaux,Mercure Bordeaux Lac,Rue du grand Barail, Quartier du lac, 33300 Bordea,,        
;14C47E92-B8BE-4734-8901-F8899569B1C3;França;Nova-Aquitânia;Bordeaux;Best Western Premier Bayonne Etche Ona;4 Rue Martignac And 11 Rue Mautrec;;;;;;44.84266;-0.57539;;;;N;;0;;S;;França,Nova-Aquitânia,Bordeaux,Best Western Premier Bayonne Etche Ona,4 Rue Martignac And 11 Rue Mautrec,,        
;4F399F80-EF69-47DC-8595-02D46260DA31;Colômbia;Distrito Capital;Bogotá;Hyatt Place Bogota Convention;Avenida Calle 24 Nr 4051;;;;;;4.63176;-74.0934;;;;N;;0;;S;;Colômbia,Distrito Capital,Bogotá,Hyatt Place Bogota Convention,Avenida Calle 24 Nr 4051,,        
;91A51F1C-B7A2-42FC-BE00-038D4F322910;Colômbia;Distrito Capital;Bogotá;Sofitel Bogota Victoria Regia;Carrera 13;;;;;;4.60048;-74.08151;;;;N;;0;;S;;Colômbia,Distrito Capital,Bogotá,Sofitel Bogota Victoria Regia,Carrera 13,,        
;0EC971E3-59A0-44EE-9CDF-110E20AAB10D;Colômbia;Distrito Capital;Bogotá;Sheraton Bogota Hotel;Calle 25 B N69 C80;Fontibon;;;;;4.66025;-74.10925;;;;N;;0;;S;;Colômbia,Distrito Capital,Bogotá,Sheraton Bogota Hotel,Calle 25 B N69 C80,Fontibon,        
;C1C13DB8-89A6-4586-ABF0-15048E4288B4;Colômbia;Distrito Capital;Bogotá;Tryp Bogota Embajada;Ac. 24 No 51  41;;;;;;4.58635;-74.13714;;;;N;;0;;S;;Colômbia,Distrito Capital,Bogotá,Tryp Bogota Embajada,Ac. 24 No 51  41,,        
;32757732-858D-46B1-9FDC-2A75C0BB9B0B;Colômbia;Distrito Capital;Bogotá;Clarion Bogota Plaza;Calle 100, Nr 18A 30;;;;;;4.68607;-74.05137;;;;N;;0;;S;;Colômbia,Distrito Capital,Bogotá,Clarion Bogota Plaza,Calle 100, Nr 18A 30,,        
;34C0B0BE-0DCE-40DF-8A20-2EC8D3DBB1C3;Colômbia;Distrito Capital;Bogotá;Bogota Plaza Hotel;Carrera 18a 10041;Usaquen;;;;;4.68607;-74.05137;;;;N;;0;;S;;Colômbia,Distrito Capital,Bogotá,Bogota Plaza Hotel,Carrera 18a 10041,Usaquen,        
;A4DE8EE5-FA38-4BC0-A914-2EE7D367DDF7;Colômbia;Distrito Capital;Bogotá;Doubletree By Hilton Parque 93;Carrera 11B 96 59;;;;;;4.6805;-74.04622;;;;N;;0;;S;;Colômbia,Distrito Capital,Bogotá,Doubletree By Hilton Parque 93,Carrera 11B 96 59,,        
;1CD08A64-65C8-4EBE-A4CC-36845F2AEBD7;Colômbia;Distrito Capital;Bogotá;Grand Hyatt Bogota;Calle 24A 57 60;;;;;;4.64396;-74.09993;;;;N;;0;;S;;Colômbia,Distrito Capital,Bogotá,Grand Hyatt Bogota,Calle 24A 57 60,,        
;C0102B25-E1D3-4447-8FEB-3B95DAF477C3;Colômbia;Distrito Capital;Bogotá;Morrison 84 By Sercotel;Calle 84 Bis;;;;;;4.70811;-74.10066;;;;N;;0;;S;;Colômbia,Distrito Capital,Bogotá,Morrison 84 By Sercotel,Calle 84 Bis,,        
;929995F6-FBEE-4E56-9460-4081178C8941;Colômbia;Distrito Capital;Bogotá;Nh Collection Bogota Wtc Royal;Cra. 8a 9955;;;;;;4.68055;-74.04041;;;;N;;0;;S;;Colômbia,Distrito Capital,Bogotá,Nh Collection Bogota Wtc Royal,Cra. 8a 9955,,        
;4AB0E530-82B6-42A7-961B-416DD1C2AA8B;Colômbia;Distrito Capital;Bogotá;Celebrities Suites BlueDoors;Calle 74,1033;Centro;;;;https:www.celebritiessuites.com;4.65836;-74.05684;;0;;N;;0;;S;;Colômbia,Distrito Capital,Bogotá,Celebrities Suites BlueDoors,Calle 74,1033,Centro,        
;0DCBC94D-D3EC-473E-9E16-41C508701B41;Colômbia;Distrito Capital;Bogotá;Hotel Factory Green;Autopista Medellin Km 3.5 Via Siberia Bogota;;;;;;4.6964;-74.09136;;;;N;;0;;S;;Colômbia,Distrito Capital,Bogotá,Hotel Factory Green,Autopista Medellin Km 3.5 Via Siberia Bogota,,        
;B6FD22DF-BEAB-461F-8BD3-4294CF15C0E7;Colômbia;Distrito Capital;Bogotá;Hotel Andes Plaza;Cra. 15 10011;;;;;;4.68576;-74.0481;;;;N;;0;;S;;Colômbia,Distrito Capital,Bogotá,Hotel Andes Plaza,Cra. 15 10011,,        
;114AAA8B-5A07-46F9-BD30-4CE09E7F8E00;Colômbia;Distrito Capital;Bogotá;Aloft Bogota Airport;Avenida Calle 26 92 32;;;;;;4.68263;-74.12141;;;;N;;0;;S;;Colômbia,Distrito Capital,Bogotá,Aloft Bogota Airport,Avenida Calle 26 92 32,,        
;BACADDE0-16EE-427A-99A8-4ECBF7FFCD8B;Colômbia;Distrito Capital;Bogotá;Hotel Vintage;Ac. 100 13 55;;;;;;4.68716;-74.05956;;;;N;;0;;S;;Colômbia,Distrito Capital,Bogotá,Hotel Vintage,Ac. 100 13 55,,        
;5931B8D9-1DD2-4F3E-BB21-4F919221CBD8;Colômbia;Distrito Capital;Bogotá;Bogota Urban 26 Royal;Carrera 33 25 F 18, Bogota;;;;;;4.62965;-74.08324;;;;N;;0;;S;;Colômbia,Distrito Capital,Bogotá,Bogota Urban 26 Royal,Carrera 33 25 F 18, Bogota,,        
;77AF417B-F33D-4C8B-87A7-517571D9B8C3;Colômbia;Distrito Capital;Bogotá;Ghl Hotel Bogota Occidente;Autopista Medellin Km 3.9 Costado Sur SiberiaCota;;;;;;4.70968;-74.1117;;;;N;;0;;S;;Colômbia,Distrito Capital,Bogotá,Ghl Hotel Bogota Occidente,Autopista Medellin Km 3.9 Costado Sur SiberiaCota,,        
;B783DC4E-FDC8-4512-8760-5C2BA02AA00C;Colômbia;Distrito Capital;Bogotá;Hilton Bogota;Carrera 7 N 72 41;;;;;;4.65567;-74.05523;;;;N;;0;;S;;Colômbia,Distrito Capital,Bogotá,Hilton Bogota,Carrera 7 N 72 41,,        
;FA57E5EB-9847-4552-9546-5C381D52FEB1;Colômbia;Distrito Capital;Bogotá;Hyatt Place Bogota  Convention Center;Ac. 24 N 40 51;;;;;;4.63147;-74.09337;;;;N;;0;;S;;Colômbia,Distrito Capital,Bogotá,Hyatt Place Bogota  Convention Center,Ac. 24 N 40 51,,        
;C8208F39-F965-479A-8485-5C568B2B73AC;Colômbia;Distrito Capital;Bogotá;101 Park House;Carrera 21 10110;;;;;;4.68762;-74.05442;;;;N;;0;;S;;Colômbia,Distrito Capital,Bogotá,101 Park House,Carrera 21 10110,,        
;40C6B7EB-00A7-4232-AEFE-60EE24364311;Colômbia;Distrito Capital;Bogotá;Embassy Suites By Hilton Bogota Rosales;Cl. 70 No. 6 22;Centro;;;;;4.65245;-74.05592;;;;N;;0;;S;;Colômbia,Distrito Capital,Bogotá,Embassy Suites By Hilton Bogota Rosales,Cl. 70 No. 6 22,Centro,        
;BFAD1DCF-F1D8-4793-B333-68C80F233B49;Colômbia;Distrito Capital;Bogotá;93 Luxury Suites E Residences;Carrera 13 A 9351;;;;;;4.67659;-74.05026;;;;N;;0;;S;;Colômbia,Distrito Capital,Bogotá,93 Luxury Suites E Residences,Carrera 13 A 9351,,        
;CF8DC10D-2DB3-4355-B693-6A848C76EDDA;Colômbia;Distrito Capital;Bogotá;Holiday Inn Express Bogota  Parque La 93;Calle 94 No. 11 a  12;;;;;;4.67786;-74.04701;;;;N;;0;;S;;Colômbia,Distrito Capital,Bogotá,Holiday Inn Express Bogota  Parque La 93,Calle 94 No. 11 a  12,,        
;927F3A84-9211-40C5-81A7-6F0A8DC64449;Colômbia;Distrito Capital;Bogotá;Ek Hotel Bogota;Calle 90 No. 11 13;;;;;;4.67224;-74.04902;;;;N;;0;;S;;Colômbia,Distrito Capital,Bogotá,Ek Hotel Bogota,Calle 90 No. 11 13,,        
;67909E5B-2911-45F6-A471-74AE5664933E;Colômbia;Distrito Capital;Bogotá;Hotel Dann Carlton Bogota;Avenida 15 N 103  60;Usaquen;;;;;4.68834;-74.04702;;;;N;;0;;S;;Colômbia,Distrito Capital,Bogotá,Hotel Dann Carlton Bogota,Avenida 15 N 103  60,Usaquen,        
;F3A11BFD-1820-44C8-ABEA-7A777A3D3D9F;Colômbia;Distrito Capital;Bogotá;Hotel Cosmos 100 And Centro De Convenciones;Ac. 100 19A 83;;;;;;4.67517;-74.14334;;;;N;;0;;S;;Colômbia,Distrito Capital,Bogotá,Hotel Cosmos 100 And Centro De Convenciones,Ac. 100 19A 83,,        
;6E62F831-344B-45C1-906E-7D0B4D2DF8D4;Colômbia;Distrito Capital;Bogotá;Wyndham Bogota;51 40 Avenida Calle 24;;;;;;4.63705;-74.0969;;;;N;;0;;S;;Colômbia,Distrito Capital,Bogotá,Wyndham Bogota,51 40 Avenida Calle 24,,        
;F3CB14EF-AFC8-43C1-9F75-879F3298A1A1;Colômbia;Distrito Capital;Bogotá;Hotel Excelsior Bogota;Carrera 14;;;;;;4.60048;-74.08151;;;;N;;0;;S;;Colômbia,Distrito Capital,Bogotá,Hotel Excelsior Bogota,Carrera 14,,        
;65220A1E-CC89-47C8-B21F-8E7A09C7BC4D;Colômbia;Distrito Capital;Bogotá;100 Luxury Suites And Residences;Cra. 9a 983;;;;;;4.48937;-74.11839;;;;N;;0;;S;;Colômbia,Distrito Capital,Bogotá,100 Luxury Suites And Residences,Cra. 9a 983,,        
;06C13C6E-176B-460D-B0C8-99D9FF3B73D0;Colômbia;Distrito Capital;Bogotá;Nh Collection Bogota Andino Royal;Calle 85.1228;;;;;;4.66869;-74.05274;;;;N;;0;;S;;Colômbia,Distrito Capital,Bogotá,Nh Collection Bogota Andino Royal,Calle 85.1228,,        
;EB8E93D8-C319-496E-8A6B-A6F37127FCBF;Colômbia;Distrito Capital;Bogotá;Ghl Hotel Capital;Calle 25B 69A 50;;;;;;4.65844;-74.10821;;;;N;;0;;S;;Colômbia,Distrito Capital,Bogotá,Ghl Hotel Capital,Calle 25B 69A 50,,        
;3C7DB524-32D1-4985-9FD1-AA06F1A69F61;Colômbia;Distrito Capital;Bogotá;Mercure Bogota Calle 100;Transv. 23 98 27 Chico N;;;;;;4.68615;-74.0565;;;;N;;0;;S;;Colômbia,Distrito Capital,Bogotá,Mercure Bogota Calle 100,Transv. 23 98 27 Chico N,,        
;00929A65-DC72-4299-B366-B7C50018C04F;Colômbia;Distrito Capital;Bogotá;Bh Parque 93;Carrera 14, 93A 69;;;;;;4.67811;-74.05035;;;;N;;0;;S;;Colômbia,Distrito Capital,Bogotá,Bh Parque 93,Carrera 14, 93A 69,,        
;AE1491EB-9B7C-4A07-84FC-B7DDFB123D8A;Colômbia;Distrito Capital;Bogotá;Hotel Habitel;Avenida El Dorado 100 97;;;;;;4.68892;-74.13098;;;;N;;0;;S;;Colômbia,Distrito Capital,Bogotá,Hotel Habitel,Avenida El Dorado 100 97,,        
;3885D581-8982-493B-A3E6-B975D7EAB465;Colômbia;Distrito Capital;Bogotá;Ibis Budget Bogota Marly;;Centro;;;;;4.63643;-74.06417;;;;N;;0;;S;;Colômbia,Distrito Capital,Bogotá,Ibis Budget Bogota Marly,,Centro,        
;4BAA718E-5136-4D40-A482-BE67739A5015;Colômbia;Distrito Capital;Bogotá;Hampton By Hilton Bogota Airport;Cl. 25g 73B90;Centro;;;;;4.66748;-74.11375;;;;N;;0;;S;;Colômbia,Distrito Capital,Bogotá,Hampton By Hilton Bogota Airport,Cl. 25g 73B90,Centro,        
;950DB6F3-0019-43C3-85F9-C37DE06FBAE9;Colômbia;Distrito Capital;Bogotá;Doubletree By Hilton Calle 100;Transversal 21 98 20;;;;;;4.68557;-74.05462;;;;N;;0;;S;;Colômbia,Distrito Capital,Bogotá,Doubletree By Hilton Calle 100,Transversal 21 98 20,,        
;69146FE5-155E-4DB2-ADEA-C71A96A929F5;Colômbia;Distrito Capital;Bogotá;Residence Inn by Marriott Bogota;Calle 90 No 16 30;Centro;;;;;4.67501;-74.05407;;;;N;;0;;S;;Colômbia,Distrito Capital,Bogotá,Residence Inn by Marriott Bogota,Calle 90 No 16 30,Centro,        
;D968844A-9868-42CF-9A0F-CB2C332A035B;Colômbia;Distrito Capital;Bogotá;Nh Bogota Boheme Royal;Calle 82 No. 1235;;;;;;4.66759;-74.05536;;;;N;;0;;S;;Colômbia,Distrito Capital,Bogotá,Nh Bogota Boheme Royal,Calle 82 No. 1235,,        
;EBBDD588-FBE0-46A6-ADAB-DC1C3DCDA003;Colômbia;Distrito Capital;Bogotá;Nh Collection Bogota Teleport Royal;Calle 113 N765;;;;;;4.69195;-74.0354;;;;N;;0;;S;;Colômbia,Distrito Capital,Bogotá,Nh Collection Bogota Teleport Royal,Calle 113 N765,,        
;964B37D8-8939-47DB-8F52-DE8D011A160E;Colômbia;Distrito Capital;Bogotá;Mercure Bogota Bh Retiro;Calle 80 1011;;;;;;4.66759;-74.05536;;;;N;;0;;S;;Colômbia,Distrito Capital,Bogotá,Mercure Bogota Bh Retiro,Calle 80 1011,,        
;267553DB-6459-49F6-97AE-E3EA1D15623F;Colômbia;Distrito Capital;Bogotá;Four Points Bogota;Carrera 18 93a  83;Centro;;;;;4.67959;-74.05343;;;;N;;0;;S;;Colômbia,Distrito Capital,Bogotá,Four Points Bogota,Carrera 18 93a  83,Centro,        
;E9DEA38F-5EDD-4E4C-B79A-E87E608C1377;Colômbia;Distrito Capital;Bogotá;Ibis Bogota Museo;Transversal 6 No 27  85, Centro Internacional;;;;;;4.6149;-74.06892;;;;N;;0;;S;;Colômbia,Distrito Capital,Bogotá,Ibis Bogota Museo,Transversal 6 No 27  85, Centro Internacional,,        
;F4216617-95D2-40E9-B40F-ECF1DE3E9C09;Colômbia;Distrito Capital;Bogotá;Virrey Park;Cra 15;Centro;;;;;4.47152;-74.12577;;;;N;;0;;S;;Colômbia,Distrito Capital,Bogotá,Virrey Park,Cra 15,Centro,        
;D3966708-C481-4214-B154-ED97D1710F1E;Colômbia;Distrito Capital;Bogotá;Hotel Confort 80 Zona Rosa;Cra. 16a 7985, Bogota, Colombia;;;;;;4.66684;-74.05836;;;;N;;0;;S;;Colômbia,Distrito Capital,Bogotá,Hotel Confort 80 Zona Rosa,Cra. 16a 7985, Bogota, Colombia,,        
;282F5BD3-AFA7-4548-935E-F0754450F216;Colômbia;Distrito Capital;Bogotá;Novotel Parque 93;Calle 93 12  41;;;;;;4.67516;-74.04928;;;;N;;0;;S;;Colômbia,Distrito Capital,Bogotá,Novotel Parque 93,Calle 93 12  41,,        
;879FC0FC-5344-48A4-A559-F1ED6EF7CAC0;Colômbia;Distrito Capital;Bogotá;Bioxury Hotel;Calle 83 No 9  48;;;;;;4.66569;-74.05062;;;;N;;0;;S;;Colômbia,Distrito Capital,Bogotá,Bioxury Hotel,Calle 83 No 9  48,,        
;1182BF0B-CA8C-4EF4-9305-FC4B617636BD;Colômbia;Distrito Capital;Bogotá;Courtyard Bogota Marriott;Av. Cll. 26 96j 90;;;;;;4.68756;-74.12748;;;;N;;0;;S;;Colômbia,Distrito Capital,Bogotá,Courtyard Bogota Marriott,Av. Cll. 26 96j 90,,        
;47F934E1-68BB-46E8-AF5C-084B8814AE0E;Índia;Maharashtra;Mumbai;JW Marriott Mumbai Sahar;Chhatrapati Shivaji Inter Airport, IA Project Rd;;;;;;19.10267;72.87805;;0;;N;;0;;S;;Índia,Maharashtra,Mumbai,JW Marriott Mumbai Sahar,Chhatrapati Shivaji Inter Airport, IA Project Rd,,        
;DD329475-1C9D-4442-8346-0C164541E586;Índia;Maharashtra;Mumbai;Majestic Court Sarovar Portico;T.T.C. Industrial Area;;;;;;19.16169;73.00166;;;;N;;0;;S;;Índia,Maharashtra,Mumbai,Majestic Court Sarovar Portico,T.T.C. Industrial Area,,        
;B7AD84B9-6C4F-434B-A30B-0CDAF84E3540;Índia;Maharashtra;Mumbai;Itc Maratha a Luxury Collection Hotel;Sahar, Andheri East, 400099;;;;;;19.11511;72.88229;;;;N;;0;;S;;Índia,Maharashtra,Mumbai,Itc Maratha a Luxury Collection Hotel,Sahar, Andheri East, 400099,,        
;93EEF9F4-6EAE-4EDA-90C7-0E6DAFA29A15;Índia;Maharashtra;Mumbai;Royal Tullip Navi Mumbai;26B, Sector 7;Centro;;;;;19.03375;73.06692;;;;N;;0;;S;;Índia,Maharashtra,Mumbai,Royal Tullip Navi Mumbai,26B, Sector 7,Centro,        
;5A7ED319-ED6C-40F2-AFB4-1D142D949FBA;Índia;Maharashtra;Mumbai;Jw Marriott Mumbai Juhu;Juhu Tara Road, Juhu Tara;;;;;;19.10204;72.82618;;;;N;;0;;S;;Índia,Maharashtra,Mumbai,Jw Marriott Mumbai Juhu,Juhu Tara Road, Juhu Tara,,        
;B41B1D52-2DDE-4336-AACF-2716D0E1BE0F;Índia;Maharashtra;Mumbai;Ramada Navi Mumbai;BLDG 156, Millenium Business Park;;;;;;19.11049;73.01724;;;;N;;0;;S;;Índia,Maharashtra,Mumbai,Ramada Navi Mumbai,BLDG 156, Millenium Business Park,,        
;7475774B-A969-4CFE-9A85-276864C3E26B;Índia;Maharashtra;Mumbai;Hilton Mumbai International Airport;Sahar Airport Rd;Centro;;;;;19.09949;72.87458;;;;N;;0;;S;;Índia,Maharashtra,Mumbai,Hilton Mumbai International Airport,Sahar Airport Rd,Centro,        
;97435AC7-BC2C-41EE-89DA-3F4A09163614;Índia;Maharashtra;Mumbai;Vivanta Navi Mumbai Turbhe;D40 1 Turbhe Midc Road, Turbhe, Navi Mumbai, In;;;;;;19.06269;73.02306;;;;N;;0;;S;;Índia,Maharashtra,Mumbai,Vivanta Navi Mumbai Turbhe,D40 1 Turbhe Midc Road, Turbhe, Navi Mumbai, In,,        
;582E1649-F4F0-470A-A6EB-3F5D3D57E897;Índia;Maharashtra;Mumbai;Grand Hyatt Mumbai Hotel And Residences;Bandra Kurla Complex Vicinity, Off, Western Expres;;;;;;19.10081;72.84145;;;;N;;0;;S;;Índia,Maharashtra,Mumbai,Grand Hyatt Mumbai Hotel And Residences,Bandra Kurla Complex Vicinity, Off, Western Expres,,        
;2BC6F367-ADA9-482D-9CE2-47E1F2F368CD;Índia;Maharashtra;Mumbai;Niranta Airport Transit Hotel;At Chhatrapati Shivaji International Airport T 2;;;;;;19.09436;72.85424;;;;N;;0;;S;;Índia,Maharashtra,Mumbai,Niranta Airport Transit Hotel,At Chhatrapati Shivaji International Airport T 2,,        
;A24CAD6C-2468-43C2-90CD-844757C65A74;Índia;Maharashtra;Mumbai;Novotel Mumbai Juhu Beach;Balraj Sahani Marg;Centro;;;reservationsnomjb@accorhotels.com;;19.10839;72.82453;;;;N;;0;;S;;Índia,Maharashtra,Mumbai,Novotel Mumbai Juhu Beach,Balraj Sahani Marg,Centro,        
;64F8752D-BCAB-40D3-A4C8-AB26CDD1D7FA;Índia;Maharashtra;Mumbai;Ibis Mumbai Airport;F77, Western Express Hwy;;;;;;19.09346;72.85077;;;;N;;0;;S;;Índia,Maharashtra,Mumbai,Ibis Mumbai Airport,F77, Western Express Hwy,,        
;1BF54F46-5679-4CEE-AB75-E6FC1271E649;Índia;Maharashtra;Mumbai;Radisson Blu Mumbai International Airport;Marol Maroshi Road near Marol Metro Station, Andhe;;;;;;19.11032;72.87516;;;;N;;0;;S;;Índia,Maharashtra,Mumbai,Radisson Blu Mumbai International Airport,Marol Maroshi Road near Marol Metro Station, Andhe,,        
;BCAF5112-87D5-402F-912F-0DF2D5F6CFCF;Estados Unidos;Massachusetts;Boston;Home2 Suites By Hilton Boston South Bay;15 Jan Karski Way;;;;;;42.1802;-70.94906;;;;N;;0;;S;;Estados Unidos,Massachusetts,Boston,Home2 Suites By Hilton Boston South Bay,15 Jan Karski Way,,        
;2A6361BE-D9D0-4C06-95E7-2083758F656D;Estados Unidos;Massachusetts;Boston;Doubletree By Hilton Boston Downtown;821 Washington Street;;;;;;42.34896;-71.06415;;;;N;;0;;S;;Estados Unidos,Massachusetts,Boston,Doubletree By Hilton Boston Downtown,821 Washington Street,,        
;49B66412-C33C-42EC-B416-2C76FB47D56B;Estados Unidos;Massachusetts;Boston;Constitution Inn Boston;150 3rd Avenue;;;;;;42.37639;-71.0534;;;;N;;0;;S;;Estados Unidos,Massachusetts,Boston,Constitution Inn Boston,150 3rd Avenue,,        
;1FAC1646-B738-40FA-B408-4299E1D01A49;Estados Unidos;Massachusetts;Boston;Kimpton Nine Zero Hotel;90 Tremont Street;Centro;;;;;42.35876;-71.0601;;0;;N;;0;;S;;Estados Unidos,Massachusetts,Boston,Kimpton Nine Zero Hotel,90 Tremont Street,Centro,        
;EC4AACA0-0DA6-4F03-B982-475A088FDABA;Estados Unidos;Massachusetts;Boston;DoubleTree by Hilton Boston Bedford Glen;44 Middlesex Turnpike;;;;;;42.50986;-71.2357;;;;N;;0;;S;;Estados Unidos,Massachusetts,Boston,DoubleTree by Hilton Boston Bedford Glen,44 Middlesex Turnpike,,        
;081DAD45-0913-4BDE-99B0-4B14999C3E50;Estados Unidos;Massachusetts;Boston;Cambria Hotel Downtown South Boston;6 West Broadway;;;;;;42.34281;-71.05687;;;;N;;0;;S;;Estados Unidos,Massachusetts,Boston,Cambria Hotel Downtown South Boston,6 West Broadway,,        
;A1120420-29F1-406C-B65D-57ABC1A8542D;Estados Unidos;Massachusetts;Boston;Extended Stay America Boston;52 4th Avenue;;;;;;42.39449;-71.25848;;;;N;;0;;S;;Estados Unidos,Massachusetts,Boston,Extended Stay America Boston,52 4th Avenue,,        
;13CA59AC-61F2-4B4F-9C1A-68F1AA1C3CB1;Estados Unidos;Massachusetts;Boston;The Revolution Hotel;40 Berkeley Street;;;;;;42.34594;-71.07087;;;;N;;0;;S;;Estados Unidos,Massachusetts,Boston,The Revolution Hotel,40 Berkeley Street,,        
;A453CA9B-824A-423D-B970-6D4B6B8351FE;Estados Unidos;Massachusetts;Boston;Quality Inn;100 Morris Street;;;;;;42.44611;-71.02418;;;;N;;0;;S;;Estados Unidos,Massachusetts,Boston,Quality Inn,100 Morris Street,,        
;4A2F3C7E-86C9-4B8E-9D4B-7FFEF788F8C8;Estados Unidos;Massachusetts;Boston;Hampton Inn Boston Seaport;670 Summer Street;;;;;;42.3439;-71.03807;;;;N;;0;;S;;Estados Unidos,Massachusetts,Boston,Hampton Inn Boston Seaport,670 Summer Street,,        
;74018176-C67F-4ED7-8703-8F24900F58C4;Estados Unidos;Massachusetts;Boston;Hyatt Centric Faneuil Hall Boston;68 Devonshire St;;;;;;42.35834;-71.05711;;;;N;;0;;S;;Estados Unidos,Massachusetts,Boston,Hyatt Centric Faneuil Hall Boston,68 Devonshire St,,        
;8713F477-413D-44CF-9DAB-93AEBF755A34;Estados Unidos;Massachusetts;Boston;Envision Hotel Boston Longwood, An Ascend Hotel;81 South Huntington Avenue 02130;Centro;;;;;42.32992;-71.11154;;;;N;;0;;S;;Estados Unidos,Massachusetts,Boston,Envision Hotel Boston Longwood, An Ascend Hotel,81 South Huntington Avenue 02130,Centro,        
;B64073A9-9FA3-435C-9976-960FFC680292;Estados Unidos;Massachusetts;Boston;Studio Allston Hotel;1234 Soldiers Field Road;;;;;;42.36373;-71.13637;;;;N;;0;;S;;Estados Unidos,Massachusetts,Boston,Studio Allston Hotel,1234 Soldiers Field Road,,        
;A0DAB467-31DB-48C6-8C45-99CD02947615;Estados Unidos;Massachusetts;Boston;The Fairmont Copley Plaza;138 St James Ave;;;;;;42.34907;-71.07617;;;;N;;0;;S;;Estados Unidos,Massachusetts,Boston,The Fairmont Copley Plaza,138 St James Ave,,        
;AD3515CE-9BC0-45D5-88E9-B0B8FAC23691;Estados Unidos;Massachusetts;Boston;Courtyard by Marriott Boston Norwood;300 River Ridge Drive;;;;;;42.17676;-71.19085;;;;N;;0;;S;;Estados Unidos,Massachusetts,Boston,Courtyard by Marriott Boston Norwood,300 River Ridge Drive,,        
;6C4FB55F-94D5-4C52-8531-B894C60CB0D7;Estados Unidos;Massachusetts;Boston;Yotel Boston;65 Seaport Boulevard;;;;;;42.35233;-71.0473;;;;N;;0;;S;;Estados Unidos,Massachusetts,Boston,Yotel Boston,65 Seaport Boulevard,,        
;1D367A5B-C3E3-4E14-89C1-C80FED4F36CF;Estados Unidos;Massachusetts;Boston;DoubleTree by Hilton Boston Rockland;929 Hingham Street;;;;;;42.16597;-70.89318;;;;N;;0;;S;;Estados Unidos,Massachusetts,Boston,DoubleTree by Hilton Boston Rockland,929 Hingham Street,,        
;6B074C43-5E2B-4AFE-96BC-C968AA7C9B79;Estados Unidos;Massachusetts;Boston;The Whitney;170 Charles Street;;;;;;42.36065;-71.07122;;;;N;;0;;S;;Estados Unidos,Massachusetts,Boston,The Whitney,170 Charles Street,,        
;79BE9028-E87E-4283-9275-CFB70281B3E2;Estados Unidos;Massachusetts;Boston;Moxy Boston Downtown;240 Tremont Street;Centro;;;;;42.35097;-71.06478;;;;N;;0;;S;;Estados Unidos,Massachusetts,Boston,Moxy Boston Downtown,240 Tremont Street,Centro,        
;57C4A6A0-4C56-4ECD-96EE-D1ED29E559C5;Estados Unidos;Massachusetts;Boston;Best Western Rockland;909 Hingham Street;;;;;;42.16088;-70.90135;;;;N;;0;;S;;Estados Unidos,Massachusetts,Boston,Best Western Rockland,909 Hingham Street,,        
;D7E3F99A-3582-4E03-A43E-E235418DC11F;Estados Unidos;Massachusetts;Boston;The Colonnade Hotel;120 Huntington Avenue;Centro;;;;;42.34552;-71.08107;;;;N;;0;;S;;Estados Unidos,Massachusetts,Boston,The Colonnade Hotel,120 Huntington Avenue,Centro,        
;682CA0EA-C6CE-493D-B139-E5876B4FDE17;Estados Unidos;Massachusetts;Boston;Att Place Boston Seaport District;295 Northern Ave;;;;;;42.34765;-71.03678;;;;N;;0;;S;;Estados Unidos,Massachusetts,Boston,Att Place Boston Seaport District,295 Northern Ave,,        
;E802C8C0-C3F1-4C47-8A5B-EBB001B418BF;Estados Unidos;Massachusetts;Boston;Four Seasons Hotel Boston;200 Boylston Street;;;;;;42.35209;-71.06831;;;;N;;0;;S;;Estados Unidos,Massachusetts,Boston,Four Seasons Hotel Boston,200 Boylston Street,,        
;85B7D56B-80B3-4939-93B1-F32EEE5AC6B4;Estados Unidos;Massachusetts;Boston;SpringHill Suites by Marriott Boston Peabody;43 Newbury Street  Route 1 North;;;;;;42.52435;-70.99432;;;;N;;0;;S;;Estados Unidos,Massachusetts,Boston,SpringHill Suites by Marriott Boston Peabody,43 Newbury Street  Route 1 North,,        
;F13D2EBA-A396-438C-B7A5-DD7542ABF82A;Argentina;Rio Negro;San Carlos de Bariloche;Huinid Pioneros Hotel;Av. de los Pioneros 2649, R8400;;;;;;-41.135;-71.34181;;;;N;;0;;S;;Argentina,Rio Negro,San Carlos de Bariloche,Huinid Pioneros Hotel,Av. de los Pioneros 2649, R8400,,        
;7D165307-38B2-4E68-AEEA-B5314B1B32BB;Estados Unidos;Texas;Brownsville;Hampton Inn And Suites Brownsville;3000 North Expressway;;;;;;25.96032;-97.50822;;;;N;;0;;S;;Estados Unidos,Texas,Brownsville,Hampton Inn And Suites Brownsville,3000 North Expressway,,        
;3952D045-883D-4FF6-B36B-14B7CCBAE3DF;República Tcheca;;Brno;Hotel International Brno;Husova 16;;;;;;49.19499;16.60548;;;;N;;0;;S;;República Tcheca,,Brno,Hotel International Brno,Husova 16,,        
;AD295A79-F8C2-41ED-BD05-42D8EFCBB92D;Bélgica;;Brussels;Ibis Brussels City Centre;Rue Joseph Plateau 2;;;;;;50.85056;4.34927;;;;N;;0;;S;;Bélgica,,Brussels,Ibis Brussels City Centre,Rue Joseph Plateau 2,,        
;EB21FED2-3E16-49C3-90C2-65AC7F6665C6;Bélgica;;Brussels;Van Der Valk Brussels Airport;Culliganlaan 4;;;;;;50.88742;4.45303;;;;N;;0;;S;;Bélgica,,Brussels,Van Der Valk Brussels Airport,Culliganlaan 4,,        
;02DCA437-265F-4430-B75C-7C9A1D1C04A8;Bélgica;;Brussels;The Dominican;Rue Leopold 9;;;;;;50.84925;4.35476;;;;N;;0;;S;;Bélgica,,Brussels,The Dominican,Rue Leopold 9,,        
;BBBB4DB4-4E1C-423F-9765-7EDF063E356A;Bélgica;;Brussels;Hotel Le Plaza Brussels;Boulevard Adolphe Maxlaan 118 126;;;;;;50.85428;4.35615;;;;N;;0;;S;;Bélgica,,Brussels,Hotel Le Plaza Brussels,Boulevard Adolphe Maxlaan 118 126,,        
;7A46E85A-0659-4EC8-960C-85418845E695;Bélgica;;Brussels;Best Western Hotel Brussels South;E19, 1601;;;;;;50.77641;4.30088;;;;N;;0;;S;;Bélgica,,Brussels,Best Western Hotel Brussels South,E19, 1601,,        
;73264226-AE78-4D44-B6E8-B99D9C6D0297;Bélgica;;Brussels;Crowne Plaza Brussels Airport;Da Vincilaan 4;;;;;;50.83953;4.36481;;;;N;;0;;S;;Bélgica,,Brussels,Crowne Plaza Brussels Airport,Da Vincilaan 4,,        
;318A528B-EE79-4E7D-9543-BD6175CB8CE9;Bélgica;;Brussels;Hotel Park Inn by Radisson Brussels Airport;Grensstraat 3;Centro;;;reservations.radissonba@parkinn.com;;50.88281;4.44892;;0;;N;;0;;S;;Bélgica,,Brussels,Hotel Park Inn by Radisson Brussels Airport,Grensstraat 3,Centro,        
;5A11B0AD-EC30-4E53-9FB0-D4953A791108;Bélgica;;Brussels;Hotel Nh Collection Brussels Centre;Boulevard Adolphe Max 7;;;;;;50.85217;4.35423;;;;N;;0;;S;;Bélgica,,Brussels,Hotel Nh Collection Brussels Centre,Boulevard Adolphe Max 7,,        
;DBBF9ED6-EE78-4C9D-A3D4-690FDDF44733;Reino Unido;;Brighton;Royal Albion Hotel;35 Old Steine;;;;;;50.81961;-0.13715;;;;N;;0;;S;;Reino Unido,,Brighton,Royal Albion Hotel,35 Old Steine,,        
;1DC912F9-B462-4CFE-9651-23B16CF78AB8;Hungria;;Budapest;K+K Hotel Opera Budapest;Revay U. 24;;;;;;47.50225;19.05772;;;;N;;0;;S;;Hungria,,Budapest,K+K Hotel Opera Budapest,Revay U. 24,,        
;5AC454AD-403B-4F2B-9D8B-2F7D573C3525;Hungria;;Budapest;Budapest Eye Luxury Suites;1065 Budapeste, 3 BajcsyZsilinszky Ut;;;;;;47.49838;19.05513;;;;N;;0;;S;;Hungria,,Budapest,Budapest Eye Luxury Suites,1065 Budapeste, 3 BajcsyZsilinszky Ut,,        
;6C890B85-4426-47BA-9180-4717DF4DA14D;Hungria;;Budapest;Crowne Plaz Budapeste;Budapest, Vaci ut 13, 1062;;;;;;47.49438;19.05218;;;;N;;0;;S;;Hungria,,Budapest,Crowne Plaz Budapeste,Budapest, Vaci ut 13, 1062,,        
;634C56A8-8A00-40B5-A179-BC53C844FCA1;Hungria;;Budapest;Erzsebet City Center Hotel;Karolyi Utca 1115;;;;;;47.49185;19.05716;;;;N;;0;;S;;Hungria,,Budapest,Erzsebet City Center Hotel,Karolyi Utca 1115,,        
;FB2AEFBA-A21E-4C30-97B8-D2F68D49ACA8;Hungria;;Budapest;Hilton Garden Inn Budapest City Center;Lazar Utca 11 To 13;;;;;;47.50234;19.05649;;;;N;;0;;S;;Hungria,,Budapest,Hilton Garden Inn Budapest City Center,Lazar Utca 11 To 13,,        
;A49463F5-416D-404C-B4A6-DD217B8F45B3;Hungria;;Budapest;Hotel Parlament;Budapest, Kalman Imre U. 19;;;;;;47.5068;19.05321;;;;N;;0;;S;;Hungria,,Budapest,Hotel Parlament,Budapest, Kalman Imre U. 19,,        
;E16F58C3-BBB5-41F3-AC10-F81E6DB3D240;Hungria;;Budapest;Novotel Budapest Centrum;Ntak Sz 22041413, Rakoczi ut 43 45;;;;;;47.49734;19.07195;;;;N;;0;;S;;Hungria,,Budapest,Novotel Budapest Centrum,Ntak Sz 22041413, Rakoczi ut 43 45,,        
;4AD40F2F-2CC4-46F7-A3F3-04192A269271;Argentina;Buenos Aires;Buenos Aires;Crisol Mundial Hotel;Avenida De Mayo 1298;;;;;;-34.60935;-58.38478;;;;N;;0;;S;;Argentina,Buenos Aires,Buenos Aires,Crisol Mundial Hotel,Avenida De Mayo 1298,,        
;4A593ABB-C484-4B45-9028-043292AB489A;Argentina;Buenos Aires;Buenos Aires;Unique Palacio Chic;Laprida 1910;;;;;;-34.58835;-58.40082;;;;N;;0;;S;;Argentina,Buenos Aires,Buenos Aires,Unique Palacio Chic,Laprida 1910,,        
;330275E9-C9DA-4607-9300-04919C3F76BB;Argentina;Buenos Aires;Buenos Aires;Loi Suites Esmeralda;Loi Suites Esmeralda;;;;;;-34.59645;-58.37907;;;;N;;0;;S;;Argentina,Buenos Aires,Buenos Aires,Loi Suites Esmeralda,Loi Suites Esmeralda,,        
;EE6526CF-D1F2-46E8-A868-055884BF8414;Argentina;Buenos Aires;Buenos Aires;Alvear Icon Hotel;Aime Paine 1130 Buenos Aires Ar C1107cfb;Centro;;;;;-34.61061;-58.36196;;;;N;;0;;S;;Argentina,Buenos Aires,Buenos Aires,Alvear Icon Hotel,Aime Paine 1130 Buenos Aires Ar C1107cfb,Centro,        
;31361BCD-3045-4A1E-A190-060D6D324440;Argentina;Buenos Aires;Buenos Aires;Grand View Hotel E Convention Center;Azcuenaga 45, C1034aco;;;;;;-34.60939;-58.40045;;;;N;;0;;S;;Argentina,Buenos Aires,Buenos Aires,Grand View Hotel E Convention Center,Azcuenaga 45, C1034aco,,        
;D4E66E99-D1B4-417D-B0A3-067B8941B405;Argentina;Buenos Aires;Buenos Aires;Hotel Avenida Buenos Aires;AV DE MAYO 623;ex;;;camilasilva@kontik.com.br;;-34.60862;-58.37525;;;;N;;0;;S;;Argentina,Buenos Aires,Buenos Aires,Hotel Avenida Buenos Aires,AV DE MAYO 623,ex,        
;AA260A56-493E-4065-A707-0DB267369068;Argentina;Buenos Aires;Buenos Aires;Esplendor Plaza Francia;Eduardo Schiaffino 2189;;;;;;-34.58556;-58.38885;;;;N;;0;;S;;Argentina,Buenos Aires,Buenos Aires,Esplendor Plaza Francia,Eduardo Schiaffino 2189,,        
;1E4C6F5C-3D90-4877-8659-0FC7881F1B23;Argentina;Buenos Aires;Buenos Aires;Holiday Inn Express Puerto Madero;Av Leandro N Alem 770;;;;;;-34.59878;-58.37118;;;;N;;0;;S;;Argentina,Buenos Aires,Buenos Aires,Holiday Inn Express Puerto Madero,Av Leandro N Alem 770,,        
;129F72FB-0DAA-4468-845E-18E7AB446357;Argentina;Buenos Aires;Buenos Aires;CasaSur Recoleta;Avenue Callao 1823;;;;;;-34.58896;-58.38866;;;;N;;0;;S;;Argentina,Buenos Aires,Buenos Aires,CasaSur Recoleta,Avenue Callao 1823,,        
;7E8260E8-E8C7-4D87-90EA-23A875057207;Argentina;Buenos Aires;Buenos Aires;Dazzler by Wyndham Buenos Aires San Martin;AAT, San Martin 920;San Martin;;;;;-34.59715;-58.37431;;;;N;;0;;S;;Argentina,Buenos Aires,Buenos Aires,Dazzler by Wyndham Buenos Aires San Martin,AAT, San Martin 920,San Martin,        
;BD1ADD87-386B-4149-B856-29CEF5A9B8C5;Argentina;Buenos Aires;Buenos Aires;Epico Recoleta Hotel;Laprida 1902;;;;;;-34.58838;-58.40086;;;;N;;0;;S;;Argentina,Buenos Aires,Buenos Aires,Epico Recoleta Hotel,Laprida 1902,,        
;E302BEC1-1A5A-4902-8B2A-2AB0A60F51E9;Argentina;Buenos Aires;Buenos Aires;Hotel Alpino;Cabello 3318;Palermo;;;;;-34.58166;-58.40793;;;;N;;0;;S;;Argentina,Buenos Aires,Buenos Aires,Hotel Alpino,Cabello 3318,Palermo,        
;2C3557AB-57D1-464C-A208-390206955D25;Argentina;Buenos Aires;Buenos Aires;Hotel Mayflower Suites;Parana, 720;;;;;;-34.60036;-58.38816;;;;N;;0;;S;;Argentina,Buenos Aires,Buenos Aires,Hotel Mayflower Suites,Parana, 720,,        
;BD89CAD6-3AF2-4406-AB7E-3E581B1CA243;Argentina;Buenos Aires;Buenos Aires;Espacia Suites;Amenabar 1135;;;;;;-34.5702;-58.45008;;;;N;;0;;S;;Argentina,Buenos Aires,Buenos Aires,Espacia Suites,Amenabar 1135,,        
;D868A1D3-B21A-41F4-A5CA-409D9E42AA0C;Argentina;Buenos Aires;Buenos Aires;Sofitel Buenos Aires Recoleta;Posadas 1232, C1011 Cdad. Autonoma de Buenos Aires;;;;;;-34.58936;-58.38407;;;;N;;0;;S;;Argentina,Buenos Aires,Buenos Aires,Sofitel Buenos Aires Recoleta,Posadas 1232, C1011 Cdad. Autonoma de Buenos Aires,,        
;6746866C-FD57-49D3-8060-4823B59EC007;Argentina;Buenos Aires;Buenos Aires;Palacio Paz Hotel;Av. Santa Fe 760;Centro;;;;;-34.59537;-58.3776;;;;N;;0;;S;;Argentina,Buenos Aires,Buenos Aires,Palacio Paz Hotel,Av. Santa Fe 760,Centro,        
;B71B495A-4322-401A-A25F-48D54E69C941;Argentina;Buenos Aires;Buenos Aires;725 Continental Hotel;Av. Pres. Roque Saenz Pena 725;;;;;;-34.60603;-58.37694;;;;N;;0;;S;;Argentina,Buenos Aires,Buenos Aires,725 Continental Hotel,Av. Pres. Roque Saenz Pena 725,,        
;26820ED5-D92B-4B16-B983-4C8345FDB4DE;Argentina;Buenos Aires;Buenos Aires;Urbanica The Libertador Hotel;Av. Del Libertador 5690;;;;;;-34.55986;-58.4454;;;;N;;0;;S;;Argentina,Buenos Aires,Buenos Aires,Urbanica The Libertador Hotel,Av. Del Libertador 5690,,        
;D458731F-82D4-4ABF-9299-4DD955B14C70;Argentina;Buenos Aires;Buenos Aires;Pestana Buenos Aires;Carlos Pellegrini, 877 C1009ABQ;;;;;;-34.59825;-58.38125;;;;N;;0;;S;;Argentina,Buenos Aires,Buenos Aires,Pestana Buenos Aires,Carlos Pellegrini, 877 C1009ABQ,,        
;05DE7DDA-2675-4F7B-B5F6-4F6461DDFDD4;Argentina;Buenos Aires;Buenos Aires;Sheraton Buenos Aires Hotel And Convention Center;San Martin 1225 1275;;;;;;-34.59494;-58.37458;;;;N;;0;;S;;Argentina,Buenos Aires,Buenos Aires,Sheraton Buenos Aires Hotel And Convention Center,San Martin 1225 1275,,        
;33313909-4639-46B5-A662-506FD1D2097E;Argentina;Buenos Aires;Buenos Aires;Ibis Styles Buenos Aires Florida;Avenida Corrientes 628 632;;;;;;-34.60343;-58.3757;;;;N;;0;;S;;Argentina,Buenos Aires,Buenos Aires,Ibis Styles Buenos Aires Florida,Avenida Corrientes 628 632,,        
;791E8201-A186-46AB-A666-52AA0639C967;Argentina;Buenos Aires;Buenos Aires;Howard Johnson Plaza Buenos Aires;Lima 653;;;;;;-34.61592;-58.38165;;;;N;;0;;S;;Argentina,Buenos Aires,Buenos Aires,Howard Johnson Plaza Buenos Aires,Lima 653,,        
;8796AB8B-9B07-4643-A43B-557BD1CBD474;Argentina;Buenos Aires;Buenos Aires;Esplendor by Wyndham Buenos Aires Tango;Avenida Rivadavia 947;;;;;;-34.6083;-58.37983;;;;N;;0;;S;;Argentina,Buenos Aires,Buenos Aires,Esplendor by Wyndham Buenos Aires Tango,Avenida Rivadavia 947,,        
;82979C08-AC01-47A8-977E-60C7074115B2;Argentina;Buenos Aires;Buenos Aires;Palermo Suites Buenos Aires;Fray Justo Santa Maria De Oro 2529;;;;;;-34.57886;-58.42391;;;;N;;0;;S;;Argentina,Buenos Aires,Buenos Aires,Palermo Suites Buenos Aires,Fray Justo Santa Maria De Oro 2529,,        
;B5B71B96-E372-46B0-8470-626379BADF31;Argentina;Buenos Aires;Buenos Aires;Hr Luxor Buenos Aires;Avenida Roque Saenz Pena, 890;Centro;;;;;-34.60498;-58.37924;;;;N;;0;;S;;Argentina,Buenos Aires,Buenos Aires,Hr Luxor Buenos Aires,Avenida Roque Saenz Pena, 890,Centro,        
;5FAE22F2-73DB-4403-82D0-673FA5F96712;Argentina;Buenos Aires;Buenos Aires;Kenton Palace Buenos Aires;Defensa 383;;;;;;-34.61221;-58.37198;;;;N;;0;;S;;Argentina,Buenos Aires,Buenos Aires,Kenton Palace Buenos Aires,Defensa 383,,        
;7F536FEE-E932-40CC-BBC6-6DA6D2DCD43E;Argentina;Buenos Aires;Buenos Aires;Hotel Nh Collection Buenos Aires Crillon;Av. Sta. Fe 796, C1059abo;Caba;;;;;-34.59516;-58.37828;;;;N;;0;;S;;Argentina,Buenos Aires,Buenos Aires,Hotel Nh Collection Buenos Aires Crillon,Av. Sta. Fe 796, C1059abo,Caba,        
;1A23A2D3-C3E0-491F-B866-70E43ECC8D71;Argentina;Buenos Aires;Buenos Aires;Nh Collection Buenos Aires Lancaster;Avenida Cordoba 405;Centro;;;;;-34.59844;-58.37295;;;;N;;0;;S;;Argentina,Buenos Aires,Buenos Aires,Nh Collection Buenos Aires Lancaster,Avenida Cordoba 405,Centro,        
;CF5D3E3E-9309-4491-A269-71FB84E76AF9;Argentina;Buenos Aires;Buenos Aires;Nh Buenos Aires City;Bolivar 160, C1066aad ;;;;;;-34.60985;-58.37341;;;;N;;0;;S;;Argentina,Buenos Aires,Buenos Aires,Nh Buenos Aires City,Bolivar 160, C1066aad ,,        
;A44A15C4-9F54-46A3-8617-82B150565F89;Argentina;Buenos Aires;Buenos Aires;CasaSur Pilar Hotel;Rua Caamaño 1370, B1631 Bvb;;;;;;-34.40844;-58.85116;;;;N;;0;;S;;Argentina,Buenos Aires,Buenos Aires,CasaSur Pilar Hotel,Rua Caamaño 1370, B1631 Bvb,,        
;0E4C15F9-3527-4EB3-B25D-85E92A03F096;Argentina;Buenos Aires;Buenos Aires;Rendez Vous Hotel Buenos Aires;Bonpland 1484;;;;;;-34.58514;-58.43948;;;;N;;0;;S;;Argentina,Buenos Aires,Buenos Aires,Rendez Vous Hotel Buenos Aires,Bonpland 1484,,        
;75C06E43-D9EB-4A28-A616-8881A387E94D;Argentina;Buenos Aires;Buenos Aires;Casasur Palermo;Costa Rica 6032;Palermo;;;;;-34.57925;-58.43915;;;;N;;0;;S;;Argentina,Buenos Aires,Buenos Aires,Casasur Palermo,Costa Rica 6032,Palermo,        
;7C17CE5A-2464-4060-B801-88ABB7FA89EE;Argentina;Buenos Aires;Buenos Aires;Ibis Buenos Aires Obelisco;Corrientes, 1344 Esq. Talcahuano Y Uruguay;;;;;;-34.60402;-58.38571;;;;N;;0;;S;;Argentina,Buenos Aires,Buenos Aires,Ibis Buenos Aires Obelisco,Corrientes, 1344 Esq. Talcahuano Y Uruguay,,        
;C6E59F7A-AD57-42BA-A319-973BDA4D47E6;Argentina;Buenos Aires;Buenos Aires;Gran Hotel De La Paix;Av. Rivadavia 1155;;;;;;-34.60849;-58.38276;;;;N;;0;;S;;Argentina,Buenos Aires,Buenos Aires,Gran Hotel De La Paix,Av. Rivadavia 1155,,        
;DD6667B6-D010-433F-B01C-97FF50B3A99F;Argentina;Buenos Aires;Buenos Aires;Atempo Design Hotel;Arevalo 1564;;;;;;-34.58208;-58.4418;;;;N;;0;;S;;Argentina,Buenos Aires,Buenos Aires,Atempo Design Hotel,Arevalo 1564,,        
;F8007E7A-59FC-4C7F-BADB-9A56BB7F76EA;Argentina;Buenos Aires;Buenos Aires;Hotel Golf Tower Suites And Apartaments;La Pampa 1117;;;;;;-34.557;-58.44107;;;;N;;0;;S;;Argentina,Buenos Aires,Buenos Aires,Hotel Golf Tower Suites And Apartaments,La Pampa 1117,,        
;8DC9D051-011D-494A-A458-9CB04660730D;Argentina;Buenos Aires;Buenos Aires;Hilton Buenos Aires;Macacha Guemes 351, C1106BKG;;;;;;-34.60591;-58.36367;;;;N;;0;;S;;Argentina,Buenos Aires,Buenos Aires,Hilton Buenos Aires,Macacha Guemes 351, C1106BKG,,        
;1245585F-8751-49C3-A319-9E95077DB18F;Argentina;Buenos Aires;Buenos Aires;Believe Madero Hotel;Chile 80 Puerto Madero;Puerto Madero;;;;;-34.6032;-58.36809;;;;N;;0;;S;;Argentina,Buenos Aires,Buenos Aires,Believe Madero Hotel,Chile 80 Puerto Madero,Puerto Madero,        
;C116C514-111B-4772-9A9C-A24577FD36DD;Argentina;Buenos Aires;Buenos Aires;Dazzler By Wyndham Buenos Aires Recoleta;Avenida General Las Heras 2161;;;;;;-34.58878;-58.39543;;;;N;;0;;S;;Argentina,Buenos Aires,Buenos Aires,Dazzler By Wyndham Buenos Aires Recoleta,Avenida General Las Heras 2161,,        
;952B35C5-49BA-45D1-A8EB-A3C00897D8A3;Argentina;Buenos Aires;Buenos Aires;Be Hollywood;Humboldt, 1726;;;;;;-34.58459;-58.43515;;;;N;;0;;S;;Argentina,Buenos Aires,Buenos Aires,Be Hollywood,Humboldt, 1726,,        
;2804839D-261C-4701-AD42-A46A9CB19DAE;Argentina;Buenos Aires;Buenos Aires;Hotel Nh Buenos Aires 9 de Julio;Cerrito 154;Centro;;;;;-34.60672;-58.3821;;;;N;;0;;S;;Argentina,Buenos Aires,Buenos Aires,Hotel Nh Buenos Aires 9 de Julio,Cerrito 154,Centro,        
;6D6EDFF9-0D2C-4E57-A92E-ACBE8F80E56E;Argentina;Buenos Aires;Buenos Aires;Dazzler By Wyndham Buenos Aires Polo;Sinclair, 2929;;;;;;-34.57597;-58.42397;;;;N;;0;;S;;Argentina,Buenos Aires,Buenos Aires,Dazzler By Wyndham Buenos Aires Polo,Sinclair, 2929,,        
;AE23924E-995C-4FF5-B7F6-ADD12A5AAF80;Argentina;Buenos Aires;Buenos Aires;Mine Hotel Boutique;Gorriti 4770;;;;;;-34.59097;-58.42886;;;;N;;0;;S;;Argentina,Buenos Aires,Buenos Aires,Mine Hotel Boutique,Gorriti 4770,,        
;312B0357-FF85-47B1-9C09-AEE736A178D9;Argentina;Buenos Aires;Buenos Aires;Howard Johnson Hotel Resort And Convention Center ;Martin Miguel de Guemes 4718;;;;;;-34.59494;-58.37458;;;;N;;0;;S;;Argentina,Buenos Aires,Buenos Aires,Howard Johnson Hotel Resort And Convention Center ,Martin Miguel de Guemes 4718,,        
;7484C001-B6DD-41A2-9431-B63BB9BAAA3E;Argentina;Buenos Aires;Buenos Aires;Hotel Casa Umare;Billinghurst 362;;;;;;-34.60621;-58.41619;;;;N;;0;;S;;Argentina,Buenos Aires,Buenos Aires,Hotel Casa Umare,Billinghurst 362,,        
;057AFC6A-E1BE-4018-97C4-B8B38AEC5444;Argentina;Buenos Aires;Buenos Aires;Dazzler By Wyndham Buenos Aires Palermo;Humboldt 1650;;;;;;-34.58521;-58.43586;;;;N;;0;;S;;Argentina,Buenos Aires,Buenos Aires,Dazzler By Wyndham Buenos Aires Palermo,Humboldt 1650,,        
;94FF1616-AB7A-4E62-9D8D-B93883446DC3;Argentina;Buenos Aires;Buenos Aires;Hotel Konke Buenos Aires;Av. Corrientes, 4320;;;;;;-34.60276;-58.42598;;;;N;;0;;S;;Argentina,Buenos Aires,Buenos Aires,Hotel Konke Buenos Aires,Av. Corrientes, 4320,,        
;12A74B6F-AD15-41B3-A6C2-B9774DDCD7A3;Argentina;Buenos Aires;Buenos Aires;Buenos Aires Marriott;Carlos Pellegrini 551, C1009 CABA;Centro;;;camilasilva@kontik.com.br;;-34.60207;-58.38101;;;;N;;0;;S;;Argentina,Buenos Aires,Buenos Aires,Buenos Aires Marriott,Carlos Pellegrini 551, C1009 CABA,Centro,        
;FBA7E6A9-9D93-4264-9647-BAF0713B1A56;Argentina;Buenos Aires;Buenos Aires;Hotel Nh Tango;Cerrito, 550;Caba;;;;;-34.60192;-58.38246;;;;N;;0;;S;;Argentina,Buenos Aires,Buenos Aires,Hotel Nh Tango,Cerrito, 550,Caba,        
;03D7FB26-251F-4C0A-9539-BEEAED2AF26C;Argentina;Buenos Aires;Buenos Aires;Selina Palermo;Guatemala 4931;;;;;;-34.58464;-58.4265;;;;N;;0;;S;;Argentina,Buenos Aires,Buenos Aires,Selina Palermo,Guatemala 4931,,        
;CC3194A8-05CD-4C5D-8AFE-BFC00897394F;Argentina;Buenos Aires;Buenos Aires;Nh Buenos Aires Florida;San Martin, 839;;;;;;-34.5992;-58.37417;;;;N;;0;;S;;Argentina,Buenos Aires,Buenos Aires,Nh Buenos Aires Florida,San Martin, 839,,        
;91E0DF4A-B25E-4E3F-BB61-CB3FCA0E7CD8;Argentina;Buenos Aires;Buenos Aires;Top Rentals Libertador;Av. Del Libertador 6299;;;;;;-34.55395;-58.44989;;;;N;;0;;S;;Argentina,Buenos Aires,Buenos Aires,Top Rentals Libertador,Av. Del Libertador 6299,,        
;EC1AF330-913D-4EBA-B733-CC4996940DFB;Argentina;Buenos Aires;Buenos Aires;Hotel Nh Buenos Aires Latino;Suipacha 309;;;;;;-34.60468;-58.37936;;;;N;;0;;S;;Argentina,Buenos Aires,Buenos Aires,Hotel Nh Buenos Aires Latino,Suipacha 309,,        
;6D3E1308-F9AB-471E-BC92-CC65A2F6F985;Argentina;Buenos Aires;Buenos Aires;474 Buenos Aires Hotel;San Martin, 474;;;;;;-34.60249;-58.37392;;;;N;;0;;S;;Argentina,Buenos Aires,Buenos Aires,474 Buenos Aires Hotel,San Martin, 474,,        
;57284ACC-6CED-4018-A137-CCCBC8A60C01;Argentina;Buenos Aires;Buenos Aires;Ramada by Wyndham Buenos Aires Vicente Lopez;BOO, Gral. Jose de San Martin 450;;;;;;-34.5192;-58.47278;;;;N;;0;;S;;Argentina,Buenos Aires,Buenos Aires,Ramada by Wyndham Buenos Aires Vicente Lopez,BOO, Gral. Jose de San Martin 450,,        
;11BF006D-2E8D-45B6-92C2-D4D0E9661F51;Argentina;Buenos Aires;Buenos Aires;Cerrito Colorado Hotel de Campo;Ruta Provincial 65, km 79;;;;;;-34.60849;-58.37344;;;;N;;0;;S;;Argentina,Buenos Aires,Buenos Aires,Cerrito Colorado Hotel de Campo,Ruta Provincial 65, km 79,,        
;A77C8155-E6D5-4750-89A3-D5EEEB6563FA;Argentina;Buenos Aires;Buenos Aires;Byblos Palermo Soho;El Salvador 4500;;;;;;-34.59098;-58.42487;;;;N;;0;;S;;Argentina,Buenos Aires,Buenos Aires,Byblos Palermo Soho,El Salvador 4500,,        
;6782B037-F860-4AC6-8669-D8DEB30186CA;Argentina;Buenos Aires;Buenos Aires;Madero Urbano Studios;ADL, Azopardo 770;;;;;;-34.61655;-58.36747;;;;N;;0;;S;;Argentina,Buenos Aires,Buenos Aires,Madero Urbano Studios,ADL, Azopardo 770,,        
;9487B9D8-8131-4B96-9E6C-DAC83A15BFAA;Argentina;Buenos Aires;Buenos Aires;Awwa Suites And Spa;Lafinur 3370;Centro;;;;;-34.57698;-58.41218;;;;N;;0;;S;;Argentina,Buenos Aires,Buenos Aires,Awwa Suites And Spa,Lafinur 3370,Centro,        
;F05B56BF-6CEE-4596-B034-E5217C5DC410;Argentina;Buenos Aires;Buenos Aires;Cla Lauquen Hotel & Eventos;RN5 B6500;Centro;;;;;-35.4719;-60.85567;;;;N;;0;;S;;Argentina,Buenos Aires,Buenos Aires,Cla Lauquen Hotel & Eventos,RN5 B6500,Centro,        
;152E3604-7C1D-4CCB-ABE1-E569CEAD457F;Argentina;Buenos Aires;Buenos Aires;Hotel Pulitzer Buenos Aires;Maipu 907;;;;;;-34.5974;-58.37675;;;;N;;0;;S;;Argentina,Buenos Aires,Buenos Aires,Hotel Pulitzer Buenos Aires,Maipu 907,,        
;D23FF972-9503-4F34-94D7-E66B384D2325;Argentina;Buenos Aires;Buenos Aires;Ilum Experience Home;Bonpland 1762;;;;;;-34.58281;-58.43681;;;;N;;0;;S;;Argentina,Buenos Aires,Buenos Aires,Ilum Experience Home,Bonpland 1762,,        
;F042AFD2-4FB9-4F9C-98EC-E74AB94007A3;Argentina;Buenos Aires;Buenos Aires;Dazzler by Wyndham Buenos Aires Maipu;Maipu 856;;;;;;-36.86364;-57.88398;;;;N;;0;;S;;Argentina,Buenos Aires,Buenos Aires,Dazzler by Wyndham Buenos Aires Maipu,Maipu 856,,        
;250E8976-FE77-4B8C-854A-EB14A6C4C06B;Argentina;Buenos Aires;Buenos Aires;Flaat Recoleta Plaza;C1018ACB, ACB, Montevideo 1250;;;;;;-34.59468;-58.39008;;;;N;;0;;S;;Argentina,Buenos Aires,Buenos Aires,Flaat Recoleta Plaza,C1018ACB, ACB, Montevideo 1250,,        
;7F4520EE-3B4C-4A97-9EA7-EBD056A74B6C;Argentina;Buenos Aires;Buenos Aires;NH Collection Buenos Aires Centro Historico;Bolivar 120;;;;;;-34.6095;-58.37345;;;;N;;0;;S;;Argentina,Buenos Aires,Buenos Aires,NH Collection Buenos Aires Centro Historico,Bolivar 120,,        
;693444C8-2DC4-4C9C-8167-ECCDE17E95BD;Argentina;Buenos Aires;Buenos Aires;Feirs Park Hotel;Esmeralda, 1366;;;;;;-34.59179;-58.37832;;;;N;;0;;S;;Argentina,Buenos Aires,Buenos Aires,Feirs Park Hotel,Esmeralda, 1366,,        
;F27344D1-8F12-4EA4-BD4F-FAA6C14D4B65;Argentina;Buenos Aires;Buenos Aires;Gran Hotel Mercedes;C. 16, Mercedes;;;;;;-34.65393;-59.43286;;;;N;;0;;S;;Argentina,Buenos Aires,Buenos Aires,Gran Hotel Mercedes,C. 16, Mercedes,,        
;AA9DCAA9-CC1C-4A54-984B-FB4289046C32;Argentina;Buenos Aires;Buenos Aires;Le Petit Palais;Gorriti 3574;Centro;;;;;-34.59565;-58.41471;;;;N;;0;;S;;Argentina,Buenos Aires,Buenos Aires,Le Petit Palais,Gorriti 3574,Centro,        
;E2C56EC5-5462-4CBD-A7D5-6F57DFBD9808;Alemanha;Baixa Saxônia;Brunsvique;Best Western City Hotel Braunschweig;FriedrichWilhelmStrasse 2629;;;;;;52.2613;10.52247;;;;N;;0;;S;;Alemanha,Baixa Saxônia,Brunsvique,Best Western City Hotel Braunschweig,FriedrichWilhelmStrasse 2629,,        
;3909F353-87F3-470C-9CF9-7A544E775210;Alemanha;Baixa Saxônia;Brunsvique;Mercure Hotel Atrium Braunschweig;Berliner Platz 3;;;;;;52.25324;10.53733;;;;N;;0;;S;;Alemanha,Baixa Saxônia,Brunsvique,Mercure Hotel Atrium Braunschweig,Berliner Platz 3,,        
;177EC4BD-D456-4EAC-BFE8-95A6757F6A12;Estados Unidos;;Baltimore;The Hotel At Arundel Preserve;7795 Arundel Mills Blvd;Centro;;;;;39.15206;-76.74411;;;;N;;0;;S;;Estados Unidos,,Baltimore,The Hotel At Arundel Preserve,7795 Arundel Mills Blvd,Centro,        
;5FAB3511-BC92-42A6-94DC-EF2A81613E18;Estados Unidos;;Baltimore;Embassy Suites By Hilton Baltimore Hunt Valley;213 International Circle;;;;;;39.50144;-76.65904;;;;N;;0;;S;;Estados Unidos,,Baltimore,Embassy Suites By Hilton Baltimore Hunt Valley,213 International Circle,,        
;76ABAD32-4581-460C-BB0B-0CB3B5239FF0;Belize;;Belize City;Radisson Fort George Hotel And Marina;2 Marine Parade;;;;;;17.49276;-88.18125;;;;N;;0;;S;;Belize,,Belize City,Radisson Fort George Hotel And Marina,2 Marine Parade,,        
;C97AD314-5568-4252-A1C0-A52444708CC7;Itália;;Bolzano;Four Points By Sheraton Bolzano;Via Bruno Buozzi, 35;;;;;;46.47182;11.32497;;;;N;;0;;S;;Itália,,Bolzano,Four Points By Sheraton Bolzano,Via Bruno Buozzi, 35,,        
;0BB0FAE0-8832-4B00-AF47-B74D607B9687;Estados Unidos;;Columbia;Hyatt Place Columbia Downtown The Vista;819 Gervais Street, Columbia, SC, US;;;;;;34.00027;-81.03943;;;;N;;0;;S;;Estados Unidos,,Columbia,Hyatt Place Columbia Downtown The Vista,819 Gervais Street, Columbia, SC, US,,        
;2AA48BB1-4CE9-48DE-AFBD-0D6F09911E1C;Egito;Cairo;Cairo;Crowne Plaza West Cairo Arkan ;Plot 29, Arkan Plaza, Zayed E. 2 26th of July C.;;;;;;30.05227;31.24623;;;;N;;0;;S;;Egito,Cairo,Cairo,Crowne Plaza West Cairo Arkan ,Plot 29, Arkan Plaza, Zayed E. 2 26th of July C.,,        
;1378AAE7-9286-46EB-ADAD-17278D66BA72;Bolívia;;Cochabamba;Hotel Caminho Plaza;Calle Huallparimachi 1862;;;;;;-17.36865;-66.16339;;;;N;;0;;S;;Bolívia,,Cochabamba,Hotel Caminho Plaza,Calle Huallparimachi 1862,,        
;22D7ED8A-60D5-467A-9B81-A6BF4D3ACD19;Reino Unido;;Cambridge;Moller Institute;Storeys Way 51;;;;;;52.21471;0.09916;;;;N;;0;;S;;Reino Unido,,Cambridge,Moller Institute,Storeys Way 51,,        
;F0317325-755B-4688-8004-5C3D0C53A045;Chile;;Concepcion;Mercure Concepcion;Cochrane Poniente 75;;;;;;-36.83253;-73.05599;;;;N;;0;;S;;Chile,,Concepcion,Mercure Concepcion,Cochrane Poniente 75,,        
;4724B1BA-B26A-42DA-81B5-0554AFD0C31E;França;;Cannes;Villa Claudia Hotel Cannes;37 Bd d Alsace;;;;;;43.55386;7.02638;;;;N;;0;;S;;França,,Cannes,Villa Claudia Hotel Cannes,37 Bd d Alsace,,        
;4653A7F6-F248-4E56-91D9-19C1BE64A447;França;;Cannes;Okko Hotels Cannes Center;6bis Place de la Gare;;;;;;43.55354;7.02114;;;;N;;0;;S;;França,,Cannes,Okko Hotels Cannes Center,6bis Place de la Gare,,        
;059E2D38-2444-4E9D-82A4-380A00E9BB36;França;;Cannes;Hotel Cannes Montfleury;25 Av. Beauséjour;;;;;;43.55519;7.03404;;;;N;;0;;S;;França,,Cannes,Hotel Cannes Montfleury,25 Av. Beauséjour,,        
;94C7199D-717C-461D-8967-51BFAD15FA86;França;;Cannes;Hotel Luxotel Cannes;65 Avenue du Docteur Picaud;;;;;;43.54976;6.99216;;;;N;;0;;S;;França,,Cannes,Hotel Luxotel Cannes,65 Avenue du Docteur Picaud,,        
;86011DFD-DB9A-4286-8932-52AFB63D40F3;França;;Cannes;Eden Hotel E Spa;133 Rue dAntibes;;;;;;43.55171;7.02822;;;;N;;0;;S;;França,,Cannes,Eden Hotel E Spa,133 Rue dAntibes,,        
;4F7D2238-6053-4D99-A0F2-5BB9D15B0C21;França;;Cannes;Hotel Moliere Cannes;5 Rue Moliere;;;;;;43.55175;7.02529;;;;N;;0;;S;;França,,Cannes,Hotel Moliere Cannes,5 Rue Moliere,,        
;10FF74BE-B17F-4308-991E-640B3ED0FAAA;França;;Cannes;Hotel de Provence;9 Rue Moliere 06400;Centro;;;;;43.55173;7.02548;;0;;N;;0;;S;;França,,Cannes,Hotel de Provence,9 Rue Moliere 06400,Centro,        
;DE33D83C-C791-4183-9ACE-64265B37094F;França;;Cannes;Bw Plus Le Patio Des Artistes;6 Rue De Bone;;;;;;43.55225;7.02824;;;;N;;0;;S;;França,,Cannes,Bw Plus Le Patio Des Artistes,6 Rue De Bone,,        
;84B0E3AB-1C11-455A-A9B7-72344BE4C510;França;;Cannes;Holiday Inn Cannes;65 Avenue du Drive Raymond Picaud;;;;;;43.54976;6.99216;;;;N;;0;;S;;França,,Cannes,Holiday Inn Cannes,65 Avenue du Drive Raymond Picaud,,        
;0A554FCE-909F-45DF-9448-7311051BC1E3;França;;Cannes;Best Western Premier Mondial;77 Rue D Antibes;;;;;;43.55249;7.02305;;;;N;;0;;S;;França,,Cannes,Best Western Premier Mondial,77 Rue D Antibes,,        
;7B2DD05C-9187-47B4-A0A8-8F650CA0F65C;França;;Cannes;Hotel Mercure Cannes Mandelieu;6 Allee des Cormorans;;;;;;43.54364;6.95753;;;;N;;0;;S;;França,,Cannes,Hotel Mercure Cannes Mandelieu,6 Allee des Cormorans,,        
;16CECBD3-ECEF-44D3-B9A7-8FBD148ED221;França;;Cannes;Juliana Hotel Cannes;14 Av. de Madrid, 06400;;;;;;43.54809;7.034;;;;N;;0;;S;;França,,Cannes,Juliana Hotel Cannes,14 Av. de Madrid, 06400,,        
;B4896EA7-78CE-4F55-988C-9BE542695112;França;;Cannes;Novotel Suites Cannes Centre;46 Bis Boulevard Carnot;;;;;;43.55788;7.01704;;;;N;;0;;S;;França,,Cannes,Novotel Suites Cannes Centre,46 Bis Boulevard Carnot,,        
;D2F280C3-C38E-40ED-9FA2-A5340B229DBA;França;;Cannes;Hotel Victoria Cannes;RondPoint Duboys D Angers;;;;;;43.55171;7.02624;;;;N;;0;;S;;França,,Cannes,Hotel Victoria Cannes,RondPoint Duboys D Angers,,        